[{"id":"110111001","name":"城关街道","pinyin":"chengguanjiedao","location":{"latitude":39.709588,"longitude":115.992175},"polygon":[]},{"id":"110111002","name":"新镇街道","pinyin":"xinzhenjiedao","location":{"latitude":39.735094,"longitude":116.062323},"polygon":[]},{"id":"110111004","name":"向阳街道","pinyin":"xiangyangjiedao","location":{"latitude":39.753266,"longitude":115.935811},"polygon":[]},{"id":"110111005","name":"东风街道","pinyin":"dongfengjiedao","location":{"latitude":39.763491,"longitude":115.960865},"polygon":[]},{"id":"110111006","name":"迎风街道","pinyin":"yingfengjiedao","location":{"latitude":39.724957,"longitude":115.970183},"polygon":[]},{"id":"110111007","name":"星城街道","pinyin":"xingchengjiedao","location":{"latitude":39.710764,"longitude":116.061924},"polygon":[]},{"id":"110111011","name":"拱辰街道","pinyin":"gongchenjiedao","location":{"latitude":39.729122,"longitude":116.15998},"polygon":[]},{"id":"110111012","name":"西潞街道","pinyin":"xilujiedao","location":{"latitude":39.738985,"longitude":116.125429},"polygon":[]},{"id":"110111101","name":"阎村镇","pinyin":"yancunzhen","location":{"latitude":39.709012,"longitude":116.100638},"polygon":[]},{"id":"110111103","name":"窦店镇","pinyin":"doudianzhen","location":{"latitude":39.653151,"longitude":116.097546},"polygon":[]},{"id":"110111104","name":"石楼镇","pinyin":"shilouzhen","location":{"latitude":39.642506,"longitude":115.980635},"polygon":[]},{"id":"110111105","name":"长阳镇","pinyin":"changyangzhen","location":{"latitude":39.731417,"longitude":116.215878},"polygon":[]},{"id":"110111107","name":"河北镇","pinyin":"hebeizhen","location":{"latitude":39.818549,"longitude":115.959266},"polygon":[]},{"id":"110111108","name":"长沟镇","pinyin":"changgouzhen","location":{"latitude":39.582658,"longitude":115.878509},"polygon":[]},{"id":"110111109","name":"大石窝镇","pinyin":"dashiwozhen","location":{"latitude":39.577758,"longitude":115.81471},"polygon":[]},{"id":"110111110","name":"张坊镇","pinyin":"zhangfangzhen","location":{"latitude":39.628717,"longitude":115.699251},"polygon":[]},{"id":"110111111","name":"十渡镇","pinyin":"shiduzhen","location":{"latitude":39.680003,"longitude":115.597091},"polygon":[]},{"id":"110111112","name":"青龙湖镇","pinyin":"qinglonghuzhen","location":{"latitude":39.793244,"longitude":116.046168},"polygon":[]},{"id":"110111115","name":"韩村河镇","pinyin":"hancunhezhen","location":{"latitude":39.635655,"longitude":115.8722},"polygon":[]},{"id":"110111116","name":"良乡镇","pinyin":"liangxiangzhen","location":{"latitude":39.681537,"longitude":116.150186},"polygon":[]},{"id":"110111117","name":"周口店镇","pinyin":"zhoukoudianzhen","location":{"latitude":39.698628,"longitude":115.885784},"polygon":[]},{"id":"110111118","name":"琉璃河镇","pinyin":"liulihezhen","location":{"latitude":39.612828,"longitude":116.094175},"polygon":[]},{"id":"110111208","name":"霞云岭乡","pinyin":"xiayunlingxiang","location":{"latitude":39.757578,"longitude":115.70711},"polygon":[]},{"id":"110111209","name":"南窖乡","pinyin":"nanjiaoxiang","location":{"latitude":39.779386,"longitude":115.84019},"polygon":[]},{"id":"110111210","name":"佛子庄乡","pinyin":"fozizhuangxiang","location":{"latitude":39.83961,"longitude":115.839087},"polygon":[]},{"id":"110111211","name":"大安山乡","pinyin":"daanshanxiang","location":{"latitude":39.889411,"longitude":115.793622},"polygon":[]},{"id":"110111212","name":"史家营乡","pinyin":"shijiayingxiang","location":{"latitude":39.853194,"longitude":115.680159},"polygon":[]},{"id":"110111213","name":"蒲洼乡","pinyin":"puwaxiang","location":{"latitude":39.748478,"longitude":115.508607},"polygon":[]}]