[{"id":"110119001","name":"百泉街道","pinyin":"baiquanjiedao","location":{"latitude":40.444619,"longitude":115.993998},"polygon":[]},{"id":"110119002","name":"香水园街道","pinyin":"xiangshuiyuanjiedao","location":{"latitude":40.471168,"longitude":115.990354},"polygon":[]},{"id":"110119003","name":"儒林街道","pinyin":"rulinjiedao","location":{"latitude":40.468658,"longitude":115.969393},"polygon":[]},{"id":"110119100","name":"延庆镇","pinyin":"yanqingzhen","location":{"latitude":40.472334,"longitude":115.930335},"polygon":[]},{"id":"110119101","name":"康庄镇","pinyin":"kangzhuangzhen","location":{"latitude":40.406058,"longitude":115.880275},"polygon":[]},{"id":"110119102","name":"八达岭镇","pinyin":"badalingzhen","location":{"latitude":40.332409,"longitude":115.96507},"polygon":[]},{"id":"110119103","name":"永宁镇","pinyin":"yongningzhen","location":{"latitude":40.497909,"longitude":116.221874},"polygon":[]},{"id":"110119104","name":"旧县镇","pinyin":"jiuxianzhen","location":{"latitude":40.566858,"longitude":116.034395},"polygon":[]},{"id":"110119105","name":"张山营镇","pinyin":"zhangshanyingzhen","location":{"latitude":40.521463,"longitude":115.88875},"polygon":[]},{"id":"110119106","name":"四海镇","pinyin":"sihaizhen","location":{"latitude":40.547887,"longitude":116.372579},"polygon":[]},{"id":"110119107","name":"千家店镇","pinyin":"qianjiadianzhen","location":{"latitude":40.700575,"longitude":116.355961},"polygon":[]},{"id":"110119108","name":"沈家营镇","pinyin":"shenjiayingzhen","location":{"latitude":40.48954,"longitude":116.051629},"polygon":[]},{"id":"110119109","name":"大榆树镇","pinyin":"dayushuzhen","location":{"latitude":40.424594,"longitude":115.992264},"polygon":[]},{"id":"110119110","name":"井庄镇","pinyin":"jingzhuangzhen","location":{"latitude":40.409092,"longitude":116.091532},"polygon":[]},{"id":"110119207","name":"大庄科乡","pinyin":"dazhuangkexiang","location":{"latitude":40.422912,"longitude":116.220507},"polygon":[]},{"id":"110119209","name":"刘斌堡乡","pinyin":"liubinbaoxiang","location":{"latitude":40.578338,"longitude":116.267013},"polygon":[]},{"id":"110119210","name":"香营乡","pinyin":"xiangyingxiang","location":{"latitude":40.642367,"longitude":116.170886},"polygon":[]},{"id":"110119214","name":"珍珠泉乡","pinyin":"zhenzhuquanxiang","location":{"latitude":40.600731,"longitude":116.459855},"polygon":[]}]