[{"id":"110114001","name":"城北街道","pinyin":"chengbeijiedao","location":{"latitude":40.224209,"longitude":116.243186},"polygon":[]},{"id":"110114005","name":"城南街道","pinyin":"chengnanjiedao","location":{"latitude":40.224824,"longitude":116.196257},"polygon":[]},{"id":"110114006","name":"天通苑北街道","pinyin":"tiantongyuanbeijiedao","location":{"latitude":40.075365,"longitude":116.415405},"polygon":[]},{"id":"110114007","name":"天通苑南街道","pinyin":"tiantongyuannanjiedao","location":{"latitude":40.052337,"longitude":116.406621},"polygon":[]},{"id":"110114008","name":"霍营街道","pinyin":"huoyingjiedao","location":{"latitude":40.078521,"longitude":116.366079},"polygon":[]},{"id":"110114009","name":"回龙观街道","pinyin":"huilongguanjiedao","location":{"latitude":40.064277,"longitude":116.324793},"polygon":[]},{"id":"110114010","name":"龙泽园街道","pinyin":"longzeyuanjiedao","location":{"latitude":40.08096,"longitude":116.347417},"polygon":[]},{"id":"110114011","name":"史各庄街道","pinyin":"shigezhuangjiedao","location":{"latitude":40.096867,"longitude":116.28938},"polygon":[]},{"id":"110114104","name":"阳坊镇","pinyin":"yangfangzhen","location":{"latitude":40.144696,"longitude":116.133968},"polygon":[]},{"id":"110114110","name":"小汤山镇","pinyin":"xiaotangshanzhen","location":{"latitude":40.162709,"longitude":116.413683},"polygon":[]},{"id":"110114111","name":"南邵镇","pinyin":"nanshaozhen","location":{"latitude":40.217146,"longitude":116.298352},"polygon":[]},{"id":"110114112","name":"崔村镇","pinyin":"cuicunzhen","location":{"latitude":40.24523,"longitude":116.348722},"polygon":[]},{"id":"110114113","name":"百善镇","pinyin":"baishanzhen","location":{"latitude":40.158566,"longitude":116.337957},"polygon":[]},{"id":"110114115","name":"北七家镇","pinyin":"beiqijiazhen","location":{"latitude":40.106252,"longitude":116.423927},"polygon":[]},{"id":"110114116","name":"兴寿镇","pinyin":"xingshouzhen","location":{"latitude":40.261403,"longitude":116.442766},"polygon":[]},{"id":"110114118","name":"流村镇","pinyin":"liucunzhen","location":{"latitude":40.169304,"longitude":115.978946},"polygon":[]},{"id":"110114119","name":"十三陵镇","pinyin":"shisanlingzhen","location":{"latitude":40.289263,"longitude":116.184626},"polygon":[]},{"id":"110114120","name":"延寿镇","pinyin":"yanshouzhen","location":{"latitude":40.334621,"longitude":116.245987},"polygon":[]},{"id":"110114121","name":"南口镇","pinyin":"nankouzhen","location":{"latitude":40.257008,"longitude":116.087647},"polygon":[]},{"id":"110114122","name":"马池口镇","pinyin":"machikouzhen","location":{"latitude":40.176943,"longitude":116.173459},"polygon":[]},{"id":"110114123","name":"沙河镇","pinyin":"shahezhen","location":{"latitude":40.134294,"longitude":116.282607},"polygon":[]},{"id":"110114125","name":"东小口镇","pinyin":"dongxiaokouzhen","location":{"latitude":40.072756,"longitude":116.387396},"polygon":[]}]