[{"id":"110101001","name":"东华门街道","pinyin":"donghuamenjiedao","location":{"latitude":39.912225,"longitude":116.404947},"polygon":[]},{"id":"110101002","name":"景山街道","pinyin":"jingshanjiedao","location":{"latitude":39.928489,"longitude":116.407038},"polygon":[]},{"id":"110101003","name":"交道口街道","pinyin":"jiaodaokoujiedao","location":{"latitude":39.937157,"longitude":116.406623},"polygon":[]},{"id":"110101004","name":"安定门街道","pinyin":"andingmenjiedao","location":{"latitude":39.945168,"longitude":116.405391},"polygon":[]},{"id":"110101005","name":"北新桥街道","pinyin":"beixinqiaojiedao","location":{"latitude":39.941875,"longitude":116.425267},"polygon":[]},{"id":"110101006","name":"东四街道","pinyin":"dongsijiedao","location":{"latitude":39.929001,"longitude":116.425855},"polygon":[]},{"id":"110101007","name":"朝阳门街道","pinyin":"zhaoyangmenjiedao","location":{"latitude":39.91999,"longitude":116.426174},"polygon":[]},{"id":"110101008","name":"建国门街道","pinyin":"jianguomenjiedao","location":{"latitude":39.908058,"longitude":116.426954},"polygon":[]},{"id":"110101009","name":"东直门街道","pinyin":"dongzhimenjiedao","location":{"latitude":39.940309,"longitude":116.439203},"polygon":[]},{"id":"110101010","name":"和平里街道","pinyin":"hepinglijiedao","location":{"latitude":39.961748,"longitude":116.407419},"polygon":[]},{"id":"110101011","name":"前门街道","pinyin":"qianmenjiedao","location":{"latitude":39.896085,"longitude":116.404182},"polygon":[]},{"id":"110101012","name":"崇文门外街道","pinyin":"chongwenmenwaijiedao","location":{"latitude":39.89695,"longitude":116.419328},"polygon":[]},{"id":"110101013","name":"东花市街道","pinyin":"donghuashijiedao","location":{"latitude":39.896607,"longitude":116.4373},"polygon":[]},{"id":"110101014","name":"龙潭街道","pinyin":"longtanjiedao","location":{"latitude":39.882791,"longitude":116.438701},"polygon":[]},{"id":"110101015","name":"体育馆路街道","pinyin":"tiyuguanlujiedao","location":{"latitude":39.883142,"longitude":116.426492},"polygon":[]},{"id":"110101016","name":"天坛街道","pinyin":"tiantanjiedao","location":{"latitude":39.882626,"longitude":116.40972},"polygon":[]},{"id":"110101017","name":"永定门外街道","pinyin":"yongdingmenwaijiedao","location":{"latitude":39.865715,"longitude":116.40178},"polygon":[]}]