[{"id":"110109001","name":"大峪街道","pinyin":"dayujiedao","location":{"latitude":39.935476,"longitude":116.102105},"polygon":[]},{"id":"110109002","name":"城子街道","pinyin":"chengzijiedao","location":{"latitude":39.952183,"longitude":116.093662},"polygon":[]},{"id":"110109003","name":"东辛房街道","pinyin":"dongxinfangjiedao","location":{"latitude":39.938997,"longitude":116.070237},"polygon":[]},{"id":"110109004","name":"大台街道","pinyin":"dataijiedao","location":{"latitude":39.944128,"longitude":115.876947},"polygon":[]},{"id":"110109101","name":"潭柘寺镇","pinyin":"tanzhesizhen","location":{"latitude":39.884186,"longitude":115.999429},"polygon":[]},{"id":"110109102","name":"永定镇","pinyin":"yongdingzhen","location":{"latitude":39.900549,"longitude":116.108612},"polygon":[]},{"id":"110109103","name":"龙泉镇","pinyin":"longquanzhen","location":{"latitude":39.956124,"longitude":116.109001},"polygon":[]},{"id":"110109104","name":"军庄镇","pinyin":"junzhuangzhen","location":{"latitude":40.010593,"longitude":116.119613},"polygon":[]},{"id":"110109105","name":"雁翅镇","pinyin":"yanchizhen","location":{"latitude":40.07342,"longitude":115.859178},"polygon":[]},{"id":"110109106","name":"斋堂镇","pinyin":"zhaitangzhen","location":{"latitude":40.018919,"longitude":115.698552},"polygon":[]},{"id":"110109107","name":"清水镇","pinyin":"qingshuizhen","location":{"latitude":39.947949,"longitude":115.5532},"polygon":[]},{"id":"110109108","name":"妙峰山镇","pinyin":"miaofengshanzhen","location":{"latitude":40.018236,"longitude":116.015141},"polygon":[]},{"id":"110109109","name":"王平镇","pinyin":"wangpingzhen","location":{"latitude":39.950921,"longitude":115.993764},"polygon":[]}]