[{"id":"110113001","name":"胜利街道","pinyin":"shenglijiedao","location":{"latitude":40.131172,"longitude":116.651205},"polygon":[]},{"id":"110113002","name":"光明街道","pinyin":"guangmingjiedao","location":{"latitude":40.130261,"longitude":116.664513},"polygon":[]},{"id":"110113010","name":"石园街道","pinyin":"shiyuanjiedao","location":{"latitude":40.101774,"longitude":116.669083},"polygon":[]},{"id":"110113011","name":"空港街道","pinyin":"konggangjiedao","location":{"latitude":40.071279,"longitude":116.546928},"polygon":[]},{"id":"110113012","name":"双丰街道","pinyin":"shuangfengjiedao","location":{"latitude":40.165538,"longitude":116.654753},"polygon":[]},{"id":"110113013","name":"旺泉街道","pinyin":"wangquanjiedao","location":{"latitude":40.113833,"longitude":116.634934},"polygon":[]},{"id":"110113101","name":"高丽营镇","pinyin":"gaoliyingzhen","location":{"latitude":40.156288,"longitude":116.541418},"polygon":[]},{"id":"110113104","name":"李桥镇","pinyin":"liqiaozhen","location":{"latitude":40.04664,"longitude":116.694354},"polygon":[]},{"id":"110113105","name":"李遂镇","pinyin":"lisuizhen","location":{"latitude":40.077822,"longitude":116.77258},"polygon":[]},{"id":"110113106","name":"南彩镇","pinyin":"nancaizhen","location":{"latitude":40.148225,"longitude":116.727759},"polygon":[]},{"id":"110113108","name":"北务镇","pinyin":"beiwuzhen","location":{"latitude":40.063851,"longitude":116.833038},"polygon":[]},{"id":"110113109","name":"大孙各庄镇","pinyin":"dasungezhuangzhen","location":{"latitude":40.088838,"longitude":116.925874},"polygon":[]},{"id":"110113110","name":"张镇","pinyin":"zhangzhen","location":{"latitude":40.148434,"longitude":116.944238},"polygon":[]},{"id":"110113111","name":"龙湾屯镇","pinyin":"longwantunzhen","location":{"latitude":40.239512,"longitude":116.862373},"polygon":[]},{"id":"110113112","name":"木林镇","pinyin":"mulinzhen","location":{"latitude":40.245675,"longitude":116.775049},"polygon":[]},{"id":"110113113","name":"北小营镇","pinyin":"beixiaoyingzhen","location":{"latitude":40.215546,"longitude":116.719875},"polygon":[]},{"id":"110113115","name":"北石槽镇","pinyin":"beishicaozhen","location":{"latitude":40.249622,"longitude":116.539797},"polygon":[]},{"id":"110113116","name":"赵全营镇","pinyin":"zhaoquanyingzhen","location":{"latitude":40.216584,"longitude":116.546636},"polygon":[]},{"id":"110113117","name":"仁和镇","pinyin":"renhezhen","location":{"latitude":40.10278,"longitude":116.711112},"polygon":[]},{"id":"110113118","name":"后沙峪镇","pinyin":"houshayuzhen","location":{"latitude":40.107409,"longitude":116.532445},"polygon":[]},{"id":"110113119","name":"天竺镇","pinyin":"tianzhuzhen","location":{"latitude":40.057,"longitude":116.580702},"polygon":[]},{"id":"110113120","name":"杨镇镇","pinyin":"yangzhenzhen","location":{"latitude":40.138263,"longitude":116.846219},"polygon":[]},{"id":"110113121","name":"牛栏山镇","pinyin":"niulanshanzhen","location":{"latitude":40.224024,"longitude":116.647496},"polygon":[]},{"id":"110113122","name":"南法信镇","pinyin":"nanfaxinzhen","location":{"latitude":40.12567,"longitude":116.602589},"polygon":[]},{"id":"110113123","name":"马坡镇","pinyin":"mapozhen","location":{"latitude":40.173291,"longitude":116.607838},"polygon":[]}]