[{"id":"110117001","name":"滨河街道","pinyin":"binhejiedao","location":{"latitude":40.138493,"longitude":117.110076},"polygon":[]},{"id":"110117002","name":"兴谷街道","pinyin":"xinggujiedao","location":{"latitude":40.159838,"longitude":117.129494},"polygon":[]},{"id":"110117101","name":"东高村镇","pinyin":"donggaocunzhen","location":{"latitude":40.089309,"longitude":117.094161},"polygon":[]},{"id":"110117102","name":"山东庄镇","pinyin":"shandongzhuangzhen","location":{"latitude":40.204989,"longitude":117.16555},"polygon":[]},{"id":"110117104","name":"南独乐河镇","pinyin":"nandulehezhen","location":{"latitude":40.189392,"longitude":117.21404},"polygon":[]},{"id":"110117105","name":"大华山镇","pinyin":"dahuashanzhen","location":{"latitude":40.293393,"longitude":117.055704},"polygon":[]},{"id":"110117106","name":"夏各庄镇","pinyin":"xiagezhuangzhen","location":{"latitude":40.112638,"longitude":117.18939},"polygon":[]},{"id":"110117108","name":"马昌营镇","pinyin":"machangyingzhen","location":{"latitude":40.120461,"longitude":117.011742},"polygon":[]},{"id":"110117110","name":"王辛庄镇","pinyin":"wangxinzhuangzhen","location":{"latitude":40.194962,"longitude":117.0834},"polygon":[]},{"id":"110117111","name":"大兴庄镇","pinyin":"daxingzhuangzhen","location":{"latitude":40.150382,"longitude":117.053946},"polygon":[]},{"id":"110117112","name":"刘家店镇","pinyin":"liujiadianzhen","location":{"latitude":40.25495,"longitude":116.992613},"polygon":[]},{"id":"110117114","name":"镇罗营镇","pinyin":"zhenluoyingzhen","location":{"latitude":40.336241,"longitude":117.177881},"polygon":[]},{"id":"110117115","name":"平谷镇","pinyin":"pingguzhen","location":{"latitude":40.131915,"longitude":117.084779},"polygon":[]},{"id":"110117116","name":"峪口镇","pinyin":"yukouzhen","location":{"latitude":40.185047,"longitude":116.994518},"polygon":[]},{"id":"110117117","name":"马坊镇","pinyin":"mafangzhen","location":{"latitude":40.067538,"longitude":117.006611},"polygon":[]},{"id":"110117118","name":"金海湖镇","pinyin":"jinhaihuzhen","location":{"latitude":40.210684,"longitude":117.332453},"polygon":[]},{"id":"110117213","name":"黄松峪乡","pinyin":"huangsongyuxiang","location":{"latitude":40.261477,"longitude":117.24405},"polygon":[]},{"id":"110117214","name":"熊儿寨乡","pinyin":"xiongerzhaixiang","location":{"latitude":40.278973,"longitude":117.164988},"polygon":[]}]