[{"id":"110102001","name":"西长安街街道","pinyin":"xichanganjiejiedao","location":{"latitude":39.911225,"longitude":116.38315},"polygon":[]},{"id":"110102003","name":"新街口街道","pinyin":"xinjiekoujiedao","location":{"latitude":39.9361,"longitude":116.364215},"polygon":[]},{"id":"110102007","name":"月坛街道","pinyin":"yuetanjiedao","location":{"latitude":39.90785,"longitude":116.346005},"polygon":[]},{"id":"110102009","name":"展览路街道","pinyin":"zhanlanlujiedao","location":{"latitude":39.935023,"longitude":116.344489},"polygon":[]},{"id":"110102010","name":"德胜街道","pinyin":"deshengjiedao","location":{"latitude":39.960732,"longitude":116.37921},"polygon":[]},{"id":"110102011","name":"金融街街道","pinyin":"jinrongjiejiedao","location":{"latitude":39.91167,"longitude":116.365277},"polygon":[]},{"id":"110102012","name":"什刹海街道","pinyin":"shichahaijiedao","location":{"latitude":39.935595,"longitude":116.384635},"polygon":[]},{"id":"110102013","name":"大栅栏街道","pinyin":"dazhalanjiedao","location":{"latitude":39.894894,"longitude":116.391298},"polygon":[]},{"id":"110102014","name":"天桥街道","pinyin":"tianqiaojiedao","location":{"latitude":39.881463,"longitude":116.39298},"polygon":[]},{"id":"110102015","name":"椿树街道","pinyin":"chunshujiedao","location":{"latitude":39.894688,"longitude":116.379562},"polygon":[]},{"id":"110102016","name":"陶然亭街道","pinyin":"taorantingjiedao","location":{"latitude":39.88006,"longitude":116.380957},"polygon":[]},{"id":"110102017","name":"广安门内街道","pinyin":"guanganmenneijiedao","location":{"latitude":39.894829,"longitude":116.362035},"polygon":[]},{"id":"110102018","name":"牛街街道","pinyin":"niujiejiedao","location":{"latitude":39.88642,"longitude":116.362178},"polygon":[]},{"id":"110102019","name":"白纸坊街道","pinyin":"baizhifangjiedao","location":{"latitude":39.875998,"longitude":116.362464},"polygon":[]},{"id":"110102020","name":"广安门外街道","pinyin":"guanganmenwaijiedao","location":{"latitude":39.885789,"longitude":116.336674},"polygon":[]}]