[{"id":"120110001","name":"张贵庄街道","pinyin":"zhangguizhuangjiedao","location":{"latitude":39.090613,"longitude":117.31476},"polygon":[]},{"id":"120110002","name":"丰年村街道","pinyin":"fengniancunjiedao","location":{"latitude":39.089548,"longitude":117.327006},"polygon":[]},{"id":"120110003","name":"万新街道","pinyin":"wanxinjiedao","location":{"latitude":39.126232,"longitude":117.30638},"polygon":[]},{"id":"120110004","name":"无瑕街道","pinyin":"wuxiajiedao","location":{"latitude":39.024722,"longitude":117.495796},"polygon":[]},{"id":"120110005","name":"新立街道","pinyin":"xinlijiedao","location":{"latitude":39.081491,"longitude":117.362821},"polygon":[]},{"id":"120110006","name":"华明街道","pinyin":"huamingjiedao","location":{"latitude":39.168491,"longitude":117.393344},"polygon":[]},{"id":"120110007","name":"金钟街道","pinyin":"jinzhongjiedao","location":{"latitude":39.206296,"longitude":117.287248},"polygon":[]},{"id":"120110008","name":"军粮城街道","pinyin":"junliangchengjiedao","location":{"latitude":39.099008,"longitude":117.486827},"polygon":[]},{"id":"120110009","name":"金桥街道","pinyin":"jinqiaojiedao","location":{"latitude":39.10899,"longitude":117.390888},"polygon":[]},{"id":"120110010","name":"东丽湖街道","pinyin":"donglihujiedao","location":{"latitude":39.166616,"longitude":117.436487},"polygon":[]},{"id":"120110400","name":"天津开发区西区","pinyin":"tianjinkaifaquxiqu","location":{"latitude":39.087764,"longitude":117.521418},"polygon":[]},{"id":"120110401","name":"天津航空物流区","pinyin":"tianjinhangkongwuliuqu","location":{"latitude":39.124845,"longitude":117.338037},"polygon":[]},{"id":"120110402","name":"天津空港经济区","pinyin":"tianjinkonggangjingjiqu","location":{"latitude":39.132476,"longitude":117.427402},"polygon":[]},{"id":"120110403","name":"东丽区开发区","pinyin":"dongliqukaifaqu","location":{"latitude":39.068898,"longitude":117.357243},"polygon":[]},{"id":"120110405","name":"综合保税区","pinyin":"zonghebaoshuiqu","location":{"latitude":39.113694,"longitude":117.399248},"polygon":[]},{"id":"120110407","name":"滨海新区建设管理委员会","pinyin":"binhaixinqujiansheguanliweiyuanhui","location":{"latitude":39.122685,"longitude":117.347333},"polygon":[]}]