[{"id":"120113001","name":"果园新村街道","pinyin":"guoyuanxincunjiedao","location":{"latitude":39.221568,"longitude":117.135973},"polygon":[]},{"id":"120113002","name":"集贤里街道","pinyin":"jixianlijiedao","location":{"latitude":39.230692,"longitude":117.128798},"polygon":[]},{"id":"120113003","name":"普东街道","pinyin":"pudongjiedao","location":{"latitude":39.201272,"longitude":117.20013},"polygon":[]},{"id":"120113004","name":"瑞景街道","pinyin":"ruijingjiedao","location":{"latitude":39.196693,"longitude":117.133462},"polygon":[]},{"id":"120113005","name":"佳荣里街道","pinyin":"jiaronglijiedao","location":{"latitude":39.193595,"longitude":117.119271},"polygon":[]},{"id":"120113100","name":"天穆镇","pinyin":"tianmuzhen","location":{"latitude":39.204707,"longitude":117.150999},"polygon":[]},{"id":"120113101","name":"北仓镇","pinyin":"beicangzhen","location":{"latitude":39.237788,"longitude":117.11842},"polygon":[]},{"id":"120113102","name":"双街镇","pinyin":"shuangjiezhen","location":{"latitude":39.280281,"longitude":117.104416},"polygon":[]},{"id":"120113103","name":"双口镇","pinyin":"shuangkouzhen","location":{"latitude":39.221421,"longitude":116.987212},"polygon":[]},{"id":"120113104","name":"青光镇","pinyin":"qingguangzhen","location":{"latitude":39.190672,"longitude":117.065612},"polygon":[]},{"id":"120113106","name":"宜兴埠镇","pinyin":"yixingbuzhen","location":{"latitude":39.211608,"longitude":117.236049},"polygon":[]},{"id":"120113107","name":"小淀镇","pinyin":"xiaodianzhen","location":{"latitude":39.243287,"longitude":117.223934},"polygon":[]},{"id":"120113108","name":"大张庄镇","pinyin":"dazhangzhuangzhen","location":{"latitude":39.307857,"longitude":117.211449},"polygon":[]},{"id":"120113111","name":"西堤头镇","pinyin":"xiditouzhen","location":{"latitude":39.292359,"longitude":117.318685},"polygon":[]},{"id":"120113400","name":"科技园区北区","pinyin":"kejiyuanqubeiqu","location":{"latitude":39.265407,"longitude":117.122645},"polygon":[]},{"id":"120113401","name":"科技园区南区","pinyin":"kejiyuanqunanqu","location":{"latitude":39.23191,"longitude":117.265954},"polygon":[]},{"id":"120113402","name":"天津医药医疗器械工业园","pinyin":"tianjinyiyaoyiliaoqixiegongyeyuan","location":{"latitude":39.225787,"longitude":117.030507},"polygon":[]},{"id":"120113403","name":"天津陆路港物流装备产业园","pinyin":"tianjinlulugangwuliuzhuangbeichanyeyuan","location":{"latitude":39.254591,"longitude":117.317589},"polygon":[]},{"id":"120113404","name":"天津风电产业园","pinyin":"tianjinfengdianchanyeyuan","location":{"latitude":39.313762,"longitude":117.180001},"polygon":[]},{"id":"120113501","name":"曙光农场","pinyin":"shuguangnongchang","location":{"latitude":39.278307,"longitude":117.357985},"polygon":[]}]