[{"id":"120112002","name":"双林街道","pinyin":"shuanglinjiedao","location":{"latitude":39.053098,"longitude":117.272329},"polygon":[]},{"id":"120112100","name":"咸水沽镇","pinyin":"xianshuiguzhen","location":{"latitude":38.991553,"longitude":117.37421},"polygon":[]},{"id":"120112101","name":"葛沽镇","pinyin":"geguzhen","location":{"latitude":38.979553,"longitude":117.510274},"polygon":[]},{"id":"120112102","name":"小站镇","pinyin":"xiaozhanzhen","location":{"latitude":38.906128,"longitude":117.442952},"polygon":[]},{"id":"120112103","name":"双港镇","pinyin":"shuanggangzhen","location":{"latitude":39.030042,"longitude":117.291832},"polygon":[]},{"id":"120112104","name":"辛庄镇","pinyin":"xinzhuangzhen","location":{"latitude":39.016932,"longitude":117.334164},"polygon":[]},{"id":"120112106","name":"双桥河镇","pinyin":"shuangqiaohezhen","location":{"latitude":38.98943,"longitude":117.443395},"polygon":[]},{"id":"120112107","name":"八里台镇","pinyin":"balitaizhen","location":{"latitude":38.912771,"longitude":117.317273},"polygon":[]},{"id":"120112108","name":"北闸口镇","pinyin":"beizhakouzhen","location":{"latitude":38.934159,"longitude":117.396573},"polygon":[]},{"id":"120112401","name":"铁路十八局","pinyin":"tielushibaju","location":{"latitude":39.06426,"longitude":117.299281},"polygon":[]},{"id":"120112404","name":"津南开发区东区","pinyin":"jinnankaifaqudongqu","location":{"latitude":38.984841,"longitude":117.456379},"polygon":[]},{"id":"120112405","name":"津南开发区西区","pinyin":"jinnankaifaquxiqu","location":{"latitude":39.04082,"longitude":117.301692},"polygon":[]},{"id":"120112407","name":"海河教育园区","pinyin":"haihejiaoyuyuanqu","location":{"latitude":39.003413,"longitude":117.33385},"polygon":[]}]