[{"id":"120114001","name":"杨村街道","pinyin":"yangcunjiedao","location":{"latitude":39.370148,"longitude":117.08653},"polygon":[]},{"id":"120114002","name":"下朱庄街道","pinyin":"xiazhuzhuangjiedao","location":{"latitude":39.333866,"longitude":117.098093},"polygon":[]},{"id":"120114003","name":"东蒲洼街道","pinyin":"dongpuwajiedao","location":{"latitude":39.40106,"longitude":117.005795},"polygon":[]},{"id":"120114004","name":"黄庄街道","pinyin":"huangzhuangjiedao","location":{"latitude":39.334394,"longitude":117.019988},"polygon":[]},{"id":"120114005","name":"徐官屯街道","pinyin":"xuguantunjiedao","location":{"latitude":39.404756,"longitude":117.085245},"polygon":[]},{"id":"120114006","name":"运河西街道","pinyin":"yunhexijiedao","location":{"latitude":39.375401,"longitude":117.052381},"polygon":[]},{"id":"120114101","name":"梅厂镇","pinyin":"meichangzhen","location":{"latitude":39.368122,"longitude":117.176214},"polygon":[]},{"id":"120114102","name":"大碱厂镇","pinyin":"dajianchangzhen","location":{"latitude":39.461605,"longitude":117.103219},"polygon":[]},{"id":"120114103","name":"崔黄口镇","pinyin":"cuihuangkouzhen","location":{"latitude":39.525486,"longitude":117.202838},"polygon":[]},{"id":"120114104","name":"大良镇","pinyin":"daliangzhen","location":{"latitude":39.560776,"longitude":117.04899},"polygon":[]},{"id":"120114105","name":"下伍旗镇","pinyin":"xiawuqizhen","location":{"latitude":39.613638,"longitude":117.038703},"polygon":[]},{"id":"120114106","name":"南蔡村镇","pinyin":"nancaicunzhen","location":{"latitude":39.482821,"longitude":117.0274},"polygon":[]},{"id":"120114107","name":"大孟庄镇","pinyin":"damengzhuangzhen","location":{"latitude":39.549925,"longitude":116.969486},"polygon":[]},{"id":"120114108","name":"泗村店镇","pinyin":"sicundianzhen","location":{"latitude":39.471092,"longitude":116.943056},"polygon":[]},{"id":"120114109","name":"河西务镇","pinyin":"hexiwuzhen","location":{"latitude":39.642851,"longitude":116.935417},"polygon":[]},{"id":"120114110","name":"城关镇","pinyin":"chengguanzhen","location":{"latitude":39.500585,"longitude":116.872679},"polygon":[]},{"id":"120114111","name":"东马圈镇","pinyin":"dongmaquanzhen","location":{"latitude":39.458393,"longitude":116.840404},"polygon":[]},{"id":"120114112","name":"黄花店镇","pinyin":"huanghuadianzhen","location":{"latitude":39.363229,"longitude":116.883521},"polygon":[]},{"id":"120114113","name":"石各庄镇","pinyin":"shigezhuangzhen","location":{"latitude":39.304609,"longitude":116.921679},"polygon":[]},{"id":"120114114","name":"王庆坨镇","pinyin":"wangqingtuozhen","location":{"latitude":39.175008,"longitude":116.901708},"polygon":[]},{"id":"120114115","name":"汊沽港镇","pinyin":"chagugangzhen","location":{"latitude":39.232,"longitude":116.934961},"polygon":[]},{"id":"120114116","name":"河北屯镇","pinyin":"hebeitunzhen","location":{"latitude":39.592109,"longitude":117.137341},"polygon":[]},{"id":"120114117","name":"上马台镇","pinyin":"shangmataizhen","location":{"latitude":39.379369,"longitude":117.266731},"polygon":[]},{"id":"120114118","name":"大王古庄镇","pinyin":"daiwangguzhuangzhen","location":{"latitude":39.575305,"longitude":116.827537},"polygon":[]},{"id":"120114119","name":"陈咀镇","pinyin":"chenjuzhen","location":{"latitude":39.29794,"longitude":117.004964},"polygon":[]},{"id":"120114120","name":"白古屯镇","pinyin":"baigutunzhen","location":{"latitude":39.555624,"longitude":116.905662},"polygon":[]},{"id":"120114121","name":"曹子里镇","pinyin":"caozilizhen","location":{"latitude":39.433561,"longitude":117.15354},"polygon":[]},{"id":"120114122","name":"大黄堡镇","pinyin":"dahuangbaozhen","location":{"latitude":39.458918,"longitude":117.243986},"polygon":[]},{"id":"120114123","name":"豆张庄镇","pinyin":"douzhangzhuangzhen","location":{"latitude":39.384889,"longitude":116.951303},"polygon":[]},{"id":"120114124","name":"高村镇","pinyin":"gaocunzhen","location":{"latitude":39.63525,"longitude":116.863477},"polygon":[]},{"id":"120114400","name":"天津开发区逸仙科学工业园","pinyin":"tianjinkaifaquyixiankexuegongyeyuan","location":{"latitude":39.404402,"longitude":117.028152},"polygon":[]},{"id":"120114401","name":"武清区开发区","pinyin":"wuqingqukaifaqu","location":{"latitude":39.414709,"longitude":117.048755},"polygon":[]},{"id":"120114402","name":"武清商务区","pinyin":"wuqingshangwuqu","location":{"latitude":39.622429,"longitude":116.842794},"polygon":[]},{"id":"120114403","name":"武清京滨园","pinyin":"wuqingjingbinyuan","location":{"latitude":39.556782,"longitude":116.818156},"polygon":[]},{"id":"120114405","name":"武清汽车园","pinyin":"wuqingqicheyuan","location":{"latitude":39.390866,"longitude":117.230329},"polygon":[]},{"id":"120114406","name":"武清科技谷","pinyin":"wuqingkejigu","location":{"latitude":39.262903,"longitude":116.927085},"polygon":[]},{"id":"120114500","name":"武清农场","pinyin":"wuqingnongchang","location":{"latitude":39.311329,"longitude":117.137176},"polygon":[]}]