[{"id":"120102001","name":"大王庄街道","pinyin":"daiwangzhuangjiedao","location":{"latitude":39.123465,"longitude":117.228034},"polygon":[]},{"id":"120102002","name":"大直沽街道","pinyin":"dazhigujiedao","location":{"latitude":39.110688,"longitude":117.242001},"polygon":[]},{"id":"120102003","name":"中山门街道","pinyin":"zhongshanmenjiedao","location":{"latitude":39.105269,"longitude":117.265544},"polygon":[]},{"id":"120102004","name":"富民路街道","pinyin":"fuminlujiedao","location":{"latitude":39.093345,"longitude":117.259044},"polygon":[]},{"id":"120102005","name":"二号桥街道","pinyin":"erhaoqiaojiedao","location":{"latitude":39.095022,"longitude":117.292081},"polygon":[]},{"id":"120102006","name":"春华街道","pinyin":"chunhuajiedao","location":{"latitude":39.142622,"longitude":117.220048},"polygon":[]},{"id":"120102007","name":"唐家口街道","pinyin":"tangjiakoujiedao","location":{"latitude":39.131494,"longitude":117.233446},"polygon":[]},{"id":"120102008","name":"向阳楼街道","pinyin":"xiangyangloujiedao","location":{"latitude":39.137281,"longitude":117.255052},"polygon":[]},{"id":"120102009","name":"常州道街道","pinyin":"changzhoudaojiedao","location":{"latitude":39.150945,"longitude":117.25871},"polygon":[]},{"id":"120102010","name":"上杭路街道","pinyin":"shanghanglujiedao","location":{"latitude":39.118986,"longitude":117.260468},"polygon":[]},{"id":"120102011","name":"东新街道","pinyin":"dongxinjiedao","location":{"latitude":39.140702,"longitude":117.276145},"polygon":[]},{"id":"120102012","name":"鲁山道街道","pinyin":"lushandaojiedao","location":{"latitude":39.156884,"longitude":117.270841},"polygon":[]}]