[{"id":"310101002","name":"南京东路街道","pinyin":"nanjingdonglujiedao","location":{"latitude":31.232536,"longitude":121.474681},"polygon":[]},{"id":"310101013","name":"外滩街道","pinyin":"waitanjiedao","location":{"latitude":31.234942,"longitude":121.487156},"polygon":[]},{"id":"310101015","name":"半淞园路街道","pinyin":"bansongyuanlujiedao","location":{"latitude":31.203315,"longitude":121.494605},"polygon":[]},{"id":"310101017","name":"小东门街道","pinyin":"xiaodongmenjiedao","location":{"latitude":31.219032,"longitude":121.501964},"polygon":[]},{"id":"310101018","name":"豫园街道","pinyin":"yuyuanjiedao","location":{"latitude":31.22339,"longitude":121.48859},"polygon":[]},{"id":"310101019","name":"老西门街道","pinyin":"laoximenjiedao","location":{"latitude":31.217164,"longitude":121.488736},"polygon":[]},{"id":"310101020","name":"五里桥街道","pinyin":"wuliqiaojiedao","location":{"latitude":31.197179,"longitude":121.481412},"polygon":[]},{"id":"310101021","name":"打浦桥街道","pinyin":"dapuqiaojiedao","location":{"latitude":31.207742,"longitude":121.472626},"polygon":[]},{"id":"310101022","name":"淮海中路街道","pinyin":"huaihaizhonglujiedao","location":{"latitude":31.218484,"longitude":121.476583},"polygon":[]},{"id":"310101023","name":"瑞金二路街道","pinyin":"ruijinerlujiedao","location":{"latitude":31.215865,"longitude":121.465348},"polygon":[]}]