[{"id":"310151100","name":"城桥镇","pinyin":"chengqiaozhen","location":{"latitude":31.628174,"longitude":121.423107},"polygon":[]},{"id":"310151101","name":"堡镇","pinyin":"baozhen","location":{"latitude":31.627309,"longitude":121.42442},"polygon":[]},{"id":"310151102","name":"新河镇","pinyin":"xinhezhen","location":{"latitude":31.545784,"longitude":121.64489},"polygon":[]},{"id":"310151103","name":"庙镇","pinyin":"miaozhen","location":{"latitude":31.601754,"longitude":121.528809},"polygon":[]},{"id":"310151104","name":"竖新镇","pinyin":"shuxinzhen","location":{"latitude":31.710411,"longitude":121.34853},"polygon":[]},{"id":"310151105","name":"向化镇","pinyin":"xianghuazhen","location":{"latitude":31.547034,"longitude":121.743101},"polygon":[]},{"id":"310151106","name":"三星镇","pinyin":"sanxingzhen","location":{"latitude":31.584047,"longitude":121.5834},"polygon":[]},{"id":"310151107","name":"港沿镇","pinyin":"gangyanzhen","location":{"latitude":31.545414,"longitude":121.740694},"polygon":[]},{"id":"310151108","name":"中兴镇","pinyin":"zhongxingzhen","location":{"latitude":31.533863,"longitude":121.77675},"polygon":[]},{"id":"310151109","name":"陈家镇","pinyin":"chenjiazhen","location":{"latitude":31.751519,"longitude":121.294205},"polygon":[]},{"id":"310151110","name":"绿华镇","pinyin":"lvhuazhen","location":{"latitude":31.7641,"longitude":121.208213},"polygon":[]},{"id":"310151111","name":"港西镇","pinyin":"gangxizhen","location":{"latitude":31.689818,"longitude":121.411476},"polygon":[]},{"id":"310151112","name":"建设镇","pinyin":"jianshezhen","location":{"latitude":31.651797,"longitude":121.469332},"polygon":[]},{"id":"310151113","name":"新海镇","pinyin":"xinhaizhen","location":{"latitude":31.58001,"longitude":121.680832},"polygon":[]},{"id":"310151114","name":"东平镇","pinyin":"dongpingzhen","location":{"latitude":31.53292,"longitude":121.775359},"polygon":[]},{"id":"310151115","name":"长兴镇","pinyin":"changxingzhen","location":{"latitude":31.508923,"longitude":121.820191},"polygon":[]},{"id":"310151200","name":"新村乡","pinyin":"xincunxiang","location":{"latitude":31.83482,"longitude":121.329175},"polygon":[]},{"id":"310151201","name":"横沙乡","pinyin":"hengshaxiang","location":{"latitude":31.835409,"longitude":121.317177},"polygon":[]},{"id":"310151410","name":"东平林场","pinyin":"dongpinglinchang","location":{"latitude":31.676154,"longitude":121.479078},"polygon":[]}]