[{"id":"310113003","name":"友谊路街道","pinyin":"youyilujiedao","location":{"latitude":31.39834,"longitude":121.492091},"polygon":[]},{"id":"310113007","name":"吴淞街道","pinyin":"wusongjiedao","location":{"latitude":31.37431,"longitude":121.493519},"polygon":[]},{"id":"310113008","name":"张庙街道","pinyin":"zhangmiaojiedao","location":{"latitude":31.336753,"longitude":121.450954},"polygon":[]},{"id":"310113101","name":"罗店镇","pinyin":"luodianzhen","location":{"latitude":31.409026,"longitude":121.34913},"polygon":[]},{"id":"310113102","name":"大场镇","pinyin":"dachangzhen","location":{"latitude":31.301882,"longitude":121.394869},"polygon":[]},{"id":"310113103","name":"杨行镇","pinyin":"yanghangzhen","location":{"latitude":31.378943,"longitude":121.451003},"polygon":[]},{"id":"310113104","name":"月浦镇","pinyin":"yuepuzhen","location":{"latitude":31.438619,"longitude":121.413765},"polygon":[]},{"id":"310113106","name":"罗泾镇","pinyin":"luojingzhen","location":{"latitude":31.473285,"longitude":121.349946},"polygon":[]},{"id":"310113109","name":"顾村镇","pinyin":"gucunzhen","location":{"latitude":31.353324,"longitude":121.386015},"polygon":[]},{"id":"310113111","name":"高境镇","pinyin":"gaojingzhen","location":{"latitude":31.322738,"longitude":121.471049},"polygon":[]},{"id":"310113112","name":"庙行镇","pinyin":"miaohangzhen","location":{"latitude":31.327411,"longitude":121.431213},"polygon":[]},{"id":"310113113","name":"淞南镇","pinyin":"songnanzhen","location":{"latitude":31.347064,"longitude":121.489943},"polygon":[]}]