[{"id":"310107005","name":"曹杨新村街道","pinyin":"caoyangxincunjiedao","location":{"latitude":31.238499,"longitude":121.407564},"polygon":[]},{"id":"310107014","name":"长风新村街道","pinyin":"changfengxincunjiedao","location":{"latitude":31.228073,"longitude":121.39604},"polygon":[]},{"id":"310107015","name":"长寿路街道","pinyin":"changshoulujiedao","location":{"latitude":31.240257,"longitude":121.430326},"polygon":[]},{"id":"310107016","name":"甘泉路街道","pinyin":"ganquanlujiedao","location":{"latitude":31.265883,"longitude":121.432754},"polygon":[]},{"id":"310107017","name":"石泉路街道","pinyin":"shiquanlujiedao","location":{"latitude":31.251426,"longitude":121.419688},"polygon":[]},{"id":"310107020","name":"宜川路街道","pinyin":"yichuanlujiedao","location":{"latitude":31.25695,"longitude":121.443164},"polygon":[]},{"id":"310107021","name":"真如镇街道","pinyin":"zhenruzhenjiedao","location":{"latitude":31.256727,"longitude":121.395633},"polygon":[]},{"id":"310107022","name":"万里街道","pinyin":"wanlijiedao","location":{"latitude":31.269741,"longitude":121.407585},"polygon":[]},{"id":"310107102","name":"长征镇","pinyin":"changzhengzhen","location":{"latitude":31.234699,"longitude":121.37709},"polygon":[]},{"id":"310107103","name":"桃浦镇","pinyin":"taopuzhen","location":{"latitude":31.279952,"longitude":121.368624},"polygon":[]}]