[{"id":"419001001","name":"沁园街道","pinyin":"qinyuanjiedao","location":{"latitude":35.073128,"longitude":112.59161},"polygon":[]},{"id":"419001002","name":"济水街道","pinyin":"jishuijiedao","location":{"latitude":35.092384,"longitude":112.586516},"polygon":[]},{"id":"419001003","name":"北海街道","pinyin":"beihaijiedao","location":{"latitude":35.109704,"longitude":112.585722},"polygon":[]},{"id":"419001004","name":"天坛街道","pinyin":"tiantanjiedao","location":{"latitude":35.098067,"longitude":112.548952},"polygon":[]},{"id":"419001005","name":"玉泉街道","pinyin":"yuquanjiedao","location":{"latitude":35.089871,"longitude":112.655954},"polygon":[]},{"id":"419001100","name":"克井镇","pinyin":"kejingzhen","location":{"latitude":35.191153,"longitude":112.56468},"polygon":[]},{"id":"419001101","name":"五龙口镇","pinyin":"wulongkouzhen","location":{"latitude":35.159257,"longitude":112.713588},"polygon":[]},{"id":"419001102","name":"轵城镇","pinyin":"zhichengzhen","location":{"latitude":35.025979,"longitude":112.604224},"polygon":[]},{"id":"419001103","name":"承留镇","pinyin":"chengliuzhen","location":{"latitude":35.089301,"longitude":112.476913},"polygon":[]},{"id":"419001104","name":"邵原镇","pinyin":"shaoyuanzhen","location":{"latitude":35.151535,"longitude":112.137552},"polygon":[]},{"id":"419001105","name":"坡头镇","pinyin":"potouzhen","location":{"latitude":34.956516,"longitude":112.492532},"polygon":[]},{"id":"419001106","name":"梨林镇","pinyin":"lilinzhen","location":{"latitude":35.077955,"longitude":112.716596},"polygon":[]},{"id":"419001107","name":"大峪镇","pinyin":"dayuzhen","location":{"latitude":35.010931,"longitude":112.320689},"polygon":[]},{"id":"419001108","name":"思礼镇","pinyin":"silizhen","location":{"latitude":35.167344,"longitude":112.440365},"polygon":[]},{"id":"419001109","name":"王屋镇","pinyin":"wangwuzhen","location":{"latitude":35.159715,"longitude":112.280428},"polygon":[]},{"id":"419001110","name":"下冶镇","pinyin":"xiayezhen","location":{"latitude":35.035286,"longitude":112.19455},"polygon":[]}]