[{"id":"429005001","name":"园林街道","pinyin":"yuanlinjiedao","location":{"latitude":30.410181,"longitude":112.87137},"polygon":[]},{"id":"429005002","name":"泽口街道","pinyin":"zekoujiedao","location":{"latitude":30.475245,"longitude":112.861631},"polygon":[]},{"id":"429005003","name":"广华街道","pinyin":"guanghuajiedao","location":{"latitude":30.438105,"longitude":112.716666},"polygon":[]},{"id":"429005004","name":"周矶街道","pinyin":"zhoujijiedao","location":{"latitude":30.427979,"longitude":112.802819},"polygon":[]},{"id":"429005005","name":"杨市街道","pinyin":"yangshijiedao","location":{"latitude":30.363487,"longitude":112.937964},"polygon":[]},{"id":"429005006","name":"泰丰街道","pinyin":"taifengjiedao","location":{"latitude":30.422338,"longitude":112.949284},"polygon":[]},{"id":"429005007","name":"高场街道","pinyin":"gaochangjiedao","location":{"latitude":30.411729,"longitude":112.742859},"polygon":[]},{"id":"429005100","name":"竹根滩镇","pinyin":"zhugentanzhen","location":{"latitude":30.50442,"longitude":112.920571},"polygon":[]},{"id":"429005101","name":"渔洋镇","pinyin":"yuyangzhen","location":{"latitude":30.221916,"longitude":112.925033},"polygon":[]},{"id":"429005102","name":"老新镇","pinyin":"laoxinzhen","location":{"latitude":30.185175,"longitude":112.815706},"polygon":[]},{"id":"429005103","name":"熊口镇","pinyin":"xiongkouzhen","location":{"latitude":30.291009,"longitude":112.799101},"polygon":[]},{"id":"429005104","name":"王场镇","pinyin":"wangchangzhen","location":{"latitude":30.510649,"longitude":112.764845},"polygon":[]},{"id":"429005105","name":"高石碑镇","pinyin":"gaoshibeizhen","location":{"latitude":30.550952,"longitude":112.6476},"polygon":[]},{"id":"429005106","name":"积玉口镇","pinyin":"jiyukouzhen","location":{"latitude":30.459601,"longitude":112.630096},"polygon":[]},{"id":"429005107","name":"浩口镇","pinyin":"haokouzhen","location":{"latitude":30.326944,"longitude":112.597561},"polygon":[]},{"id":"429005108","name":"张金镇","pinyin":"zhangjinzhen","location":{"latitude":30.175692,"longitude":112.63527},"polygon":[]},{"id":"429005109","name":"龙湾镇","pinyin":"longwanzhen","location":{"latitude":30.244829,"longitude":112.720335},"polygon":[]},{"id":"429005400","name":"江汉石油管理局","pinyin":"jianghanshiyouguanliju","location":{"latitude":30.442397,"longitude":112.739583},"polygon":[]},{"id":"429005450","name":"周矶管理区","pinyin":"zhoujiguanliqu","location":{"latitude":30.453304,"longitude":112.794434},"polygon":[]},{"id":"429005451","name":"后湖管理区","pinyin":"houhuguanliqu","location":{"latitude":30.354545,"longitude":112.701753},"polygon":[]},{"id":"429005453","name":"总口管理区","pinyin":"zongkouguanliqu","location":{"latitude":30.285873,"longitude":112.947782},"polygon":[]},{"id":"429005454","name":"白鹭湖管理区","pinyin":"bailuhuguanliqu","location":{"latitude":30.13766,"longitude":112.709107},"polygon":[]},{"id":"429005455","name":"运粮湖管理区","pinyin":"yunlianghuguanliqu","location":{"latitude":30.274958,"longitude":112.561645},"polygon":[]}]