[{"id":"469029100","name":"保城镇","pinyin":"baochengzhen","location":{"latitude":18.66051,"longitude":109.670634},"polygon":[]},{"id":"469029101","name":"什玲镇","pinyin":"shilingzhen","location":{"latitude":18.727914,"longitude":109.738429},"polygon":[]},{"id":"469029102","name":"加茂镇","pinyin":"jiamaozhen","location":{"latitude":18.556874,"longitude":109.699295},"polygon":[]},{"id":"469029103","name":"响水镇","pinyin":"xiangshuizhen","location":{"latitude":18.645973,"longitude":109.569846},"polygon":[]},{"id":"469029104","name":"新政镇","pinyin":"xinzhengzhen","location":{"latitude":18.511633,"longitude":109.587584},"polygon":[]},{"id":"469029105","name":"三道镇","pinyin":"sandaozhen","location":{"latitude":18.460484,"longitude":109.665888},"polygon":[]},{"id":"469029200","name":"六弓乡","pinyin":"liugongxiang","location":{"latitude":18.555789,"longitude":109.796196},"polygon":[]},{"id":"469029201","name":"南林乡","pinyin":"nanlinxiang","location":{"latitude":18.417097,"longitude":109.582533},"polygon":[]},{"id":"469029202","name":"毛感乡","pinyin":"maoganxiang","location":{"latitude":18.604184,"longitude":109.483604},"polygon":[]}]