[{"id":"469007100","name":"八所镇","pinyin":"basuozhen","location":{"latitude":19.101289,"longitude":108.704872},"polygon":[]},{"id":"469007101","name":"东河镇","pinyin":"donghezhen","location":{"latitude":19.020066,"longitude":109.021843},"polygon":[]},{"id":"469007102","name":"大田镇","pinyin":"datianzhen","location":{"latitude":19.104198,"longitude":108.863025},"polygon":[]},{"id":"469007103","name":"感城镇","pinyin":"ganchengzhen","location":{"latitude":18.863103,"longitude":108.729527},"polygon":[]},{"id":"469007104","name":"板桥镇","pinyin":"banqiaozhen","location":{"latitude":18.802536,"longitude":108.784818},"polygon":[]},{"id":"469007105","name":"三家镇","pinyin":"sanjiazhen","location":{"latitude":19.207925,"longitude":108.796872},"polygon":[]},{"id":"469007106","name":"四更镇","pinyin":"sigengzhen","location":{"latitude":19.252125,"longitude":108.677487},"polygon":[]},{"id":"469007107","name":"新龙镇","pinyin":"xinlongzhen","location":{"latitude":18.969446,"longitude":108.730574},"polygon":[]},{"id":"469007200","name":"天安乡","pinyin":"tiananxiang","location":{"latitude":18.969867,"longitude":108.868989},"polygon":[]},{"id":"469007201","name":"江边乡","pinyin":"jiangbianxiang","location":{"latitude":18.870894,"longitude":109.011887},"polygon":[]}]