[{"id":"469025100","name":"牙叉镇","pinyin":"yachazhen","location":{"latitude":19.221088,"longitude":109.433308},"polygon":[]},{"id":"469025101","name":"七坊镇","pinyin":"qifangzhen","location":{"latitude":19.306627,"longitude":109.230842},"polygon":[]},{"id":"469025102","name":"邦溪镇","pinyin":"bangxizhen","location":{"latitude":19.364195,"longitude":109.098225},"polygon":[]},{"id":"469025103","name":"打安镇","pinyin":"daanzhen","location":{"latitude":19.304588,"longitude":109.37704},"polygon":[]},{"id":"469025200","name":"细水乡","pinyin":"xishuixiang","location":{"latitude":19.197473,"longitude":109.600095},"polygon":[]},{"id":"469025201","name":"元门乡","pinyin":"yuanmenxiang","location":{"latitude":19.108952,"longitude":109.528762},"polygon":[]},{"id":"469025202","name":"南开乡","pinyin":"nankaixiang","location":{"latitude":19.04168,"longitude":109.367031},"polygon":[]},{"id":"469025203","name":"阜龙乡","pinyin":"fulongxiang","location":{"latitude":19.347363,"longitude":109.46171},"polygon":[]},{"id":"469025204","name":"青松乡","pinyin":"qingsongxiang","location":{"latitude":19.156104,"longitude":109.238438},"polygon":[]},{"id":"469025205","name":"金波乡","pinyin":"jinboxiang","location":{"latitude":19.211461,"longitude":109.164183},"polygon":[]},{"id":"469025206","name":"荣邦乡","pinyin":"rongbangxiang","location":{"latitude":19.444187,"longitude":109.106439},"polygon":[]}]