[{"id":"469030100","name":"营根镇","pinyin":"yinggenzhen","location":{"latitude":19.036741,"longitude":109.875278},"polygon":[]},{"id":"469030101","name":"湾岭镇","pinyin":"wanlingzhen","location":{"latitude":19.159704,"longitude":109.892107},"polygon":[]},{"id":"469030102","name":"黎母山镇","pinyin":"limushanzhen","location":{"latitude":19.288051,"longitude":109.764426},"polygon":[]},{"id":"469030103","name":"和平镇","pinyin":"hepingzhen","location":{"latitude":18.862252,"longitude":110.00352},"polygon":[]},{"id":"469030104","name":"长征镇","pinyin":"changzhengzhen","location":{"latitude":18.956665,"longitude":109.832348},"polygon":[]},{"id":"469030105","name":"红毛镇","pinyin":"hongmaozhen","location":{"latitude":19.038977,"longitude":109.676388},"polygon":[]},{"id":"469030106","name":"中平镇","pinyin":"zhongpingzhen","location":{"latitude":19.043265,"longitude":110.067764},"polygon":[]},{"id":"469030200","name":"吊罗山乡","pinyin":"diaoluoshanxiang","location":{"latitude":18.798107,"longitude":109.915302},"polygon":[]},{"id":"469030201","name":"上安乡","pinyin":"shanganxiang","location":{"latitude":18.853895,"longitude":109.802084},"polygon":[]},{"id":"469030202","name":"什运乡","pinyin":"shiyunxiang","location":{"latitude":18.991071,"longitude":109.584615},"polygon":[]}]