[{"id":"469023100","name":"金江镇","pinyin":"jinjiangzhen","location":{"latitude":19.724873,"longitude":110.01179},"polygon":[]},{"id":"469023101","name":"老城镇","pinyin":"laochengzhen","location":{"latitude":19.904932,"longitude":110.126921},"polygon":[]},{"id":"469023102","name":"瑞溪镇","pinyin":"ruixizhen","location":{"latitude":19.715569,"longitude":110.133382},"polygon":[]},{"id":"469023103","name":"永发镇","pinyin":"yongfazhen","location":{"latitude":19.723778,"longitude":110.188305},"polygon":[]},{"id":"469023104","name":"加乐镇","pinyin":"jialezhen","location":{"latitude":19.581036,"longitude":110.005781},"polygon":[]},{"id":"469023105","name":"文儒镇","pinyin":"wenruzhen","location":{"latitude":19.559199,"longitude":110.080072},"polygon":[]},{"id":"469023106","name":"中兴镇","pinyin":"zhongxingzhen","location":{"latitude":19.609963,"longitude":109.885248},"polygon":[]},{"id":"469023107","name":"仁兴镇","pinyin":"renxingzhen","location":{"latitude":19.476519,"longitude":109.834501},"polygon":[]},{"id":"469023108","name":"福山镇","pinyin":"fushanzhen","location":{"latitude":19.819425,"longitude":109.953467},"polygon":[]},{"id":"469023109","name":"桥头镇","pinyin":"qiaotouzhen","location":{"latitude":19.949432,"longitude":109.926905},"polygon":[]},{"id":"469023110","name":"大丰镇","pinyin":"dafengzhen","location":{"latitude":19.882643,"longitude":110.048535},"polygon":[]}]