[{"id":"469006100","name":"万城镇","pinyin":"wanchengzhen","location":{"latitude":18.79763,"longitude":110.422717},"polygon":[]},{"id":"469006101","name":"龙滚镇","pinyin":"longgunzhen","location":{"latitude":19.044267,"longitude":110.483122},"polygon":[]},{"id":"469006102","name":"和乐镇","pinyin":"helezhen","location":{"latitude":18.920488,"longitude":110.473867},"polygon":[]},{"id":"469006103","name":"后安镇","pinyin":"houanzhen","location":{"latitude":18.890453,"longitude":110.396076},"polygon":[]},{"id":"469006104","name":"大茂镇","pinyin":"damaozhen","location":{"latitude":18.846069,"longitude":110.371144},"polygon":[]},{"id":"469006105","name":"东澳镇","pinyin":"dongaozhen","location":{"latitude":18.711739,"longitude":110.395792},"polygon":[]},{"id":"469006106","name":"礼纪镇","pinyin":"lijizhen","location":{"latitude":18.691449,"longitude":110.297306},"polygon":[]},{"id":"469006107","name":"长丰镇","pinyin":"changfengzhen","location":{"latitude":18.773759,"longitude":110.201039},"polygon":[]},{"id":"469006108","name":"山根镇","pinyin":"shangenzhen","location":{"latitude":18.96621,"longitude":110.475623},"polygon":[]},{"id":"469006109","name":"北大镇","pinyin":"beidazhen","location":{"latitude":18.936817,"longitude":110.304128},"polygon":[]},{"id":"469006110","name":"南桥镇","pinyin":"nanqiaozhen","location":{"latitude":18.69369,"longitude":110.111127},"polygon":[]},{"id":"469006111","name":"三更罗镇","pinyin":"sangengluozhen","location":{"latitude":18.904412,"longitude":110.146761},"polygon":[]}]