[{"id":"469005100","name":"文城镇","pinyin":"wenchengzhen","location":{"latitude":19.587654,"longitude":110.720452},"polygon":[]},{"id":"469005101","name":"重兴镇","pinyin":"zhongxingzhen","location":{"latitude":19.422639,"longitude":110.630053},"polygon":[]},{"id":"469005102","name":"蓬莱镇","pinyin":"penglaizhen","location":{"latitude":19.507066,"longitude":110.595771},"polygon":[]},{"id":"469005103","name":"会文镇","pinyin":"huiwenzhen","location":{"latitude":19.452763,"longitude":110.722626},"polygon":[]},{"id":"469005104","name":"东路镇","pinyin":"dongluzhen","location":{"latitude":19.753616,"longitude":110.674059},"polygon":[]},{"id":"469005105","name":"潭牛镇","pinyin":"tanniuzhen","location":{"latitude":19.70331,"longitude":110.73079},"polygon":[]},{"id":"469005106","name":"东阁镇","pinyin":"donggezhen","location":{"latitude":19.692018,"longitude":110.836733},"polygon":[]},{"id":"469005107","name":"文教镇","pinyin":"wenjiaozhen","location":{"latitude":19.682802,"longitude":110.899336},"polygon":[]},{"id":"469005108","name":"东郊镇","pinyin":"dongjiaozhen","location":{"latitude":19.58213,"longitude":110.879157},"polygon":[]},{"id":"469005109","name":"龙楼镇","pinyin":"longlouzhen","location":{"latitude":19.674719,"longitude":110.978113},"polygon":[]},{"id":"469005110","name":"昌洒镇","pinyin":"changsazhen","location":{"latitude":19.795123,"longitude":110.927231},"polygon":[]},{"id":"469005111","name":"翁田镇","pinyin":"wengtianzhen","location":{"latitude":19.918304,"longitude":110.888449},"polygon":[]},{"id":"469005112","name":"抱罗镇","pinyin":"baoluozhen","location":{"latitude":19.831065,"longitude":110.747213},"polygon":[]},{"id":"469005113","name":"冯坡镇","pinyin":"fengpozhen","location":{"latitude":19.95013,"longitude":110.782701},"polygon":[]},{"id":"469005114","name":"锦山镇","pinyin":"jinshanzhen","location":{"latitude":19.969526,"longitude":110.704095},"polygon":[]},{"id":"469005115","name":"铺前镇","pinyin":"puqianzhen","location":{"latitude":20.086997,"longitude":110.646477},"polygon":[]},{"id":"469005116","name":"公坡镇","pinyin":"gongpozhen","location":{"latitude":19.800706,"longitude":110.80897},"polygon":[]},{"id":"469005402","name":"国营罗豆农场","pinyin":"guoyingluodounongchang","location":{"latitude":19.978274,"longitude":110.641776},"polygon":[]}]