[{"id":"469021100","name":"定城镇","pinyin":"dingchengzhen","location":{"latitude":19.665184,"longitude":110.312017},"polygon":[]},{"id":"469021101","name":"新竹镇","pinyin":"xinzhuzhen","location":{"latitude":19.614724,"longitude":110.182535},"polygon":[]},{"id":"469021102","name":"龙湖镇","pinyin":"longhuzhen","location":{"latitude":19.580364,"longitude":110.402782},"polygon":[]},{"id":"469021103","name":"黄竹镇","pinyin":"huangzhuzhen","location":{"latitude":19.466845,"longitude":110.43499},"polygon":[]},{"id":"469021104","name":"雷鸣镇","pinyin":"leimingzhen","location":{"latitude":19.566057,"longitude":110.3227},"polygon":[]},{"id":"469021105","name":"龙门镇","pinyin":"longmenzhen","location":{"latitude":19.438468,"longitude":110.321371},"polygon":[]},{"id":"469021106","name":"龙河镇","pinyin":"longhezhen","location":{"latitude":19.37362,"longitude":110.217721},"polygon":[]},{"id":"469021107","name":"岭口镇","pinyin":"lingkouzhen","location":{"latitude":19.345965,"longitude":110.303524},"polygon":[]},{"id":"469021108","name":"翰林镇","pinyin":"hanlinzhen","location":{"latitude":19.289494,"longitude":110.29524},"polygon":[]},{"id":"469021109","name":"富文镇","pinyin":"fuwenzhen","location":{"latitude":19.513812,"longitude":110.258937},"polygon":[]}]