[{"id":"500106001","name":"小龙坎街道","pinyin":"xiaolongkanjiedao","location":{"latitude":29.547091,"longitude":106.46701},"polygon":[]},{"id":"500106002","name":"沙坪坝街道","pinyin":"shapingbajiedao","location":{"latitude":29.567498,"longitude":106.464371},"polygon":[]},{"id":"500106003","name":"渝碚路街道","pinyin":"yubeilujiedao","location":{"latitude":29.56201,"longitude":106.457036},"polygon":[]},{"id":"500106004","name":"磁器口街道","pinyin":"ciqikoujiedao","location":{"latitude":29.578399,"longitude":106.453044},"polygon":[]},{"id":"500106005","name":"童家桥街道","pinyin":"tongjiaqiaojiedao","location":{"latitude":29.572492,"longitude":106.438183},"polygon":[]},{"id":"500106006","name":"石井坡街道","pinyin":"shijingpojiedao","location":{"latitude":29.57887,"longitude":106.462314},"polygon":[]},{"id":"500106007","name":"双碑街道","pinyin":"shuangbeijiedao","location":{"latitude":29.607586,"longitude":106.454389},"polygon":[]},{"id":"500106008","name":"井口街道","pinyin":"jingkoujiedao","location":{"latitude":29.64242,"longitude":106.456343},"polygon":[]},{"id":"500106009","name":"歌乐山街道","pinyin":"geleshanjiedao","location":{"latitude":29.578931,"longitude":106.419463},"polygon":[]},{"id":"500106010","name":"山洞街道","pinyin":"shandongjiedao","location":{"latitude":29.524937,"longitude":106.419062},"polygon":[]},{"id":"500106011","name":"新桥街道","pinyin":"xinqiaojiedao","location":{"latitude":29.51954,"longitude":106.438109},"polygon":[]},{"id":"500106012","name":"天星桥街道","pinyin":"tianxingqiaojiedao","location":{"latitude":29.546994,"longitude":106.456391},"polygon":[]},{"id":"500106013","name":"土湾街道","pinyin":"tuwanjiedao","location":{"latitude":29.555427,"longitude":106.476003},"polygon":[]},{"id":"500106014","name":"覃家岗街道","pinyin":"tanjiagangjiedao","location":{"latitude":29.530217,"longitude":106.435284},"polygon":[]},{"id":"500106015","name":"陈家桥街道","pinyin":"chenjiaqiaojiedao","location":{"latitude":29.60187,"longitude":106.343668},"polygon":[]},{"id":"500106016","name":"虎溪街道","pinyin":"huxijiedao","location":{"latitude":29.601751,"longitude":106.295177},"polygon":[]},{"id":"500106017","name":"西永街道","pinyin":"xiyongjiedao","location":{"latitude":29.586333,"longitude":106.380784},"polygon":[]},{"id":"500106018","name":"联芳街道","pinyin":"lianfangjiedao","location":{"latitude":29.542105,"longitude":106.471375},"polygon":[]},{"id":"500106102","name":"井口镇","pinyin":"jingkouzhen","location":{"latitude":29.635204,"longitude":106.43714},"polygon":[]},{"id":"500106103","name":"歌乐山镇","pinyin":"geleshanzhen","location":{"latitude":29.558502,"longitude":106.415387},"polygon":[]},{"id":"500106104","name":"青木关镇","pinyin":"qingmuguanzhen","location":{"latitude":29.678869,"longitude":106.2999},"polygon":[]},{"id":"500106105","name":"凤凰镇","pinyin":"fenghuangzhen","location":{"latitude":29.703747,"longitude":106.330584},"polygon":[]},{"id":"500106106","name":"回龙坝镇","pinyin":"huilongbazhen","location":{"latitude":29.700733,"longitude":106.381022},"polygon":[]},{"id":"500106108","name":"曾家镇","pinyin":"zengjiazhen","location":{"latitude":29.56057,"longitude":106.285812},"polygon":[]},{"id":"500106111","name":"土主镇","pinyin":"tuzhuzhen","location":{"latitude":29.63512,"longitude":106.373884},"polygon":[]},{"id":"500106112","name":"中梁镇","pinyin":"zhongliangzhen","location":{"latitude":29.682145,"longitude":106.414263},"polygon":[]}]