[{"id":"500155001","name":"梁山街道","pinyin":"liangshanjiedao","location":{"latitude":30.696221,"longitude":107.872492},"polygon":[]},{"id":"500155002","name":"双桂街道","pinyin":"shuangguijiedao","location":{"latitude":30.641306,"longitude":107.753419},"polygon":[]},{"id":"500155003","name":"合兴街道","pinyin":"hexingjiedao","location":{"latitude":30.742829,"longitude":107.835558},"polygon":[]},{"id":"500155004","name":"仁贤街道","pinyin":"renxianjiedao","location":{"latitude":30.652159,"longitude":107.676057},"polygon":[]},{"id":"500155005","name":"金带街道","pinyin":"jindaijiedao","location":{"latitude":30.60737,"longitude":107.71102},"polygon":[]},{"id":"500155102","name":"礼让镇","pinyin":"lirangzhen","location":{"latitude":30.693964,"longitude":107.631779},"polygon":[]},{"id":"500155103","name":"云龙镇","pinyin":"yunlongzhen","location":{"latitude":30.50695,"longitude":107.661027},"polygon":[]},{"id":"500155104","name":"屏锦镇","pinyin":"pingjinzhen","location":{"latitude":30.611913,"longitude":107.534851},"polygon":[]},{"id":"500155106","name":"袁驿镇","pinyin":"yuanyizhen","location":{"latitude":30.740351,"longitude":107.506998},"polygon":[]},{"id":"500155107","name":"新盛镇","pinyin":"xinshengzhen","location":{"latitude":30.837254,"longitude":107.706381},"polygon":[]},{"id":"500155108","name":"福禄镇","pinyin":"fuluzhen","location":{"latitude":30.663414,"longitude":107.968595},"polygon":[]},{"id":"500155110","name":"聚奎镇","pinyin":"jukuizhen","location":{"latitude":30.63109,"longitude":107.60232},"polygon":[]},{"id":"500155111","name":"明达镇","pinyin":"mingdazhen","location":{"latitude":30.746754,"longitude":107.660798},"polygon":[]},{"id":"500155112","name":"荫平镇","pinyin":"yinpingzhen","location":{"latitude":30.522795,"longitude":107.582791},"polygon":[]},{"id":"500155113","name":"和林镇","pinyin":"helinzhen","location":{"latitude":30.564187,"longitude":107.690162},"polygon":[]},{"id":"500155114","name":"回龙镇","pinyin":"huilongzhen","location":{"latitude":30.532741,"longitude":107.48349},"polygon":[]},{"id":"500155115","name":"碧山镇","pinyin":"bishanzhen","location":{"latitude":30.740486,"longitude":107.449141},"polygon":[]},{"id":"500155116","name":"虎城镇","pinyin":"huchengzhen","location":{"latitude":30.810517,"longitude":107.543063},"polygon":[]},{"id":"500155117","name":"七星镇","pinyin":"qixingzhen","location":{"latitude":30.682239,"longitude":107.498644},"polygon":[]},{"id":"500155118","name":"龙门镇","pinyin":"longmenzhen","location":{"latitude":30.789169,"longitude":107.697844},"polygon":[]},{"id":"500155119","name":"文化镇","pinyin":"wenhuazhen","location":{"latitude":30.796313,"longitude":107.790635},"polygon":[]},{"id":"500155121","name":"石安镇","pinyin":"shianzhen","location":{"latitude":30.58407,"longitude":107.986588},"polygon":[]},{"id":"500155122","name":"柏家镇","pinyin":"baijiazhen","location":{"latitude":30.56495,"longitude":107.895364},"polygon":[]},{"id":"500155123","name":"大观镇","pinyin":"daguanzhen","location":{"latitude":30.528039,"longitude":107.785324},"polygon":[]},{"id":"500155124","name":"竹山镇","pinyin":"zhushanzhen","location":{"latitude":30.741603,"longitude":107.601685},"polygon":[]},{"id":"500155125","name":"蟠龙镇","pinyin":"panlongzhen","location":{"latitude":30.634601,"longitude":107.874499},"polygon":[]},{"id":"500155126","name":"星桥镇","pinyin":"xingqiaozhen","location":{"latitude":30.730085,"longitude":107.761271},"polygon":[]},{"id":"500155127","name":"曲水镇","pinyin":"qushuizhen","location":{"latitude":30.684433,"longitude":108.040284},"polygon":[]},{"id":"500155128","name":"安胜镇","pinyin":"anshengzhen","location":{"latitude":30.707131,"longitude":107.726857},"polygon":[]},{"id":"500155129","name":"复平镇","pinyin":"fupingzhen","location":{"latitude":30.775302,"longitude":107.880661},"polygon":[]},{"id":"500155130","name":"紫照镇","pinyin":"zizhaozhen","location":{"latitude":30.52622,"longitude":107.938043},"polygon":[]},{"id":"500155201","name":"铁门乡","pinyin":"tiemenxiang","location":{"latitude":30.49149,"longitude":107.708275},"polygon":[]},{"id":"500155202","name":"龙胜乡","pinyin":"longshengxiang","location":{"latitude":30.7779,"longitude":107.58327},"polygon":[]}]