[{"id":"500117001","name":"合阳城街道","pinyin":"heyangchengjiedao","location":{"latitude":30.030282,"longitude":106.259222},"polygon":[]},{"id":"500117002","name":"钓鱼城街道","pinyin":"diaoyuchengjiedao","location":{"latitude":30.032455,"longitude":106.309103},"polygon":[]},{"id":"500117003","name":"南津街街道","pinyin":"nanjinjiejiedao","location":{"latitude":29.942719,"longitude":106.236395},"polygon":[]},{"id":"500117004","name":"云门街道","pinyin":"yunmenjiedao","location":{"latitude":30.090296,"longitude":106.338376},"polygon":[]},{"id":"500117005","name":"大石街道","pinyin":"dashijiedao","location":{"latitude":30.11189,"longitude":106.21073},"polygon":[]},{"id":"500117006","name":"盐井街道","pinyin":"yanjingjiedao","location":{"latitude":29.92075,"longitude":106.3442},"polygon":[]},{"id":"500117007","name":"草街街道","pinyin":"caojiejiedao","location":{"latitude":29.956366,"longitude":106.387691},"polygon":[]},{"id":"500117101","name":"钱塘镇","pinyin":"qiantangzhen","location":{"latitude":30.177327,"longitude":106.323613},"polygon":[]},{"id":"500117102","name":"沙鱼镇","pinyin":"shayuzhen","location":{"latitude":30.233907,"longitude":106.376695},"polygon":[]},{"id":"500117103","name":"官渡镇","pinyin":"guanduzhen","location":{"latitude":30.102774,"longitude":106.454516},"polygon":[]},{"id":"500117104","name":"涞滩镇","pinyin":"laitanzhen","location":{"latitude":30.16297,"longitude":106.459703},"polygon":[]},{"id":"500117105","name":"龙市镇","pinyin":"longshizhen","location":{"latitude":30.239282,"longitude":106.473491},"polygon":[]},{"id":"500117106","name":"肖家镇","pinyin":"xiaojiazhen","location":{"latitude":30.278308,"longitude":106.471031},"polygon":[]},{"id":"500117108","name":"古楼镇","pinyin":"gulouzhen","location":{"latitude":30.183226,"longitude":106.167569},"polygon":[]},{"id":"500117109","name":"三庙镇","pinyin":"sanmiaozhen","location":{"latitude":30.237723,"longitude":106.123442},"polygon":[]},{"id":"500117110","name":"燕窝镇","pinyin":"yanwozhen","location":{"latitude":30.306197,"longitude":106.088528},"polygon":[]},{"id":"500117111","name":"二郎镇","pinyin":"erlangzhen","location":{"latitude":30.333341,"longitude":106.008149},"polygon":[]},{"id":"500117112","name":"龙凤镇","pinyin":"longfengzhen","location":{"latitude":30.260293,"longitude":106.034157},"polygon":[]},{"id":"500117113","name":"太和镇","pinyin":"taihezhen","location":{"latitude":30.109183,"longitude":106.063902},"polygon":[]},{"id":"500117114","name":"隆兴镇","pinyin":"longxingzhen","location":{"latitude":30.164515,"longitude":106.073421},"polygon":[]},{"id":"500117115","name":"铜溪镇","pinyin":"tongxizhen","location":{"latitude":29.979882,"longitude":106.18518},"polygon":[]},{"id":"500117116","name":"渭沱镇","pinyin":"weituozhen","location":{"latitude":30.034943,"longitude":106.081338},"polygon":[]},{"id":"500117119","name":"双凤镇","pinyin":"shuangfengzhen","location":{"latitude":30.012645,"longitude":106.444251},"polygon":[]},{"id":"500117120","name":"狮滩镇","pinyin":"shitanzhen","location":{"latitude":30.050006,"longitude":106.494406},"polygon":[]},{"id":"500117121","name":"清平镇","pinyin":"qingpingzhen","location":{"latitude":29.988527,"longitude":106.536155},"polygon":[]},{"id":"500117122","name":"土场镇","pinyin":"tuchangzhen","location":{"latitude":29.919029,"longitude":106.477696},"polygon":[]},{"id":"500117123","name":"小沔镇","pinyin":"xiaomianzhen","location":{"latitude":30.102409,"longitude":106.544811},"polygon":[]},{"id":"500117124","name":"双槐镇","pinyin":"shuanghuaizhen","location":{"latitude":30.180232,"longitude":106.570285},"polygon":[]},{"id":"500117125","name":"三汇镇","pinyin":"sanhuizhen","location":{"latitude":30.096323,"longitude":106.620609},"polygon":[]},{"id":"500117126","name":"香龙镇","pinyin":"xianglongzhen","location":{"latitude":30.268683,"longitude":106.598953},"polygon":[]}]