[{"id":"500109001","name":"天生街道","pinyin":"tianshengjiedao","location":{"latitude":29.818337,"longitude":106.431975},"polygon":[]},{"id":"500109002","name":"朝阳街道","pinyin":"zhaoyangjiedao","location":{"latitude":29.828545,"longitude":106.44382},"polygon":[]},{"id":"500109003","name":"龙凤桥街道","pinyin":"longfengqiaojiedao","location":{"latitude":29.780076,"longitude":106.436899},"polygon":[]},{"id":"500109004","name":"北温泉街道","pinyin":"beiwenquanjiedao","location":{"latitude":29.827438,"longitude":106.403278},"polygon":[]},{"id":"500109005","name":"东阳街道","pinyin":"dongyangjiedao","location":{"latitude":29.871544,"longitude":106.423841},"polygon":[]},{"id":"500109006","name":"蔡家岗街道","pinyin":"caijiagangjiedao","location":{"latitude":29.727455,"longitude":106.497648},"polygon":[]},{"id":"500109007","name":"歇马街道","pinyin":"xiemajiedao","location":{"latitude":29.771138,"longitude":106.366255},"polygon":[]},{"id":"500109008","name":"水土街道","pinyin":"shuitujiedao","location":{"latitude":29.802979,"longitude":106.506987},"polygon":[]},{"id":"500109009","name":"复兴街道","pinyin":"fuxingjiedao","location":{"latitude":29.810599,"longitude":106.560528},"polygon":[]},{"id":"500109102","name":"澄江镇","pinyin":"chengjiangzhen","location":{"latitude":29.867417,"longitude":106.362356},"polygon":[]},{"id":"500109104","name":"童家溪镇","pinyin":"tongjiaxizhen","location":{"latitude":29.691771,"longitude":106.445185},"polygon":[]},{"id":"500109105","name":"天府镇","pinyin":"tianfuzhen","location":{"latitude":29.876352,"longitude":106.511608},"polygon":[]},{"id":"500109106","name":"施家梁镇","pinyin":"shijialiangzhen","location":{"latitude":29.766723,"longitude":106.48514},"polygon":[]},{"id":"500109108","name":"静观镇","pinyin":"jingguanzhen","location":{"latitude":29.912957,"longitude":106.580246},"polygon":[]},{"id":"500109109","name":"柳荫镇","pinyin":"liuyinzhen","location":{"latitude":29.981074,"longitude":106.59718},"polygon":[]},{"id":"500109111","name":"三圣镇","pinyin":"sanshengzhen","location":{"latitude":29.893138,"longitude":106.638245},"polygon":[]},{"id":"500109112","name":"金刀峡镇","pinyin":"jindaoxiazhen","location":{"latitude":30.012328,"longitude":106.649309},"polygon":[]}]