[{"id":"500115001","name":"凤城街道","pinyin":"fengchengjiedao","location":{"latitude":29.813438,"longitude":107.107686},"polygon":[]},{"id":"500115002","name":"晏家街道","pinyin":"yanjiajiedao","location":{"latitude":29.822506,"longitude":106.982803},"polygon":[]},{"id":"500115003","name":"江南街道","pinyin":"jiangnanjiedao","location":{"latitude":29.764512,"longitude":107.046687},"polygon":[]},{"id":"500115004","name":"渡舟街道","pinyin":"duzhoujiedao","location":{"latitude":29.894499,"longitude":107.097623},"polygon":[]},{"id":"500115005","name":"八颗街道","pinyin":"bakejiedao","location":{"latitude":29.955529,"longitude":107.1166},"polygon":[]},{"id":"500115006","name":"新市街道","pinyin":"xinshijiedao","location":{"latitude":29.929869,"longitude":107.026038},"polygon":[]},{"id":"500115101","name":"邻封镇","pinyin":"linfengzhen","location":{"latitude":29.896518,"longitude":107.192008},"polygon":[]},{"id":"500115102","name":"但渡镇","pinyin":"danduzhen","location":{"latitude":29.825197,"longitude":107.167227},"polygon":[]},{"id":"500115103","name":"云集镇","pinyin":"yunjizhen","location":{"latitude":29.953358,"longitude":107.364481},"polygon":[]},{"id":"500115104","name":"长寿湖镇","pinyin":"changshouhuzhen","location":{"latitude":29.904937,"longitude":107.260995},"polygon":[]},{"id":"500115105","name":"双龙镇","pinyin":"shuanglongzhen","location":{"latitude":29.953269,"longitude":107.195713},"polygon":[]},{"id":"500115106","name":"龙河镇","pinyin":"longhezhen","location":{"latitude":30.001896,"longitude":107.22434},"polygon":[]},{"id":"500115107","name":"石堰镇","pinyin":"shiyanzhen","location":{"latitude":30.076079,"longitude":107.179648},"polygon":[]},{"id":"500115108","name":"云台镇","pinyin":"yuntaizhen","location":{"latitude":30.128865,"longitude":107.229475},"polygon":[]},{"id":"500115109","name":"海棠镇","pinyin":"haitangzhen","location":{"latitude":30.181383,"longitude":107.2381},"polygon":[]},{"id":"500115110","name":"葛兰镇","pinyin":"gelanzhen","location":{"latitude":30.03086,"longitude":107.105084},"polygon":[]},{"id":"500115113","name":"洪湖镇","pinyin":"honghuzhen","location":{"latitude":29.99505,"longitude":106.923324},"polygon":[]},{"id":"500115114","name":"万顺镇","pinyin":"wanshunzhen","location":{"latitude":30.03886,"longitude":106.983348},"polygon":[]}]