[{"id":"500113001","name":"鱼洞街道","pinyin":"yudongjiedao","location":{"latitude":29.338691,"longitude":106.497247},"polygon":[]},{"id":"500113002","name":"李家沱街道","pinyin":"lijiatuojiedao","location":{"latitude":29.470946,"longitude":106.543775},"polygon":[]},{"id":"500113003","name":"龙洲湾街道","pinyin":"longzhouwanjiedao","location":{"latitude":29.356199,"longitude":106.548659},"polygon":[]},{"id":"500113004","name":"花溪街道","pinyin":"huaxijiedao","location":{"latitude":29.442025,"longitude":106.532362},"polygon":[]},{"id":"500113005","name":"南泉街道","pinyin":"nanquanjiedao","location":{"latitude":29.42594,"longitude":106.620737},"polygon":[]},{"id":"500113006","name":"南彭街道","pinyin":"nanpengjiedao","location":{"latitude":29.340773,"longitude":106.683959},"polygon":[]},{"id":"500113007","name":"一品街道","pinyin":"yipinjiedao","location":{"latitude":29.270427,"longitude":106.541222},"polygon":[]},{"id":"500113008","name":"惠民街道","pinyin":"huiminjiedao","location":{"latitude":29.436913,"longitude":106.723819},"polygon":[]},{"id":"500113009","name":"莲花街道","pinyin":"lianhuajiedao","location":{"latitude":29.384535,"longitude":106.50697},"polygon":[]},{"id":"500113103","name":"界石镇","pinyin":"jieshizhen","location":{"latitude":29.355152,"longitude":106.595725},"polygon":[]},{"id":"500113107","name":"安澜镇","pinyin":"anlanzhen","location":{"latitude":29.208655,"longitude":106.602662},"polygon":[]},{"id":"500113108","name":"圣灯山镇","pinyin":"shengdengshanzhen","location":{"latitude":29.240883,"longitude":106.685831},"polygon":[]},{"id":"500113109","name":"木洞镇","pinyin":"mudongzhen","location":{"latitude":29.55488,"longitude":106.833315},"polygon":[]},{"id":"500113110","name":"双河口镇","pinyin":"shuanghekouzhen","location":{"latitude":29.615227,"longitude":106.934817},"polygon":[]},{"id":"500113111","name":"麻柳嘴镇","pinyin":"maliuzuizhen","location":{"latitude":29.694901,"longitude":106.966787},"polygon":[]},{"id":"500113112","name":"丰盛镇","pinyin":"fengshengzhen","location":{"latitude":29.511407,"longitude":106.910029},"polygon":[]},{"id":"500113113","name":"二圣镇","pinyin":"ershengzhen","location":{"latitude":29.456767,"longitude":106.780756},"polygon":[]},{"id":"500113114","name":"东温泉镇","pinyin":"dongwenquanzhen","location":{"latitude":29.422482,"longitude":106.892222},"polygon":[]},{"id":"500113115","name":"姜家镇","pinyin":"jiangjiazhen","location":{"latitude":29.373415,"longitude":106.828552},"polygon":[]},{"id":"500113116","name":"天星寺镇","pinyin":"tianxingsizhen","location":{"latitude":29.358145,"longitude":106.765966},"polygon":[]},{"id":"500113117","name":"接龙镇","pinyin":"jielongzhen","location":{"latitude":29.25994,"longitude":106.792852},"polygon":[]},{"id":"500113118","name":"石滩镇","pinyin":"shitanzhen","location":{"latitude":29.189366,"longitude":106.872271},"polygon":[]},{"id":"500113119","name":"石龙镇","pinyin":"shilongzhen","location":{"latitude":29.267285,"longitude":106.895774},"polygon":[]}]