[{"id":"500151001","name":"东城街道","pinyin":"dongchengjiedao","location":{"latitude":29.873014,"longitude":106.115942},"polygon":[]},{"id":"500151002","name":"南城街道","pinyin":"nanchengjiedao","location":{"latitude":29.806149,"longitude":106.0695},"polygon":[]},{"id":"500151003","name":"巴川街道","pinyin":"bachuanjiedao","location":{"latitude":29.862337,"longitude":106.050151},"polygon":[]},{"id":"500151004","name":"蒲吕街道","pinyin":"pulvjiedao","location":{"latitude":29.8179,"longitude":106.187077},"polygon":[]},{"id":"500151005","name":"旧县街道","pinyin":"jiuxianjiedao","location":{"latitude":29.881798,"longitude":106.227673},"polygon":[]},{"id":"500151100","name":"土桥镇","pinyin":"tuqiaozhen","location":{"latitude":29.777126,"longitude":106.006609},"polygon":[]},{"id":"500151102","name":"二坪镇","pinyin":"erpingzhen","location":{"latitude":29.895172,"longitude":106.152292},"polygon":[]},{"id":"500151103","name":"水口镇","pinyin":"shuikouzhen","location":{"latitude":29.917718,"longitude":106.12079},"polygon":[]},{"id":"500151104","name":"安居镇","pinyin":"anjuzhen","location":{"latitude":29.98204,"longitude":106.031778},"polygon":[]},{"id":"500151105","name":"白羊镇","pinyin":"baiyangzhen","location":{"latitude":29.951609,"longitude":106.086312},"polygon":[]},{"id":"500151106","name":"平滩镇","pinyin":"pingtanzhen","location":{"latitude":29.841591,"longitude":105.888329},"polygon":[]},{"id":"500151107","name":"虎峰镇","pinyin":"hufengzhen","location":{"latitude":29.704674,"longitude":106.117461},"polygon":[]},{"id":"500151108","name":"石鱼镇","pinyin":"shiyuzhen","location":{"latitude":29.752533,"longitude":106.089002},"polygon":[]},{"id":"500151109","name":"福果镇","pinyin":"fuguozhen","location":{"latitude":29.698122,"longitude":106.048506},"polygon":[]},{"id":"500151110","name":"少云镇","pinyin":"shaoyunzhen","location":{"latitude":29.974938,"longitude":105.954826},"polygon":[]},{"id":"500151111","name":"维新镇","pinyin":"weixinzhen","location":{"latitude":30.042588,"longitude":105.90186},"polygon":[]},{"id":"500151112","name":"高楼镇","pinyin":"gaolouzhen","location":{"latitude":30.048192,"longitude":105.957195},"polygon":[]},{"id":"500151113","name":"大庙镇","pinyin":"damiaozhen","location":{"latitude":29.647452,"longitude":106.078737},"polygon":[]},{"id":"500151114","name":"围龙镇","pinyin":"weilongzhen","location":{"latitude":29.63481,"longitude":106.007062},"polygon":[]},{"id":"500151115","name":"华兴镇","pinyin":"huaxingzhen","location":{"latitude":29.592908,"longitude":106.072416},"polygon":[]},{"id":"500151117","name":"永嘉镇","pinyin":"yongjiazhen","location":{"latitude":29.579122,"longitude":105.997219},"polygon":[]},{"id":"500151118","name":"安溪镇","pinyin":"anxizhen","location":{"latitude":29.558438,"longitude":106.057337},"polygon":[]},{"id":"500151119","name":"西河镇","pinyin":"xihezhen","location":{"latitude":29.568371,"longitude":105.930518},"polygon":[]},{"id":"500151120","name":"侣俸镇","pinyin":"lvfengzhen","location":{"latitude":29.857186,"longitude":105.978137},"polygon":[]},{"id":"500151121","name":"太平镇","pinyin":"taipingzhen","location":{"latitude":29.913642,"longitude":106.023983},"polygon":[]},{"id":"500151122","name":"小林镇","pinyin":"xiaolinzhen","location":{"latitude":29.783395,"longitude":105.853925},"polygon":[]},{"id":"500151123","name":"双山镇","pinyin":"shuangshanzhen","location":{"latitude":29.809259,"longitude":105.816905},"polygon":[]},{"id":"500151124","name":"庆隆镇","pinyin":"qinglongzhen","location":{"latitude":29.784536,"longitude":106.139976},"polygon":[]}]