[{"id":"500116001","name":"几江街道","pinyin":"jijiangjiedao","location":{"latitude":29.244597,"longitude":106.276691},"polygon":[]},{"id":"500116002","name":"德感街道","pinyin":"deganjiedao","location":{"latitude":29.282958,"longitude":106.182972},"polygon":[]},{"id":"500116004","name":"双福街道","pinyin":"shuangfujiedao","location":{"latitude":29.388683,"longitude":106.275806},"polygon":[]},{"id":"500116005","name":"鼎山街道","pinyin":"dingshanjiedao","location":{"latitude":29.25556,"longitude":106.327042},"polygon":[]},{"id":"500116100","name":"油溪镇","pinyin":"youxizhen","location":{"latitude":29.186243,"longitude":106.092444},"polygon":[]},{"id":"500116101","name":"吴滩镇","pinyin":"wutanzhen","location":{"latitude":29.262179,"longitude":106.079403},"polygon":[]},{"id":"500116102","name":"石门镇","pinyin":"shimenzhen","location":{"latitude":29.14255,"longitude":106.012344},"polygon":[]},{"id":"500116103","name":"朱杨镇","pinyin":"zhuyangzhen","location":{"latitude":29.104091,"longitude":105.942167},"polygon":[]},{"id":"500116104","name":"石蟆镇","pinyin":"shimazhen","location":{"latitude":28.979759,"longitude":105.941282},"polygon":[]},{"id":"500116105","name":"永兴镇","pinyin":"yongxingzhen","location":{"latitude":28.96123,"longitude":106.195984},"polygon":[]},{"id":"500116106","name":"塘河镇","pinyin":"tanghezhen","location":{"latitude":28.954458,"longitude":106.069237},"polygon":[]},{"id":"500116107","name":"白沙镇","pinyin":"baishazhen","location":{"latitude":29.026651,"longitude":106.091671},"polygon":[]},{"id":"500116108","name":"龙华镇","pinyin":"longhuazhen","location":{"latitude":29.166647,"longitude":106.188383},"polygon":[]},{"id":"500116109","name":"李市镇","pinyin":"lishizhen","location":{"latitude":29.039911,"longitude":106.273116},"polygon":[]},{"id":"500116110","name":"慈云镇","pinyin":"ciyunzhen","location":{"latitude":29.103656,"longitude":106.212493},"polygon":[]},{"id":"500116111","name":"蔡家镇","pinyin":"caijiazhen","location":{"latitude":28.876298,"longitude":106.375723},"polygon":[]},{"id":"500116112","name":"中山镇","pinyin":"zhongshanzhen","location":{"latitude":28.78489,"longitude":106.304422},"polygon":[]},{"id":"500116113","name":"嘉平镇","pinyin":"jiapingzhen","location":{"latitude":28.967525,"longitude":106.361889},"polygon":[]},{"id":"500116114","name":"柏林镇","pinyin":"bolinzhen","location":{"latitude":28.695645,"longitude":106.46074},"polygon":[]},{"id":"500116115","name":"先锋镇","pinyin":"xianfengzhen","location":{"latitude":29.17025,"longitude":106.306558},"polygon":[]},{"id":"500116116","name":"珞璜镇","pinyin":"luohuangzhen","location":{"latitude":29.270294,"longitude":106.449793},"polygon":[]},{"id":"500116117","name":"贾嗣镇","pinyin":"jiasizhen","location":{"latitude":29.12957,"longitude":106.453897},"polygon":[]},{"id":"500116118","name":"夏坝镇","pinyin":"xiabazhen","location":{"latitude":29.101624,"longitude":106.508112},"polygon":[]},{"id":"500116119","name":"西湖镇","pinyin":"xihuzhen","location":{"latitude":29.096442,"longitude":106.384974},"polygon":[]},{"id":"500116120","name":"杜市镇","pinyin":"dushizhen","location":{"latitude":29.152165,"longitude":106.526967},"polygon":[]},{"id":"500116121","name":"广兴镇","pinyin":"guangxingzhen","location":{"latitude":29.047264,"longitude":106.555554},"polygon":[]},{"id":"500116122","name":"四面山镇","pinyin":"simianshanzhen","location":{"latitude":28.617132,"longitude":106.38829},"polygon":[]},{"id":"500116123","name":"支坪镇","pinyin":"zhipingzhen","location":{"latitude":29.230571,"longitude":106.38425},"polygon":[]}]