[{"id":"500153001","name":"昌元街道","pinyin":"changyuanjiedao","location":{"latitude":29.430843,"longitude":105.544978},"polygon":[]},{"id":"500153002","name":"广顺街道","pinyin":"guangshunjiedao","location":{"latitude":29.366648,"longitude":105.526803},"polygon":[]},{"id":"500153003","name":"昌州街道","pinyin":"changzhoujiedao","location":{"latitude":29.400223,"longitude":105.625728},"polygon":[]},{"id":"500153004","name":"峰高街道","pinyin":"fenggaojiedao","location":{"latitude":29.418295,"longitude":105.690275},"polygon":[]},{"id":"500153005","name":"安富街道","pinyin":"anfujiedao","location":{"latitude":29.35282,"longitude":105.464863},"polygon":[]},{"id":"500153006","name":"双河街道","pinyin":"shuanghejiedao","location":{"latitude":29.311792,"longitude":105.588453},"polygon":[]},{"id":"500153100","name":"直升镇","pinyin":"zhishengzhen","location":{"latitude":29.370342,"longitude":105.664423},"polygon":[]},{"id":"500153101","name":"万灵镇","pinyin":"wanlingzhen","location":{"latitude":29.468969,"longitude":105.631353},"polygon":[]},{"id":"500153102","name":"清江镇","pinyin":"qingjiangzhen","location":{"latitude":29.299764,"longitude":105.491402},"polygon":[]},{"id":"500153103","name":"仁义镇","pinyin":"renyizhen","location":{"latitude":29.499458,"longitude":105.496067},"polygon":[]},{"id":"500153104","name":"河包镇","pinyin":"hebaozhen","location":{"latitude":29.557215,"longitude":105.547857},"polygon":[]},{"id":"500153105","name":"古昌镇","pinyin":"guchangzhen","location":{"latitude":29.501773,"longitude":105.592118},"polygon":[]},{"id":"500153106","name":"吴家镇","pinyin":"wujiazhen","location":{"latitude":29.63754,"longitude":105.428317},"polygon":[]},{"id":"500153107","name":"观胜镇","pinyin":"guanshengzhen","location":{"latitude":29.569274,"longitude":105.440054},"polygon":[]},{"id":"500153108","name":"铜鼓镇","pinyin":"tongguzhen","location":{"latitude":29.607974,"longitude":105.47149},"polygon":[]},{"id":"500153109","name":"清流镇","pinyin":"qingliuzhen","location":{"latitude":29.584181,"longitude":105.344657},"polygon":[]},{"id":"500153110","name":"盘龙镇","pinyin":"panlongzhen","location":{"latitude":29.51664,"longitude":105.37747},"polygon":[]},{"id":"500153111","name":"远觉镇","pinyin":"yuanjuezhen","location":{"latitude":29.545372,"longitude":105.319414},"polygon":[]},{"id":"500153112","name":"清升镇","pinyin":"qingshengzhen","location":{"latitude":29.30766,"longitude":105.530354},"polygon":[]},{"id":"500153113","name":"荣隆镇","pinyin":"ronglongzhen","location":{"latitude":29.431607,"longitude":105.468592},"polygon":[]},{"id":"500153114","name":"龙集镇","pinyin":"longjizhen","location":{"latitude":29.446156,"longitude":105.418132},"polygon":[]}]