[{"id":"500242002","name":"桃花源街道","pinyin":"taohuayuanjiedao","location":{"latitude":28.85591,"longitude":108.766571},"polygon":[]},{"id":"500242101","name":"龙潭镇","pinyin":"longtanzhen","location":{"latitude":28.723117,"longitude":108.958796},"polygon":[]},{"id":"500242102","name":"麻旺镇","pinyin":"mawangzhen","location":{"latitude":28.879677,"longitude":108.97186},"polygon":[]},{"id":"500242103","name":"酉酬镇","pinyin":"youchouzhen","location":{"latitude":28.953382,"longitude":109.1331},"polygon":[]},{"id":"500242104","name":"大溪镇","pinyin":"daxizhen","location":{"latitude":29.087181,"longitude":109.162364},"polygon":[]},{"id":"500242105","name":"兴隆镇","pinyin":"xinglongzhen","location":{"latitude":29.290671,"longitude":109.065438},"polygon":[]},{"id":"500242106","name":"黑水镇","pinyin":"heishuizhen","location":{"latitude":29.029689,"longitude":108.790629},"polygon":[]},{"id":"500242107","name":"丁市镇","pinyin":"dingshizhen","location":{"latitude":28.745875,"longitude":108.55122},"polygon":[]},{"id":"500242108","name":"龚滩镇","pinyin":"gongtanzhen","location":{"latitude":28.944761,"longitude":108.38319},"polygon":[]},{"id":"500242109","name":"李溪镇","pinyin":"lixizhen","location":{"latitude":28.528203,"longitude":108.658669},"polygon":[]},{"id":"500242110","name":"泔溪镇","pinyin":"ganxizhen","location":{"latitude":29.068624,"longitude":108.972065},"polygon":[]},{"id":"500242111","name":"酉水河镇","pinyin":"youshuihezhen","location":{"latitude":28.885122,"longitude":109.114359},"polygon":[]},{"id":"500242112","name":"苍岭镇","pinyin":"canglingzhen","location":{"latitude":29.010499,"longitude":108.569059},"polygon":[]},{"id":"500242113","name":"小河镇","pinyin":"xiaohezhen","location":{"latitude":28.699739,"longitude":108.63799},"polygon":[]},{"id":"500242114","name":"板溪镇","pinyin":"banxizhen","location":{"latitude":28.712419,"longitude":108.805154},"polygon":[]},{"id":"500242115","name":"涂市镇","pinyin":"tushizhen","location":{"latitude":28.886304,"longitude":108.851268},"polygon":[]},{"id":"500242116","name":"铜鼓镇","pinyin":"tongguzhen","location":{"latitude":28.822122,"longitude":108.659045},"polygon":[]},{"id":"500242117","name":"五福镇","pinyin":"wufuzhen","location":{"latitude":29.140773,"longitude":109.143929},"polygon":[]},{"id":"500242118","name":"万木镇","pinyin":"wanmuzhen","location":{"latitude":28.675978,"longitude":108.506569},"polygon":[]},{"id":"500242119","name":"南腰界镇","pinyin":"nanyaojiezhen","location":{"latitude":28.382269,"longitude":108.620452},"polygon":[]},{"id":"500242204","name":"可大乡","pinyin":"kedaxiang","location":{"latitude":29.019291,"longitude":109.247516},"polygon":[]},{"id":"500242205","name":"偏柏乡","pinyin":"pianbaixiang","location":{"latitude":29.05134,"longitude":109.062948},"polygon":[]},{"id":"500242207","name":"木叶乡","pinyin":"muyexiang","location":{"latitude":29.278303,"longitude":108.974818},"polygon":[]},{"id":"500242208","name":"毛坝乡","pinyin":"maobaxiang","location":{"latitude":29.101458,"longitude":108.896284},"polygon":[]},{"id":"500242209","name":"花田乡","pinyin":"huatianxiang","location":{"latitude":28.953103,"longitude":108.712525},"polygon":[]},{"id":"500242210","name":"后坪乡","pinyin":"houpingxiang","location":{"latitude":28.715987,"longitude":108.412382},"polygon":[]},{"id":"500242211","name":"天馆乡","pinyin":"tianguanxiang","location":{"latitude":28.881715,"longitude":108.49931},"polygon":[]},{"id":"500242212","name":"宜居乡","pinyin":"yijuxiang","location":{"latitude":28.872324,"longitude":108.579226},"polygon":[]},{"id":"500242214","name":"两罾乡","pinyin":"liangzengxiang","location":{"latitude":28.88504,"longitude":108.426416},"polygon":[]},{"id":"500242215","name":"板桥乡","pinyin":"banqiaoxiang","location":{"latitude":28.697885,"longitude":108.729038},"polygon":[]},{"id":"500242216","name":"官清乡","pinyin":"guanqingxiang","location":{"latitude":28.62526,"longitude":108.694365},"polygon":[]},{"id":"500242218","name":"车田乡","pinyin":"chetianxiang","location":{"latitude":29.130715,"longitude":109.042118},"polygon":[]},{"id":"500242219","name":"腴地乡","pinyin":"yudixiang","location":{"latitude":29.005689,"longitude":108.913242},"polygon":[]},{"id":"500242220","name":"清泉乡","pinyin":"qingquanxiang","location":{"latitude":28.778661,"longitude":108.419878},"polygon":[]},{"id":"500242221","name":"庙溪乡","pinyin":"miaoxixiang","location":{"latitude":29.027355,"longitude":108.472986},"polygon":[]},{"id":"500242222","name":"浪坪乡","pinyin":"langpingxiang","location":{"latitude":29.088311,"longitude":108.544586},"polygon":[]},{"id":"500242223","name":"双泉乡","pinyin":"shuangquanxiang","location":{"latitude":29.012367,"longitude":108.662425},"polygon":[]},{"id":"500242224","name":"楠木乡","pinyin":"nanmuxiang","location":{"latitude":28.596951,"longitude":108.784156},"polygon":[]}]