[{"id":"500235001","name":"青龙街道","pinyin":"qinglongjiedao","location":{"latitude":30.941109,"longitude":108.766098},"polygon":[]},{"id":"500235002","name":"双江街道","pinyin":"shuangjiangjiedao","location":{"latitude":30.95725,"longitude":108.724751},"polygon":[]},{"id":"500235003","name":"人和街道","pinyin":"renhejiedao","location":{"latitude":30.990172,"longitude":108.64409},"polygon":[]},{"id":"500235004","name":"盘龙街道","pinyin":"panlongjiedao","location":{"latitude":30.879556,"longitude":108.696901},"polygon":[]},{"id":"500235100","name":"云阳镇","pinyin":"yunyangzhen","location":{"latitude":31.004992,"longitude":108.944647},"polygon":[]},{"id":"500235101","name":"云安镇","pinyin":"yunanzhen","location":{"latitude":31.042349,"longitude":108.870188},"polygon":[]},{"id":"500235103","name":"凤鸣镇","pinyin":"fengmingzhen","location":{"latitude":30.869436,"longitude":108.776099},"polygon":[]},{"id":"500235105","name":"龙角镇","pinyin":"longjiaozhen","location":{"latitude":30.798178,"longitude":108.858589},"polygon":[]},{"id":"500235106","name":"宝坪镇","pinyin":"baopingzhen","location":{"latitude":30.892326,"longitude":108.880611},"polygon":[]},{"id":"500235107","name":"故陵镇","pinyin":"gulingzhen","location":{"latitude":30.908952,"longitude":109.089114},"polygon":[]},{"id":"500235108","name":"红狮镇","pinyin":"hongshizhen","location":{"latitude":30.989143,"longitude":109.055382},"polygon":[]},{"id":"500235109","name":"南溪镇","pinyin":"nanxizhen","location":{"latitude":31.127283,"longitude":108.814546},"polygon":[]},{"id":"500235111","name":"双土镇","pinyin":"shuangtuzhen","location":{"latitude":31.163705,"longitude":108.948782},"polygon":[]},{"id":"500235112","name":"桑坪镇","pinyin":"sangpingzhen","location":{"latitude":31.248507,"longitude":109.024787},"polygon":[]},{"id":"500235113","name":"江口镇","pinyin":"jiangkouzhen","location":{"latitude":31.266106,"longitude":108.774422},"polygon":[]},{"id":"500235115","name":"路阳镇","pinyin":"luyangzhen","location":{"latitude":31.227069,"longitude":108.698213},"polygon":[]},{"id":"500235116","name":"农坝镇","pinyin":"nongbazhen","location":{"latitude":31.389087,"longitude":108.757591},"polygon":[]},{"id":"500235117","name":"高阳镇","pinyin":"gaoyangzhen","location":{"latitude":31.110511,"longitude":108.688897},"polygon":[]},{"id":"500235118","name":"渠马镇","pinyin":"qumazhen","location":{"latitude":31.128437,"longitude":108.619354},"polygon":[]},{"id":"500235121","name":"黄石镇","pinyin":"huangshizhen","location":{"latitude":31.014716,"longitude":108.72196},"polygon":[]},{"id":"500235122","name":"巴阳镇","pinyin":"bayangzhen","location":{"latitude":30.961326,"longitude":108.561428},"polygon":[]},{"id":"500235124","name":"鱼泉镇","pinyin":"yuquanzhen","location":{"latitude":31.305028,"longitude":108.842205},"polygon":[]},{"id":"500235126","name":"平安镇","pinyin":"pinganzhen","location":{"latitude":31.020969,"longitude":108.532271},"polygon":[]},{"id":"500235127","name":"沙市镇","pinyin":"shashizhen","location":{"latitude":31.313067,"longitude":108.926583},"polygon":[]},{"id":"500235128","name":"双龙镇","pinyin":"shuanglongzhen","location":{"latitude":31.200201,"longitude":108.62313},"polygon":[]},{"id":"500235129","name":"栖霞镇","pinyin":"qixiazhen","location":{"latitude":30.987883,"longitude":108.83303},"polygon":[]},{"id":"500235130","name":"水口镇","pinyin":"shuikouzhen","location":{"latitude":31.010458,"longitude":108.767934},"polygon":[]},{"id":"500235131","name":"蔈草镇","pinyin":"biaocaozhen","location":{"latitude":30.773894,"longitude":108.981741},"polygon":[]},{"id":"500235132","name":"泥溪镇","pinyin":"nixizhen","location":{"latitude":30.725934,"longitude":108.851693},"polygon":[]},{"id":"500235133","name":"养鹿镇","pinyin":"yangluzhen","location":{"latitude":31.091835,"longitude":108.591012},"polygon":[]},{"id":"500235134","name":"后叶镇","pinyin":"houyezhen","location":{"latitude":31.3052,"longitude":108.67198},"polygon":[]},{"id":"500235135","name":"龙洞镇","pinyin":"longdongzhen","location":{"latitude":30.994621,"longitude":109.166366},"polygon":[]},{"id":"500235136","name":"堰坪镇","pinyin":"yanpingzhen","location":{"latitude":30.826047,"longitude":109.014765},"polygon":[]},{"id":"500235137","name":"大阳镇","pinyin":"dayangzhen","location":{"latitude":31.164591,"longitude":109.008384},"polygon":[]},{"id":"500235138","name":"耀灵镇","pinyin":"yaolingzhen","location":{"latitude":30.639679,"longitude":108.916639},"polygon":[]},{"id":"500235208","name":"外郎乡","pinyin":"wailangxiang","location":{"latitude":30.775652,"longitude":108.773357},"polygon":[]},{"id":"500235215","name":"新津乡","pinyin":"xinjinxiang","location":{"latitude":30.894004,"longitude":108.989377},"polygon":[]},{"id":"500235216","name":"普安乡","pinyin":"puanxiang","location":{"latitude":30.859694,"longitude":108.934274},"polygon":[]},{"id":"500235218","name":"洞鹿乡","pinyin":"dongluxiang","location":{"latitude":31.070555,"longitude":109.042751},"polygon":[]},{"id":"500235219","name":"石门乡","pinyin":"shimenxiang","location":{"latitude":31.123844,"longitude":109.038809},"polygon":[]},{"id":"500235239","name":"上坝乡","pinyin":"shangbaxiang","location":{"latitude":31.35885,"longitude":108.971304},"polygon":[]},{"id":"500235241","name":"清水土家族乡","pinyin":"qingshuitujiazuxiang","location":{"latitude":30.680406,"longitude":108.987268},"polygon":[]}]