[{"id":"500231001","name":"桂溪街道","pinyin":"guixijiedao","location":{"latitude":30.343703,"longitude":107.352204},"polygon":[]},{"id":"500231002","name":"桂阳街道","pinyin":"guiyangjiedao","location":{"latitude":30.30783,"longitude":107.329693},"polygon":[]},{"id":"500231101","name":"新民镇","pinyin":"xinminzhen","location":{"latitude":30.401423,"longitude":107.390449},"polygon":[]},{"id":"500231102","name":"沙坪镇","pinyin":"shapingzhen","location":{"latitude":30.460523,"longitude":107.421585},"polygon":[]},{"id":"500231103","name":"周嘉镇","pinyin":"zhoujiazhen","location":{"latitude":30.443604,"longitude":107.515048},"polygon":[]},{"id":"500231104","name":"普顺镇","pinyin":"pushunzhen","location":{"latitude":30.420398,"longitude":107.619598},"polygon":[]},{"id":"500231105","name":"永安镇","pinyin":"yonganzhen","location":{"latitude":30.368591,"longitude":107.542789},"polygon":[]},{"id":"500231106","name":"高安镇","pinyin":"gaoanzhen","location":{"latitude":30.279188,"longitude":107.490682},"polygon":[]},{"id":"500231107","name":"高峰镇","pinyin":"gaofengzhen","location":{"latitude":30.207611,"longitude":107.408074},"polygon":[]},{"id":"500231108","name":"五洞镇","pinyin":"wudongzhen","location":{"latitude":30.203708,"longitude":107.342511},"polygon":[]},{"id":"500231109","name":"太平镇","pinyin":"taipingzhen","location":{"latitude":30.261664,"longitude":107.299339},"polygon":[]},{"id":"500231110","name":"澄溪镇","pinyin":"chengxizhen","location":{"latitude":30.196348,"longitude":107.286178},"polygon":[]},{"id":"500231111","name":"砚台镇","pinyin":"yantaizhen","location":{"latitude":30.136311,"longitude":107.353038},"polygon":[]},{"id":"500231112","name":"鹤游镇","pinyin":"heyouzhen","location":{"latitude":30.075377,"longitude":107.360725},"polygon":[]},{"id":"500231113","name":"坪山镇","pinyin":"pingshanzhen","location":{"latitude":30.055982,"longitude":107.413246},"polygon":[]},{"id":"500231114","name":"曹回镇","pinyin":"caohuizhen","location":{"latitude":30.377906,"longitude":107.463202},"polygon":[]},{"id":"500231115","name":"杠家镇","pinyin":"gangjiazhen","location":{"latitude":30.197176,"longitude":107.477865},"polygon":[]},{"id":"500231116","name":"包家镇","pinyin":"baojiazhen","location":{"latitude":30.082916,"longitude":107.302461},"polygon":[]},{"id":"500231117","name":"白家镇","pinyin":"baijiazhen","location":{"latitude":30.016601,"longitude":107.347539},"polygon":[]},{"id":"500231118","name":"裴兴镇","pinyin":"peixingzhen","location":{"latitude":30.119938,"longitude":107.52014},"polygon":[]},{"id":"500231119","name":"三溪镇","pinyin":"sanxizhen","location":{"latitude":30.050227,"longitude":107.480222},"polygon":[]},{"id":"500231120","name":"永平镇","pinyin":"yongpingzhen","location":{"latitude":30.145064,"longitude":107.452054},"polygon":[]},{"id":"500231121","name":"黄沙镇","pinyin":"huangshazhen","location":{"latitude":30.267951,"longitude":107.37485},"polygon":[]},{"id":"500231122","name":"长龙镇","pinyin":"changlongzhen","location":{"latitude":30.297795,"longitude":107.411075},"polygon":[]},{"id":"500231202","name":"沙河乡","pinyin":"shahexiang","location":{"latitude":30.281615,"longitude":107.563033},"polygon":[]},{"id":"500231204","name":"大石乡","pinyin":"dashixiang","location":{"latitude":30.1893,"longitude":107.559338},"polygon":[]}]