[{"id":"500229001","name":"葛城街道","pinyin":"gechengjiedao","location":{"latitude":31.947701,"longitude":108.690697},"polygon":[]},{"id":"500229002","name":"复兴街道","pinyin":"fuxingjiedao","location":{"latitude":31.911026,"longitude":108.696841},"polygon":[]},{"id":"500229102","name":"巴山镇","pinyin":"bashanzhen","location":{"latitude":32.077919,"longitude":108.518435},"polygon":[]},{"id":"500229104","name":"坪坝镇","pinyin":"pingbazhen","location":{"latitude":32.014628,"longitude":108.488501},"polygon":[]},{"id":"500229105","name":"庙坝镇","pinyin":"miaobazhen","location":{"latitude":31.90899,"longitude":108.50921},"polygon":[]},{"id":"500229106","name":"明通镇","pinyin":"mingtongzhen","location":{"latitude":31.772711,"longitude":108.57129},"polygon":[]},{"id":"500229107","name":"修齐镇","pinyin":"xiuqizhen","location":{"latitude":31.875999,"longitude":108.804194},"polygon":[]},{"id":"500229108","name":"高观镇","pinyin":"gaoguanzhen","location":{"latitude":31.81916,"longitude":108.95008},"polygon":[]},{"id":"500229109","name":"高燕镇","pinyin":"gaoyanzhen","location":{"latitude":31.923043,"longitude":108.610426},"polygon":[]},{"id":"500229110","name":"东安镇","pinyin":"donganzhen","location":{"latitude":31.802446,"longitude":109.141924},"polygon":[]},{"id":"500229111","name":"咸宜镇","pinyin":"xianyizhen","location":{"latitude":31.681905,"longitude":108.680508},"polygon":[]},{"id":"500229112","name":"高楠镇","pinyin":"gaonanzhen","location":{"latitude":32.11291,"longitude":108.584674},"polygon":[]},{"id":"500229201","name":"龙田乡","pinyin":"longtianxiang","location":{"latitude":32.023753,"longitude":108.637598},"polygon":[]},{"id":"500229202","name":"北屏乡","pinyin":"beipingxiang","location":{"latitude":31.983777,"longitude":108.820792},"polygon":[]},{"id":"500229205","name":"左岚乡","pinyin":"zuolanxiang","location":{"latitude":32.151226,"longitude":108.438567},"polygon":[]},{"id":"500229208","name":"沿河乡","pinyin":"yanhexiang","location":{"latitude":32.011716,"longitude":108.397794},"polygon":[]},{"id":"500229210","name":"双河乡","pinyin":"shuanghexiang","location":{"latitude":31.923434,"longitude":108.360338},"polygon":[]},{"id":"500229211","name":"蓼子乡","pinyin":"liaozixiang","location":{"latitude":31.801471,"longitude":108.679655},"polygon":[]},{"id":"500229212","name":"鸡鸣乡","pinyin":"jimingxiang","location":{"latitude":31.707504,"longitude":108.571317},"polygon":[]},{"id":"500229214","name":"周溪乡","pinyin":"zhouxixiang","location":{"latitude":31.832729,"longitude":108.475855},"polygon":[]},{"id":"500229216","name":"明中乡","pinyin":"mingzhongxiang","location":{"latitude":31.712084,"longitude":108.820696},"polygon":[]},{"id":"500229217","name":"治平乡","pinyin":"zhipingxiang","location":{"latitude":31.79213,"longitude":108.804574},"polygon":[]},{"id":"500229219","name":"岚天乡","pinyin":"lantianxiang","location":{"latitude":31.93351,"longitude":108.930458},"polygon":[]},{"id":"500229220","name":"厚坪乡","pinyin":"houpingxiang","location":{"latitude":31.755916,"longitude":108.918519},"polygon":[]},{"id":"500229221","name":"河鱼乡","pinyin":"heyuxiang","location":{"latitude":31.905204,"longitude":109.006893},"polygon":[]}]