[{"id":"659001001","name":"新城街道","pinyin":"xinchengjiedao","location":{"latitude":44.291869,"longitude":86.018702},"polygon":[]},{"id":"659001002","name":"向阳街道","pinyin":"xiangyangjiedao","location":{"latitude":44.325709,"longitude":86.048211},"polygon":[]},{"id":"659001003","name":"红山街道","pinyin":"hongshanjiedao","location":{"latitude":44.281448,"longitude":86.054365},"polygon":[]},{"id":"659001004","name":"老街街道","pinyin":"laojiejiedao","location":{"latitude":44.33425,"longitude":85.98789},"polygon":[]},{"id":"659001005","name":"东城街道","pinyin":"dongchengjiedao","location":{"latitude":44.398191,"longitude":86.077014},"polygon":[]},{"id":"659001100","name":"北泉镇","pinyin":"beiquanzhen","location":{"latitude":44.384797,"longitude":85.988833},"polygon":[]},{"id":"659001101","name":"石河子镇","pinyin":"shihezizhen","location":{"latitude":44.257972,"longitude":86.037881},"polygon":[]},{"id":"659001500","name":"兵团一五二团","pinyin":"bingtuanyiwuertuan","location":{"latitude":44.185907,"longitude":86.047762},"polygon":[]}]