[{"id":"110106001","name":"右安门街道","pinyin":"youanmenjiedao","location":{"lat":39.861862,"lng":116.365193},"polygon":[]},{"id":"110106002","name":"太平桥街道","pinyin":"taipingqiaojiedao","location":{"lat":39.875165,"lng":116.328015},"polygon":[]},{"id":"110106003","name":"西罗园街道","pinyin":"xiluoyuanjiedao","location":{"lat":39.856268,"lng":116.386235},"polygon":[]},{"id":"110106004","name":"大红门街道","pinyin":"dahongmenjiedao","location":{"lat":39.836094,"lng":116.406164},"polygon":[]},{"id":"110106005","name":"南苑街道","pinyin":"nanyuanjiedao","location":{"lat":39.80908,"lng":116.377722},"polygon":[]},{"id":"110106006","name":"东高地街道","pinyin":"donggaodijiedao","location":{"lat":39.799326,"lng":116.414374},"polygon":[]},{"id":"110106007","name":"东铁匠营街道","pinyin":"dongtiejiangyingjiedao","location":{"lat":39.862672,"lng":116.419349},"polygon":[]},{"id":"110106008","name":"六里桥街道","pinyin":"liuliqiaojiedao","location":{"lat":39.859611,"lng":116.25249},"polygon":[]},{"id":"110106009","name":"丰台街道","pinyin":"fengtaijiedao","location":{"lat":39.853559,"lng":116.294361},"polygon":[]},{"id":"110106010","name":"新村街道","pinyin":"xincunjiedao","location":{"lat":39.829136,"lng":116.281892},"polygon":[]},{"id":"110106012","name":"云岗街道","pinyin":"yungangjiedao","location":{"lat":39.821355,"lng":116.160043},"polygon":[]},{"id":"110106013","name":"方庄街道","pinyin":"fangzhuangjiedao","location":{"lat":39.861562,"lng":116.427632},"polygon":[]},{"id":"110106014","name":"宛平城街道","pinyin":"wanpingchengjiedao","location":{"lat":39.835441,"lng":116.236391},"polygon":[]},{"id":"110106015","name":"马家堡街道","pinyin":"majiabaojiedao","location":{"lat":39.842898,"lng":116.36542},"polygon":[]},{"id":"110106016","name":"和义街道","pinyin":"heyijiedao","location":{"lat":39.816063,"lng":116.400218},"polygon":[]},{"id":"110106018","name":"花乡街道","pinyin":"huaxiangjiedao","location":{"lat":39.812846,"lng":116.322116},"polygon":[]},{"id":"110106020","name":"成寿寺街道","pinyin":"chengshousijiedao","location":{"lat":39.854817,"lng":116.436683},"polygon":[]},{"id":"110106021","name":"石榴庄街道","pinyin":"shiliuzhuangjiedao","location":{"lat":39.839381,"lng":116.420021},"polygon":[]},{"id":"110106100","name":"北宫镇","pinyin":"beigongzhen","location":{"lat":39.8389,"lng":116.165264},"polygon":[]},{"id":"110106101","name":"王佐镇","pinyin":"wangzuozhen","location":{"lat":39.81597,"lng":116.11283},"polygon":[]},{"id":"110106110","name":"长辛店街道","pinyin":"changxindianjiedao","location":{"lat":39.840891,"lng":116.209785},"polygon":[]},{"id":"110106201","name":"卢沟桥乡","pinyin":"lugouqiaoxiang","location":{"lat":39.880391,"lng":116.23619},"polygon":[]}]