[{"id":"110105001","name":"建外街道","pinyin":"jianwaijiedao","location":{"latitude":39.907785,"longitude":116.456877},"polygon":[]},{"id":"110105002","name":"朝外街道","pinyin":"zhaowaijiedao","location":{"latitude":39.921406,"longitude":116.442506},"polygon":[]},{"id":"110105003","name":"呼家楼街道","pinyin":"hujialoujiedao","location":{"latitude":39.920178,"longitude":116.464238},"polygon":[]},{"id":"110105004","name":"三里屯街道","pinyin":"sanlitunjiedao","location":{"latitude":39.937171,"longitude":116.452879},"polygon":[]},{"id":"110105005","name":"左家庄街道","pinyin":"zuojiazhuangjiedao","location":{"latitude":39.956789,"longitude":116.44776},"polygon":[]},{"id":"110105006","name":"香河园街道","pinyin":"xiangheyuanjiedao","location":{"latitude":39.959437,"longitude":116.437545},"polygon":[]},{"id":"110105007","name":"和平街街道","pinyin":"hepingjiejiedao","location":{"latitude":39.962349,"longitude":116.422886},"polygon":[]},{"id":"110105008","name":"安贞街道","pinyin":"anzhenjiedao","location":{"latitude":39.968211,"longitude":116.398762},"polygon":[]},{"id":"110105009","name":"亚运村街道","pinyin":"yayuncunjiedao","location":{"latitude":39.985682,"longitude":116.395376},"polygon":[]},{"id":"110105010","name":"小关街道","pinyin":"xiaoguanjiedao","location":{"latitude":39.982261,"longitude":116.420376},"polygon":[]},{"id":"110105011","name":"酒仙桥街道","pinyin":"jiuxianqiaojiedao","location":{"latitude":39.960927,"longitude":116.494036},"polygon":[]},{"id":"110105012","name":"麦子店街道","pinyin":"maizidianjiedao","location":{"latitude":39.948113,"longitude":116.475803},"polygon":[]},{"id":"110105013","name":"团结湖街道","pinyin":"tuanjiehujiedao","location":{"latitude":39.928088,"longitude":116.4682},"polygon":[]},{"id":"110105014","name":"六里屯街道","pinyin":"liulitunjiedao","location":{"latitude":39.926712,"longitude":116.491493},"polygon":[]},{"id":"110105015","name":"八里庄街道","pinyin":"balizhuangjiedao","location":{"latitude":39.917008,"longitude":116.49818},"polygon":[]},{"id":"110105016","name":"双井街道","pinyin":"shuangjingjiedao","location":{"latitude":39.894529,"longitude":116.468488},"polygon":[]},{"id":"110105017","name":"劲松街道","pinyin":"jinsongjiedao","location":{"latitude":39.886164,"longitude":116.474824},"polygon":[]},{"id":"110105018","name":"潘家园街道","pinyin":"panjiayuanjiedao","location":{"latitude":39.875604,"longitude":116.460771},"polygon":[]},{"id":"110105019","name":"垡头街道","pinyin":"fatoujiedao","location":{"latitude":39.857642,"longitude":116.529583},"polygon":[]},{"id":"110105025","name":"大屯街道","pinyin":"datunjiedao","location":{"latitude":40.003921,"longitude":116.421163},"polygon":[]},{"id":"110105026","name":"望京街道","pinyin":"wangjingjiedao","location":{"latitude":39.983958,"longitude":116.466824},"polygon":[]},{"id":"110105031","name":"奥运村街道","pinyin":"aoyuncunjiedao","location":{"latitude":40.016266,"longitude":116.388008},"polygon":[]},{"id":"110105043","name":"首都机场街道","pinyin":"shoudujichangjiedao","location":{"latitude":40.074721,"longitude":116.591876},"polygon":[]},{"id":"110105044","name":"东湖街道","pinyin":"donghujiedao","location":{"latitude":40.003264,"longitude":116.475528},"polygon":[]},{"id":"110105221","name":"南磨房乡","pinyin":"nanmofangxiang","location":{"latitude":39.880369,"longitude":116.486936},"polygon":[]},{"id":"110105222","name":"高碑店乡","pinyin":"gaobeidianxiang","location":{"latitude":39.909347,"longitude":116.519688},"polygon":[]},{"id":"110105223","name":"将台乡","pinyin":"jiangtaixiang","location":{"latitude":39.97526,"longitude":116.516289},"polygon":[]},{"id":"110105224","name":"太阳宫乡","pinyin":"taiyanggongxiang","location":{"latitude":39.972196,"longitude":116.443876},"polygon":[]},{"id":"110105227","name":"小红门乡","pinyin":"xiaohongmenxiang","location":{"latitude":39.830896,"longitude":116.459313},"polygon":[]},{"id":"110105228","name":"十八里店乡","pinyin":"shibalidianxiang","location":{"latitude":39.843848,"longitude":116.500852},"polygon":[]},{"id":"110105229","name":"平房乡","pinyin":"pingfangxiang","location":{"latitude":39.9354,"longitude":116.542012},"polygon":[]},{"id":"110105230","name":"东风乡","pinyin":"dongfengxiang","location":{"latitude":39.946102,"longitude":116.500897},"polygon":[]},{"id":"110105232","name":"来广营乡","pinyin":"laiguangyingxiang","location":{"latitude":40.030889,"longitude":116.444443},"polygon":[]},{"id":"110105233","name":"常营回族乡","pinyin":"changyinghuizuxiang","location":{"latitude":39.928579,"longitude":116.599534},"polygon":[]},{"id":"110105234","name":"三间房乡","pinyin":"sanjianfangxiang","location":{"latitude":39.910202,"longitude":116.565202},"polygon":[]},{"id":"110105235","name":"管庄乡","pinyin":"guanzhuangxiang","location":{"latitude":39.902654,"longitude":116.599863},"polygon":[]},{"id":"110105236","name":"金盏乡","pinyin":"jinzhanxiang","location":{"latitude":39.981193,"longitude":116.606192},"polygon":[]},{"id":"110105237","name":"孙河乡","pinyin":"sunhexiang","location":{"latitude":40.053292,"longitude":116.518041},"polygon":[]},{"id":"110105238","name":"崔各庄乡","pinyin":"cuigezhuangxiang","location":{"latitude":40.024171,"longitude":116.506068},"polygon":[]},{"id":"110105239","name":"东坝乡","pinyin":"dongbaxiang","location":{"latitude":39.96839,"longitude":116.548162},"polygon":[]},{"id":"110105240","name":"黑庄户乡","pinyin":"heizhuanghuxiang","location":{"latitude":39.859901,"longitude":116.59684},"polygon":[]},{"id":"110105241","name":"豆各庄乡","pinyin":"dougezhuangxiang","location":{"latitude":39.864322,"longitude":116.568097},"polygon":[]},{"id":"110105242","name":"王四营乡","pinyin":"wangsiyingxiang","location":{"latitude":39.87331,"longitude":116.535515},"polygon":[]}]