[{"id":"110118001","name":"鼓楼街道","pinyin":"guloujiedao","location":{"latitude":40.374679,"longitude":116.85863},"polygon":[]},{"id":"110118002","name":"果园街道","pinyin":"guoyuanjiedao","location":{"latitude":40.368704,"longitude":116.822358},"polygon":[]},{"id":"110118100","name":"密云镇","pinyin":"miyunzhen","location":{"latitude":40.39471,"longitude":116.831937},"polygon":[]},{"id":"110118101","name":"溪翁庄镇","pinyin":"xiwengzhuangzhen","location":{"latitude":40.465828,"longitude":116.868939},"polygon":[]},{"id":"110118102","name":"西田各庄镇","pinyin":"xitiangezhuangzhen","location":{"latitude":40.437467,"longitude":116.774566},"polygon":[]},{"id":"110118103","name":"十里堡镇","pinyin":"shilibaozhen","location":{"latitude":40.350545,"longitude":116.770187},"polygon":[]},{"id":"110118104","name":"河南寨镇","pinyin":"henanzhaizhen","location":{"latitude":40.31749,"longitude":116.819974},"polygon":[]},{"id":"110118105","name":"巨各庄镇","pinyin":"jugezhuangzhen","location":{"latitude":40.395142,"longitude":117.037269},"polygon":[]},{"id":"110118106","name":"穆家峪镇","pinyin":"mujiayuzhen","location":{"latitude":40.435903,"longitude":116.962939},"polygon":[]},{"id":"110118107","name":"太师屯镇","pinyin":"taishitunzhen","location":{"latitude":40.550812,"longitude":117.163605},"polygon":[]},{"id":"110118108","name":"高岭镇","pinyin":"gaolingzhen","location":{"latitude":40.622648,"longitude":117.126408},"polygon":[]},{"id":"110118109","name":"不老屯镇","pinyin":"bulaotunzhen","location":{"latitude":40.606411,"longitude":116.977417},"polygon":[]},{"id":"110118110","name":"冯家峪镇","pinyin":"fengjiayuzhen","location":{"latitude":40.682979,"longitude":116.879163},"polygon":[]},{"id":"110118111","name":"古北口镇","pinyin":"gubeikouzhen","location":{"latitude":40.660698,"longitude":117.222179},"polygon":[]},{"id":"110118112","name":"大城子镇","pinyin":"dachengzizhen","location":{"latitude":40.41474,"longitude":117.157815},"polygon":[]},{"id":"110118113","name":"东邵渠镇","pinyin":"dongshaoquzhen","location":{"latitude":40.283461,"longitude":116.922908},"polygon":[]},{"id":"110118114","name":"北庄镇","pinyin":"beizhuangzhen","location":{"latitude":40.494549,"longitude":117.168311},"polygon":[]},{"id":"110118115","name":"新城子镇","pinyin":"xinchengzizhen","location":{"latitude":40.624065,"longitude":117.360498},"polygon":[]},{"id":"110118116","name":"石城镇","pinyin":"shichengzhen","location":{"latitude":40.603371,"longitude":116.779153},"polygon":[]},{"id":"110118203","name":"檀营满族蒙族乡","pinyin":"tanyingmanzumengzuxiang","location":{"latitude":40.396442,"longitude":116.869229},"polygon":[]}]