[{"id":"110107001","name":"八宝山街道","pinyin":"babaoshanjiedao","location":{"latitude":39.898721,"longitude":116.241258},"polygon":[]},{"id":"110107002","name":"老山街道","pinyin":"laoshanjiedao","location":{"latitude":39.914774,"longitude":116.232058},"polygon":[]},{"id":"110107003","name":"八角街道","pinyin":"bajiaojiedao","location":{"latitude":39.910538,"longitude":116.200794},"polygon":[]},{"id":"110107004","name":"古城街道","pinyin":"guchengjiedao","location":{"latitude":39.904759,"longitude":116.17129},"polygon":[]},{"id":"110107005","name":"苹果园街道","pinyin":"pingguoyuanjiedao","location":{"latitude":39.949089,"longitude":116.189631},"polygon":[]},{"id":"110107006","name":"金顶街街道","pinyin":"jindingjiejiedao","location":{"latitude":39.936014,"longitude":116.159581},"polygon":[]},{"id":"110107009","name":"广宁街道","pinyin":"guangningjiedao","location":{"latitude":39.934993,"longitude":116.133003},"polygon":[]},{"id":"110107010","name":"五里坨街道","pinyin":"wulituojiedao","location":{"latitude":39.965937,"longitude":116.148199},"polygon":[]},{"id":"110107011","name":"鲁谷街道","pinyin":"lugujiedao","location":{"latitude":39.891041,"longitude":116.220076},"polygon":[]}]