[{"id":"110116001","name":"泉河街道","pinyin":"quanhejiedao","location":{"lat":40.33141,"lng":116.635635},"polygon":[]},{"id":"110116002","name":"龙山街道","pinyin":"longshanjiedao","location":{"lat":40.315681,"lng":116.634921},"polygon":[]},{"id":"110116102","name":"北房镇","pinyin":"beifangzhen","location":{"lat":40.330155,"lng":116.718955},"polygon":[]},{"id":"110116103","name":"杨宋镇","pinyin":"yangsongzhen","location":{"lat":40.272209,"lng":116.696608},"polygon":[]},{"id":"110116105","name":"桥梓镇","pinyin":"qiaozizhen","location":{"lat":40.32153,"lng":116.551189},"polygon":[]},{"id":"110116106","name":"怀北镇","pinyin":"huaibeizhen","location":{"lat":40.46526,"lng":116.667627},"polygon":[]},{"id":"110116107","name":"汤河口镇","pinyin":"tanghekouzhen","location":{"lat":40.77582,"lng":116.626214},"polygon":[]},{"id":"110116108","name":"渤海镇","pinyin":"bohaizhen","location":{"lat":40.421996,"lng":116.478888},"polygon":[]},{"id":"110116109","name":"九渡河镇","pinyin":"jiuduhezhen","location":{"lat":40.407627,"lng":116.339762},"polygon":[]},{"id":"110116110","name":"琉璃庙镇","pinyin":"liulimiaozhen","location":{"lat":40.597247,"lng":116.621918},"polygon":[]},{"id":"110116111","name":"宝山镇","pinyin":"baoshanzhen","location":{"lat":40.788307,"lng":116.498465},"polygon":[]},{"id":"110116112","name":"怀柔镇","pinyin":"huairouzhen","location":{"lat":40.352853,"lng":116.61653},"polygon":[]},{"id":"110116113","name":"雁栖镇","pinyin":"yanqizhen","location":{"lat":40.446351,"lng":116.597882},"polygon":[]},{"id":"110116114","name":"庙城镇","pinyin":"miaochengzhen","location":{"lat":40.277721,"lng":116.625114},"polygon":[]},{"id":"110116211","name":"长哨营满族乡","pinyin":"changshaoyingmanzuxiang","location":{"lat":40.807163,"lng":116.760337},"polygon":[]},{"id":"110116213","name":"喇叭沟门满族乡","pinyin":"labagoumenmanzuxiang","location":{"lat":40.95202,"lng":116.569762},"polygon":[]}]