[{"id":"110108001","name":"万寿路街道","pinyin":"wanshoulujiedao","location":{"lat":39.908215,"lng":116.287138},"polygon":[]},{"id":"110108002","name":"永定路街道","pinyin":"yongdinglujiedao","location":{"lat":39.913885,"lng":116.262742},"polygon":[]},{"id":"110108003","name":"羊坊店街道","pinyin":"yangfangdianjiedao","location":{"lat":39.902738,"lng":116.318916},"polygon":[]},{"id":"110108004","name":"甘家口街道","pinyin":"ganjiakoujiedao","location":{"lat":39.925335,"lng":116.322328},"polygon":[]},{"id":"110108005","name":"八里庄街道","pinyin":"balizhuangjiedao","location":{"lat":39.930273,"lng":116.292667},"polygon":[]},{"id":"110108006","name":"紫竹院街道","pinyin":"zizhuyuanjiedao","location":{"lat":39.952512,"lng":116.309754},"polygon":[]},{"id":"110108007","name":"北下关街道","pinyin":"beixiaguanjiedao","location":{"lat":39.953041,"lng":116.337319},"polygon":[]},{"id":"110108008","name":"北太平庄街道","pinyin":"beitaipingzhuangjiedao","location":{"lat":39.960469,"lng":116.358836},"polygon":[]},{"id":"110108010","name":"学院路街道","pinyin":"xueyuanlujiedao","location":{"lat":40.00335,"lng":116.354114},"polygon":[]},{"id":"110108011","name":"中关村街道","pinyin":"zhongguancunjiedao","location":{"lat":39.979954,"lng":116.328114},"polygon":[]},{"id":"110108012","name":"海淀街道","pinyin":"haidianjiedao","location":{"lat":39.974594,"lng":116.301469},"polygon":[]},{"id":"110108013","name":"青龙桥街道","pinyin":"qinglongqiaojiedao","location":{"lat":40.009148,"lng":116.277945},"polygon":[]},{"id":"110108014","name":"清华园街道","pinyin":"qinghuayuanjiedao","location":{"lat":40.004916,"lng":116.326159},"polygon":[]},{"id":"110108015","name":"燕园街道","pinyin":"yanyuanjiedao","location":{"lat":39.992866,"lng":116.310685},"polygon":[]},{"id":"110108016","name":"香山街道","pinyin":"xiangshanjiedao","location":{"lat":39.998543,"lng":116.196254},"polygon":[]},{"id":"110108017","name":"清河街道","pinyin":"qinghejiedao","location":{"lat":40.039831,"lng":116.327055},"polygon":[]},{"id":"110108018","name":"花园路街道","pinyin":"huayuanlujiedao","location":{"lat":39.977628,"lng":116.360533},"polygon":[]},{"id":"110108019","name":"西三旗街道","pinyin":"xisanqijiedao","location":{"lat":40.060678,"lng":116.363586},"polygon":[]},{"id":"110108020","name":"马连洼街道","pinyin":"malianwajiedao","location":{"lat":40.032767,"lng":116.279766},"polygon":[]},{"id":"110108021","name":"田村路街道","pinyin":"tiancunlujiedao","location":{"lat":39.929235,"lng":116.256414},"polygon":[]},{"id":"110108022","name":"上地街道","pinyin":"shangdijiedao","location":{"lat":40.035876,"lng":116.303162},"polygon":[]},{"id":"110108025","name":"曙光街道","pinyin":"shuguangjiedao","location":{"lat":39.957195,"lng":116.285546},"polygon":[]},{"id":"110108101","name":"温泉镇","pinyin":"wenquanzhen","location":{"lat":40.038406,"lng":116.176229},"polygon":[]},{"id":"110108102","name":"四季青镇","pinyin":"sijiqingzhen","location":{"lat":39.962966,"lng":116.235036},"polygon":[]},{"id":"110108103","name":"西北旺镇","pinyin":"xibeiwangzhen","location":{"lat":40.060994,"lng":116.254537},"polygon":[]},{"id":"110108104","name":"苏家坨镇","pinyin":"sujiatuozhen","location":{"lat":40.076457,"lng":116.126139},"polygon":[]},{"id":"110108105","name":"上庄镇","pinyin":"shangzhuangzhen","location":{"lat":40.11906,"lng":116.205321},"polygon":[]},{"id":"110108123","name":"海淀镇","pinyin":"haidianzhen","location":{"lat":39.994639,"lng":116.249502},"polygon":[]},{"id":"110108124","name":"东升镇","pinyin":"dongshengzhen","location":{"lat":40.04227,"lng":116.371378},"polygon":[]}]