[{"id":"110112001","name":"中仓街道","pinyin":"zhongcangjiedao","location":{"latitude":39.905931,"longitude":116.678943},"polygon":[]},{"id":"110112002","name":"新华街道","pinyin":"xinhuajiedao","location":{"latitude":39.917822,"longitude":116.662763},"polygon":[]},{"id":"110112003","name":"北苑街道","pinyin":"beiyuanjiedao","location":{"latitude":39.901724,"longitude":116.639933},"polygon":[]},{"id":"110112004","name":"玉桥街道","pinyin":"yuqiaojiedao","location":{"latitude":39.884992,"longitude":116.688738},"polygon":[]},{"id":"110112005","name":"潞源街道","pinyin":"luyuanjiedao","location":{"latitude":39.906368,"longitude":116.723066},"polygon":[]},{"id":"110112006","name":"通运街道","pinyin":"tongyunjiedao","location":{"latitude":39.907425,"longitude":116.699716},"polygon":[]},{"id":"110112009","name":"文景街道","pinyin":"wenjingjiedao","location":{"latitude":39.855185,"longitude":116.657306},"polygon":[]},{"id":"110112010","name":"九棵树街道","pinyin":"jiukeshujiedao","location":{"latitude":39.890147,"longitude":116.648176},"polygon":[]},{"id":"110112011","name":"临河里街道","pinyin":"linhelijiedao","location":{"latitude":39.874052,"longitude":116.689665},"polygon":[]},{"id":"110112012","name":"杨庄街道","pinyin":"yangzhuangjiedao","location":{"latitude":39.896173,"longitude":116.633086},"polygon":[]},{"id":"110112013","name":"潞邑街道","pinyin":"luyijiedao","location":{"latitude":39.936459,"longitude":116.685439},"polygon":[]},{"id":"110112104","name":"宋庄镇","pinyin":"songzhuangzhen","location":{"latitude":39.967204,"longitude":116.699952},"polygon":[]},{"id":"110112105","name":"张家湾镇","pinyin":"zhangjiawanzhen","location":{"latitude":39.809717,"longitude":116.7087},"polygon":[]},{"id":"110112106","name":"漷县镇","pinyin":"huoxianzhen","location":{"latitude":39.745465,"longitude":116.828672},"polygon":[]},{"id":"110112109","name":"马驹桥镇","pinyin":"majuqiaozhen","location":{"latitude":39.736082,"longitude":116.61161},"polygon":[]},{"id":"110112110","name":"西集镇","pinyin":"xijizhen","location":{"latitude":39.804465,"longitude":116.866341},"polygon":[]},{"id":"110112114","name":"台湖镇","pinyin":"taihuzhen","location":{"latitude":39.81273,"longitude":116.605104},"polygon":[]},{"id":"110112117","name":"永乐店镇","pinyin":"yongledianzhen","location":{"latitude":39.65828,"longitude":116.803787},"polygon":[]},{"id":"110112119","name":"潞城镇","pinyin":"luchengzhen","location":{"latitude":39.876033,"longitude":116.787212},"polygon":[]},{"id":"110112120","name":"永顺镇","pinyin":"yongshunzhen","location":{"latitude":39.933362,"longitude":116.666508},"polygon":[]},{"id":"110112121","name":"梨园镇","pinyin":"liyuanzhen","location":{"latitude":39.871754,"longitude":116.654831},"polygon":[]},{"id":"110112209","name":"于家务回族乡","pinyin":"yujiawuhuizuxiang","location":{"latitude":39.694166,"longitude":116.720807},"polygon":[]}]