[{"id":"120106001","name":"西于庄街道","pinyin":"xiyuzhuangjiedao","location":{"latitude":39.172078,"longitude":117.145452},"polygon":[]},{"id":"120106003","name":"咸阳北路街道","pinyin":"xianyangbeilujiedao","location":{"latitude":39.182539,"longitude":117.145049},"polygon":[]},{"id":"120106004","name":"丁字沽街道","pinyin":"dingzigujiedao","location":{"latitude":39.180084,"longitude":117.169859},"polygon":[]},{"id":"120106005","name":"西沽街道","pinyin":"xigujiedao","location":{"latitude":39.167199,"longitude":117.136774},"polygon":[]},{"id":"120106006","name":"三条石街道","pinyin":"santiaoshijiedao","location":{"latitude":39.154233,"longitude":117.177374},"polygon":[]},{"id":"120106008","name":"邵公庄街道","pinyin":"shaogongzhuangjiedao","location":{"latitude":39.15234,"longitude":117.144729},"polygon":[]},{"id":"120106009","name":"芥园街道","pinyin":"jieyuanjiedao","location":{"latitude":39.14986,"longitude":117.165031},"polygon":[]},{"id":"120106010","name":"铃铛阁街道","pinyin":"lingdanggejiedao","location":{"latitude":39.143992,"longitude":117.158785},"polygon":[]},{"id":"120106011","name":"大胡同街道","pinyin":"dahutongjiedao","location":{"latitude":39.148192,"longitude":117.187035},"polygon":[]}]