[{"id":"120103001","name":"大营门街道","pinyin":"dayingmenjiedao","location":{"lat":39.11252,"lng":117.220049},"polygon":[]},{"id":"120103002","name":"下瓦房街道","pinyin":"xiawafangjiedao","location":{"lat":39.104471,"lng":117.224938},"polygon":[]},{"id":"120103003","name":"桃园街道","pinyin":"taoyuanjiedao","location":{"lat":39.105944,"lng":117.208322},"polygon":[]},{"id":"120103004","name":"挂甲寺街道","pinyin":"guajiasijiedao","location":{"lat":39.094232,"lng":117.231723},"polygon":[]},{"id":"120103005","name":"马场街道","pinyin":"machangjiedao","location":{"lat":39.092613,"lng":117.193744},"polygon":[]},{"id":"120103006","name":"越秀路街道","pinyin":"yuexiulujiedao","location":{"lat":39.093157,"lng":117.211783},"polygon":[]},{"id":"120103007","name":"友谊路街道","pinyin":"youyilujiedao","location":{"lat":39.08016,"lng":117.210152},"polygon":[]},{"id":"120103008","name":"天塔街道","pinyin":"tiantajiedao","location":{"lat":39.082205,"lng":117.187853},"polygon":[]},{"id":"120103009","name":"尖山街道","pinyin":"jianshanjiedao","location":{"lat":39.072015,"lng":117.232747},"polygon":[]},{"id":"120103010","name":"陈塘庄街道","pinyin":"chentangzhuangjiedao","location":{"lat":39.073769,"lng":117.251349},"polygon":[]},{"id":"120103011","name":"柳林街道","pinyin":"liulinjiedao","location":{"lat":39.069393,"lng":117.2738},"polygon":[]},{"id":"120103012","name":"东海街道","pinyin":"donghaijiedao","location":{"lat":39.057007,"lng":117.25346},"polygon":[]},{"id":"120103013","name":"梅江街道","pinyin":"meijiangjiedao","location":{"lat":39.063367,"lng":117.21831},"polygon":[]}]