[{"id":"120115001","name":"海滨街道","pinyin":"haibinjiedao","location":{"lat":39.737279,"lng":117.312399},"polygon":[]},{"id":"120115002","name":"宝平街道","pinyin":"baopingjiedao","location":{"lat":39.704732,"lng":117.278419},"polygon":[]},{"id":"120115003","name":"钰华街道","pinyin":"yuhuajiedao","location":{"lat":39.698464,"lng":117.327348},"polygon":[]},{"id":"120115004","name":"周良街道","pinyin":"zhouliangjiedao","location":{"lat":39.556384,"lng":117.363308},"polygon":[]},{"id":"120115007","name":"朝霞街道","pinyin":"zhaoxiajiedao","location":{"lat":39.764723,"lng":117.289314},"polygon":[]},{"id":"120115008","name":"潮阳街道","pinyin":"chaoyangjiedao","location":{"lat":39.653272,"lng":117.267838},"polygon":[]},{"id":"120115101","name":"大口屯镇","pinyin":"dakoutunzhen","location":{"lat":39.599439,"lng":117.237059},"polygon":[]},{"id":"120115103","name":"王卜庄镇","pinyin":"wangbuzhuangzhen","location":{"lat":39.673106,"lng":117.478757},"polygon":[]},{"id":"120115104","name":"方家庄镇","pinyin":"fangjiazhuangzhen","location":{"lat":39.724989,"lng":117.433854},"polygon":[]},{"id":"120115105","name":"林亭口镇","pinyin":"lintingkouzhen","location":{"lat":39.606186,"lng":117.504117},"polygon":[]},{"id":"120115106","name":"八门城镇","pinyin":"bamenchengzhen","location":{"lat":39.562648,"lng":117.597763},"polygon":[]},{"id":"120115107","name":"大钟庄镇","pinyin":"dazhongzhuangzhen","location":{"lat":39.655053,"lng":117.606008},"polygon":[]},{"id":"120115108","name":"新安镇","pinyin":"xinanzhen","location":{"lat":39.743561,"lng":117.526347},"polygon":[]},{"id":"120115111","name":"霍各庄镇","pinyin":"huogezhuangzhen","location":{"lat":39.751539,"lng":117.3758},"polygon":[]},{"id":"120115113","name":"新开口镇","pinyin":"xinkaikouzhen","location":{"lat":39.683393,"lng":117.199138},"polygon":[]},{"id":"120115115","name":"大唐庄镇","pinyin":"datangzhuangzhen","location":{"lat":39.413457,"lng":117.463272},"polygon":[]},{"id":"120115119","name":"牛道口镇","pinyin":"niudaokouzhen","location":{"lat":39.800141,"lng":117.226585},"polygon":[]},{"id":"120115120","name":"史各庄镇","pinyin":"shigezhuangzhen","location":{"lat":39.734931,"lng":117.200128},"polygon":[]},{"id":"120115121","name":"郝各庄镇","pinyin":"haogezhuangzhen","location":{"lat":39.618008,"lng":117.324616},"polygon":[]},{"id":"120115123","name":"牛家牌镇","pinyin":"niujiapaizhen","location":{"lat":39.507924,"lng":117.3222},"polygon":[]},{"id":"120115124","name":"尔王庄镇","pinyin":"erwangzhuangzhen","location":{"lat":39.404606,"lng":117.381879},"polygon":[]},{"id":"120115125","name":"黄庄镇","pinyin":"huangzhuangzhen","location":{"lat":39.50359,"lng":117.533085},"polygon":[]},{"id":"120115126","name":"口东镇","pinyin":"koudongzhen","location":{"lat":39.628323,"lng":117.392902},"polygon":[]},{"id":"120115127","name":"大白庄镇","pinyin":"dabaizhuangzhen","location":{"lat":39.473045,"lng":117.392164},"polygon":[]},{"id":"120115453","name":"天宝工业园区","pinyin":"tianbaogongyeyuanqu","location":{"lat":39.765339,"lng":117.256193},"polygon":[]},{"id":"120115454","name":"九园工业园区","pinyin":"jiuyuangongyeyuanqu","location":{"lat":39.449262,"lng":117.430501},"polygon":[]},{"id":"120115455","name":"京津新城","pinyin":"jingjinxincheng","location":{"lat":39.540316,"lng":117.397652},"polygon":[]},{"id":"120115500","name":"里自沽农场","pinyin":"lizigunongchang","location":{"lat":39.51461,"lng":117.352171},"polygon":[]},{"id":"120115502","name":"大钟农场","pinyin":"dazhongnongchang","location":{"lat":39.678661,"lng":117.555614},"polygon":[]}]