[{"id":"120104001","name":"长虹街道","pinyin":"changhongjiedao","location":{"lat":39.139446,"lng":117.148883},"polygon":[]},{"id":"120104002","name":"鼓楼街道","pinyin":"guloujiedao","location":{"lat":39.140686,"lng":117.183176},"polygon":[]},{"id":"120104003","name":"兴南街道","pinyin":"xingnanjiedao","location":{"lat":39.129434,"lng":117.17506},"polygon":[]},{"id":"120104004","name":"广开街道","pinyin":"guangkaijiedao","location":{"lat":39.133705,"lng":117.164529},"polygon":[]},{"id":"120104005","name":"万兴街道","pinyin":"wanxingjiedao","location":{"lat":39.122504,"lng":117.163306},"polygon":[]},{"id":"120104006","name":"学府街道","pinyin":"xuefujiedao","location":{"lat":39.107996,"lng":117.164464},"polygon":[]},{"id":"120104007","name":"向阳路街道","pinyin":"xiangyanglujiedao","location":{"lat":39.140255,"lng":117.128783},"polygon":[]},{"id":"120104008","name":"嘉陵道街道","pinyin":"jialingdaojiedao","location":{"lat":39.124821,"lng":117.135119},"polygon":[]},{"id":"120104009","name":"王顶堤街道","pinyin":"wangdingdijiedao","location":{"lat":39.097325,"lng":117.141617},"polygon":[]},{"id":"120104010","name":"水上公园街道","pinyin":"shuishanggongyuanjiedao","location":{"lat":39.090251,"lng":117.164551},"polygon":[]},{"id":"120104011","name":"体育中心街道","pinyin":"tiyuzhongxinjiedao","location":{"lat":39.07521,"lng":117.166755},"polygon":[]},{"id":"120104012","name":"华苑街道","pinyin":"huayuanjiedao","location":{"lat":39.082826,"lng":117.134539},"polygon":[]}]