[{"id":"120105001","name":"光复道街道","pinyin":"guangfudaojiedao","location":{"latitude":39.142026,"longitude":117.199241},"polygon":[]},{"id":"120105002","name":"望海楼街道","pinyin":"wanghailoujiedao","location":{"latitude":39.156388,"longitude":117.206024},"polygon":[]},{"id":"120105003","name":"鸿顺里街道","pinyin":"hongshunlijiedao","location":{"latitude":39.161659,"longitude":117.194835},"polygon":[]},{"id":"120105004","name":"新开河街道","pinyin":"xinkaihejiedao","location":{"latitude":39.175551,"longitude":117.185679},"polygon":[]},{"id":"120105005","name":"铁东路街道","pinyin":"tiedonglujiedao","location":{"latitude":39.180938,"longitude":117.204721},"polygon":[]},{"id":"120105006","name":"建昌道街道","pinyin":"jianchangdaojiedao","location":{"latitude":39.178779,"longitude":117.232296},"polygon":[]},{"id":"120105007","name":"宁园街道","pinyin":"ningyuanjiedao","location":{"latitude":39.164598,"longitude":117.220818},"polygon":[]},{"id":"120105008","name":"王串场街道","pinyin":"wangchuanchangjiedao","location":{"latitude":39.154658,"longitude":117.225938},"polygon":[]},{"id":"120105009","name":"江都路街道","pinyin":"jiangdulujiedao","location":{"latitude":39.158759,"longitude":117.241606},"polygon":[]},{"id":"120105010","name":"月牙河街道","pinyin":"yueyahejiedao","location":{"latitude":39.164817,"longitude":117.250381},"polygon":[]}]