[{"id":"120117001","name":"芦台街道","pinyin":"lutaijiedao","location":{"lat":39.320305,"lng":117.788727},"polygon":[]},{"id":"120117002","name":"桥北街道","pinyin":"qiaobeijiedao","location":{"lat":39.320305,"lng":117.788727},"polygon":[]},{"id":"120117101","name":"宁河镇","pinyin":"ninghezhen","location":{"lat":39.48897,"lng":117.712705},"polygon":[]},{"id":"120117102","name":"苗庄镇","pinyin":"miaozhuangzhen","location":{"lat":39.488295,"lng":117.707434},"polygon":[]},{"id":"120117103","name":"丰台镇","pinyin":"fengtaizhen","location":{"lat":39.424412,"lng":117.843762},"polygon":[]},{"id":"120117104","name":"岳龙镇","pinyin":"yuelongzhen","location":{"lat":39.540686,"lng":117.787353},"polygon":[]},{"id":"120117105","name":"板桥镇","pinyin":"banqiaozhen","location":{"lat":39.542951,"lng":117.87409},"polygon":[]},{"id":"120117106","name":"潘庄镇","pinyin":"panzhuangzhen","location":{"lat":39.488458,"lng":117.841589},"polygon":[]},{"id":"120117107","name":"造甲城镇","pinyin":"zaojiachengzhen","location":{"lat":39.328694,"lng":117.429226},"polygon":[]},{"id":"120117108","name":"七里海镇","pinyin":"qilihaizhen","location":{"lat":39.248219,"lng":117.6805},"polygon":[]},{"id":"120117109","name":"大北涧沽镇","pinyin":"dabeijianguzhen","location":{"lat":39.253119,"lng":117.463179},"polygon":[]},{"id":"120117110","name":"东棘坨镇","pinyin":"dongjituozhen","location":{"lat":39.290113,"lng":117.659357},"polygon":[]},{"id":"120117111","name":"俵口镇","pinyin":"biaokouzhen","location":{"lat":39.334609,"lng":117.706767},"polygon":[]},{"id":"120117112","name":"廉庄镇","pinyin":"lianzhuangzhen","location":{"lat":39.437452,"lng":117.58608},"polygon":[]},{"id":"120117113","name":"北淮淀镇","pinyin":"beihuaidianzhen","location":{"lat":39.234208,"lng":117.5714},"polygon":[]},{"id":"120117400","name":"宁河区贸易开发区","pinyin":"ninghequmaoyikaifaqu","location":{"lat":39.348608,"lng":117.811589},"polygon":[]},{"id":"120117401","name":"宁河区经济开发区","pinyin":"ninghequjingjikaifaqu","location":{"lat":39.302467,"lng":117.804796},"polygon":[]},{"id":"120117451","name":"宁河县现代产业园区","pinyin":"ninghexianxiandaichanyeyuanqu","location":{"lat":39.241756,"lng":117.430779},"polygon":[]},{"id":"120117452","name":"天津潘庄工业区","pinyin":"tianjinpanzhuanggongyequ","location":{"lat":39.294994,"lng":117.39934},"polygon":[]},{"id":"120117500","name":"潘庄农场","pinyin":"panzhuangnongchang","location":{"lat":39.309904,"lng":117.419304},"polygon":[]}]