[{"id":"120118100","name":"静海镇","pinyin":"jinghaizhen","location":{"latitude":38.934701,"longitude":116.942281},"polygon":[]},{"id":"120118101","name":"唐官屯镇","pinyin":"tangguantunzhen","location":{"latitude":38.721997,"longitude":116.972986},"polygon":[]},{"id":"120118102","name":"独流镇","pinyin":"duliuzhen","location":{"latitude":39.018247,"longitude":116.882508},"polygon":[]},{"id":"120118103","name":"王口镇","pinyin":"wangkouzhen","location":{"latitude":38.943095,"longitude":116.766934},"polygon":[]},{"id":"120118104","name":"台头镇","pinyin":"taitouzhen","location":{"latitude":39.011609,"longitude":116.795171},"polygon":[]},{"id":"120118105","name":"子牙镇","pinyin":"ziyazhen","location":{"latitude":38.851176,"longitude":116.791573},"polygon":[]},{"id":"120118106","name":"陈官屯镇","pinyin":"chenguantunzhen","location":{"latitude":38.798415,"longitude":116.921406},"polygon":[]},{"id":"120118107","name":"中旺镇","pinyin":"zhongwangzhen","location":{"latitude":38.660804,"longitude":117.109164},"polygon":[]},{"id":"120118108","name":"大邱庄镇","pinyin":"daqiuzhuangzhen","location":{"latitude":38.821928,"longitude":117.084239},"polygon":[]},{"id":"120118109","name":"蔡公庄镇","pinyin":"caigongzhuangzhen","location":{"latitude":38.772068,"longitude":117.099881},"polygon":[]},{"id":"120118110","name":"梁头镇","pinyin":"liangtouzhen","location":{"latitude":38.923559,"longitude":116.842567},"polygon":[]},{"id":"120118111","name":"团泊镇","pinyin":"tuanbozhen","location":{"latitude":38.867588,"longitude":117.140109},"polygon":[]},{"id":"120118112","name":"双塘镇","pinyin":"shuangtangzhen","location":{"latitude":38.869557,"longitude":116.930202},"polygon":[]},{"id":"120118113","name":"大丰堆镇","pinyin":"dafengduizhen","location":{"latitude":38.885464,"longitude":117.003964},"polygon":[]},{"id":"120118114","name":"沿庄镇","pinyin":"yanzhuangzhen","location":{"latitude":38.79608,"longitude":116.808808},"polygon":[]},{"id":"120118115","name":"西翟庄镇","pinyin":"xidizhuangzhen","location":{"latitude":38.788964,"longitude":117.017325},"polygon":[]},{"id":"120118200","name":"良王庄乡","pinyin":"liangwangzhuangxiang","location":{"latitude":39.0122,"longitude":116.988126},"polygon":[]},{"id":"120118201","name":"杨成庄乡","pinyin":"yangchengzhuangxiang","location":{"latitude":38.942747,"longitude":117.054011},"polygon":[]},{"id":"120118400","name":"天津静海经济开发区","pinyin":"tianjinjinghaijingjikaifaqu","location":{"latitude":38.973703,"longitude":117.02168},"polygon":[]},{"id":"120118402","name":"天津子牙工业园区","pinyin":"tianjinziyagongyeyuanqu","location":{"latitude":38.864112,"longitude":116.806014},"polygon":[]},{"id":"120118403","name":"团泊新城","pinyin":"tuanboxincheng","location":{"latitude":38.921724,"longitude":117.132371},"polygon":[]}]