[{"id":"120111001","name":"西营门街道","pinyin":"xiyingmenjiedao","location":{"latitude":39.151684,"longitude":117.100143},"polygon":[]},{"id":"120111002","name":"李七庄街道","pinyin":"liqizhuangjiedao","location":{"latitude":39.057008,"longitude":117.173139},"polygon":[]},{"id":"120111005","name":"津门湖街道","pinyin":"jinmenhujiedao","location":{"latitude":39.052887,"longitude":117.205561},"polygon":[]},{"id":"120111100","name":"中北镇","pinyin":"zhongbeizhen","location":{"latitude":39.116094,"longitude":117.079553},"polygon":[]},{"id":"120111101","name":"杨柳青镇","pinyin":"yangliuqingzhen","location":{"latitude":39.129737,"longitude":116.979722},"polygon":[]},{"id":"120111102","name":"辛口镇","pinyin":"xinkouzhen","location":{"latitude":39.076053,"longitude":116.942705},"polygon":[]},{"id":"120111103","name":"张家窝镇","pinyin":"zhangjiawozhen","location":{"latitude":39.056469,"longitude":117.042307},"polygon":[]},{"id":"120111104","name":"精武镇","pinyin":"jingwuzhen","location":{"latitude":39.028185,"longitude":117.106726},"polygon":[]},{"id":"120111105","name":"大寺镇","pinyin":"dasizhen","location":{"latitude":38.987531,"longitude":117.223766},"polygon":[]},{"id":"120111106","name":"王稳庄镇","pinyin":"wangwenzhuangzhen","location":{"latitude":38.89324,"longitude":117.247993},"polygon":[]},{"id":"120111400","name":"开发区西青微电子小区","pinyin":"kaifaquxiqingweidianzixiaoqu","location":{"latitude":38.999398,"longitude":117.240386},"polygon":[]},{"id":"120111401","name":"新技术产业园区","pinyin":"xinjishuchanyeyuanqu","location":{"latitude":39.091526,"longitude":117.12584},"polygon":[]},{"id":"120111450","name":"西青区开发区","pinyin":"xiqingqukaifaqu","location":{"latitude":38.978417,"longitude":117.256588},"polygon":[]}]