[{"id":"310117001","name":"岳阳街道","pinyin":"yueyangjiedao","location":{"lat":31.010771,"lng":121.229024},"polygon":[]},{"id":"310117002","name":"永丰街道","pinyin":"yongfengjiedao","location":{"lat":30.990024,"lng":121.220268},"polygon":[]},{"id":"310117003","name":"方松街道","pinyin":"fangsongjiedao","location":{"lat":31.04443,"lng":121.206015},"polygon":[]},{"id":"310117004","name":"中山街道","pinyin":"zhongshanjiedao","location":{"lat":31.036164,"lng":121.274608},"polygon":[]},{"id":"310117005","name":"广富林街道","pinyin":"guangfulinjiedao","location":{"lat":31.055089,"lng":121.204944},"polygon":[]},{"id":"310117006","name":"九里亭街道","pinyin":"jiulitingjiedao","location":{"lat":31.147008,"lng":121.311686},"polygon":[]},{"id":"310117102","name":"泗泾镇","pinyin":"sijingzhen","location":{"lat":31.111473,"lng":121.261638},"polygon":[]},{"id":"310117103","name":"佘山镇","pinyin":"sheshanzhen","location":{"lat":31.095261,"lng":121.191955},"polygon":[]},{"id":"310117104","name":"车墩镇","pinyin":"chedunzhen","location":{"lat":31.000065,"lng":121.293839},"polygon":[]},{"id":"310117105","name":"新桥镇","pinyin":"xinqiaozhen","location":{"lat":31.069368,"lng":121.322274},"polygon":[]},{"id":"310117106","name":"洞泾镇","pinyin":"dongjingzhen","location":{"lat":31.086252,"lng":121.264059},"polygon":[]},{"id":"310117107","name":"九亭镇","pinyin":"jiutingzhen","location":{"lat":31.132086,"lng":121.329106},"polygon":[]},{"id":"310117109","name":"泖港镇","pinyin":"maogangzhen","location":{"lat":30.932127,"lng":121.1761},"polygon":[]},{"id":"310117116","name":"石湖荡镇","pinyin":"shihudangzhen","location":{"lat":30.977881,"lng":121.153905},"polygon":[]},{"id":"310117117","name":"新浜镇","pinyin":"xinbangzhen","location":{"lat":30.934834,"lng":121.069523},"polygon":[]},{"id":"310117120","name":"叶榭镇","pinyin":"yexiezhen","location":{"lat":30.937837,"lng":121.304763},"polygon":[]},{"id":"310117121","name":"小昆山镇","pinyin":"xiaokunshanzhen","location":{"lat":31.026637,"lng":121.137047},"polygon":[]},{"id":"310117501","name":"松江工业区","pinyin":"songjianggongyequ","location":{"lat":31.023627,"lng":121.159646},"polygon":[]}]