[{"id":"310110001","name":"定海路街道","pinyin":"dinghailujiedao","location":{"lat":31.281435,"lng":121.557656},"polygon":[]},{"id":"310110006","name":"平凉路街道","pinyin":"pinglianglujiedao","location":{"lat":31.256301,"lng":121.525205},"polygon":[]},{"id":"310110008","name":"江浦路街道","pinyin":"jiangpulujiedao","location":{"lat":31.2667,"lng":121.516879},"polygon":[]},{"id":"310110009","name":"四平路街道","pinyin":"sipinglujiedao","location":{"lat":31.280112,"lng":121.505985},"polygon":[]},{"id":"310110012","name":"控江路街道","pinyin":"kongjianglujiedao","location":{"lat":31.279833,"lng":121.524853},"polygon":[]},{"id":"310110013","name":"长白新村街道","pinyin":"changbaixincunjiedao","location":{"lat":31.292299,"lng":121.549035},"polygon":[]},{"id":"310110015","name":"延吉新村街道","pinyin":"yanjixincunjiedao","location":{"lat":31.285264,"lng":121.53574},"polygon":[]},{"id":"310110016","name":"殷行街道","pinyin":"yinhangjiedao","location":{"lat":31.327679,"lng":121.543572},"polygon":[]},{"id":"310110018","name":"大桥街道","pinyin":"daqiaojiedao","location":{"lat":31.263862,"lng":121.540534},"polygon":[]},{"id":"310110019","name":"五角场街道","pinyin":"wujiaochangjiedao","location":{"lat":31.298262,"lng":121.506645},"polygon":[]},{"id":"310110020","name":"新江湾城街道","pinyin":"xinjiangwanchengjiedao","location":{"lat":31.327238,"lng":121.512275},"polygon":[]},{"id":"310110021","name":"长海路街道","pinyin":"changhailujiedao","location":{"lat":31.306862,"lng":121.541417},"polygon":[]}]