[{"id":"310114001","name":"新成路街道","pinyin":"xinchenglujiedao","location":{"latitude":31.384674,"longitude":121.268477},"polygon":[]},{"id":"310114002","name":"真新街道","pinyin":"zhenxinjiedao","location":{"latitude":31.24859,"longitude":121.362752},"polygon":[]},{"id":"310114003","name":"菊园街道","pinyin":"juyuanjiedao","location":{"latitude":31.374256,"longitude":121.218611},"polygon":[]},{"id":"310114004","name":"嘉定镇街道","pinyin":"jiadingzhenjiedao","location":{"latitude":31.380891,"longitude":121.249555},"polygon":[]},{"id":"310114102","name":"南翔镇","pinyin":"nanxiangzhen","location":{"latitude":31.305969,"longitude":121.300316},"polygon":[]},{"id":"310114103","name":"安亭镇","pinyin":"antingzhen","location":{"latitude":31.297823,"longitude":121.19983},"polygon":[]},{"id":"310114106","name":"马陆镇","pinyin":"maluzhen","location":{"latitude":31.357895,"longitude":121.299296},"polygon":[]},{"id":"310114109","name":"徐行镇","pinyin":"xuhangzhen","location":{"latitude":31.42468,"longitude":121.245556},"polygon":[]},{"id":"310114111","name":"华亭镇","pinyin":"huatingzhen","location":{"latitude":31.464808,"longitude":121.2672},"polygon":[]},{"id":"310114114","name":"外冈镇","pinyin":"waigangzhen","location":{"latitude":31.362463,"longitude":121.150176},"polygon":[]},{"id":"310114118","name":"江桥镇","pinyin":"jiangqiaozhen","location":{"latitude":31.259965,"longitude":121.306079},"polygon":[]}]