[{"id":"310109009","name":"欧阳路街道","pinyin":"ouyanglujiedao","location":{"latitude":31.271266,"longitude":121.489734},"polygon":[]},{"id":"310109010","name":"曲阳路街道","pinyin":"quyanglujiedao","location":{"latitude":31.28543,"longitude":121.489166},"polygon":[]},{"id":"310109011","name":"广中路街道","pinyin":"guangzhonglujiedao","location":{"latitude":31.274671,"longitude":121.472478},"polygon":[]},{"id":"310109014","name":"嘉兴路街道","pinyin":"jiaxinglujiedao","location":{"latitude":31.264047,"longitude":121.498399},"polygon":[]},{"id":"310109016","name":"凉城新村街道","pinyin":"liangchengxincunjiedao","location":{"latitude":31.28962,"longitude":121.468633},"polygon":[]},{"id":"310109017","name":"四川北路街道","pinyin":"sichuanbeilujiedao","location":{"latitude":31.25527,"longitude":121.484477},"polygon":[]},{"id":"310109018","name":"北外滩街道","pinyin":"beiwaitanjiedao","location":{"latitude":31.250973,"longitude":121.503494},"polygon":[]},{"id":"310109019","name":"江湾镇街道","pinyin":"jiangwanzhenjiedao","location":{"latitude":31.302997,"longitude":121.475008},"polygon":[]}]