[{"id":"310105001","name":"华阳路街道","pinyin":"huayanglujiedao","location":{"lat":31.218989,"lng":121.419402},"polygon":[]},{"id":"310105002","name":"江苏路街道","pinyin":"jiangsulujiedao","location":{"lat":31.218506,"lng":121.430481},"polygon":[]},{"id":"310105004","name":"新华路街道","pinyin":"xinhualujiedao","location":{"lat":31.204674,"lng":121.427471},"polygon":[]},{"id":"310105005","name":"周家桥街道","pinyin":"zhoujiaqiaojiedao","location":{"lat":31.217612,"lng":121.401623},"polygon":[]},{"id":"310105006","name":"天山路街道","pinyin":"tianshanlujiedao","location":{"lat":31.208044,"lng":121.40878},"polygon":[]},{"id":"310105008","name":"仙霞新村街道","pinyin":"xianxiaxincunjiedao","location":{"lat":31.206014,"lng":121.391866},"polygon":[]},{"id":"310105009","name":"虹桥街道","pinyin":"hongqiaojiedao","location":{"lat":31.198606,"lng":121.404622},"polygon":[]},{"id":"310105010","name":"程家桥街道","pinyin":"chengjiaqiaojiedao","location":{"lat":31.194663,"lng":121.368498},"polygon":[]},{"id":"310105011","name":"北新泾街道","pinyin":"beixinjingjiedao","location":{"lat":31.219323,"lng":121.370731},"polygon":[]},{"id":"310105102","name":"新泾镇","pinyin":"xinjingzhen","location":{"lat":31.216989,"lng":121.351297},"polygon":[]}]