[{"id":"310115004","name":"潍坊新村街道","pinyin":"weifangxincunjiedao","location":{"latitude":31.223318,"longitude":121.522166},"polygon":[]},{"id":"310115005","name":"陆家嘴街道","pinyin":"lujiazuijiedao","location":{"latitude":31.235299,"longitude":121.513388},"polygon":[]},{"id":"310115007","name":"周家渡街道","pinyin":"zhoujiadujiedao","location":{"latitude":31.181469,"longitude":121.506938},"polygon":[]},{"id":"310115008","name":"塘桥街道","pinyin":"tangqiaojiedao","location":{"latitude":31.209213,"longitude":121.520753},"polygon":[]},{"id":"310115009","name":"上钢新村街道","pinyin":"shanggangxincunjiedao","location":{"latitude":31.176639,"longitude":121.480395},"polygon":[]},{"id":"310115010","name":"南码头路街道","pinyin":"nanmatoulujiedao","location":{"latitude":31.193074,"longitude":121.514471},"polygon":[]},{"id":"310115011","name":"沪东新村街道","pinyin":"hudongxincunjiedao","location":{"latitude":31.271875,"longitude":121.577207},"polygon":[]},{"id":"310115012","name":"金杨新村街道","pinyin":"jinyangxincunjiedao","location":{"latitude":31.253571,"longitude":121.568075},"polygon":[]},{"id":"310115013","name":"洋泾街道","pinyin":"yangjingjiedao","location":{"latitude":31.238879,"longitude":121.548035},"polygon":[]},{"id":"310115014","name":"浦兴路街道","pinyin":"puxinglujiedao","location":{"latitude":31.272072,"longitude":121.577344},"polygon":[]},{"id":"310115015","name":"东明路街道","pinyin":"dongminglujiedao","location":{"latitude":31.144794,"longitude":121.511772},"polygon":[]},{"id":"310115016","name":"花木街道","pinyin":"huamujiedao","location":{"latitude":31.212709,"longitude":121.557096},"polygon":[]},{"id":"310115103","name":"川沙新镇","pinyin":"chuanshaxinzhen","location":{"latitude":31.155037,"longitude":121.739217},"polygon":[]},{"id":"310115104","name":"高桥镇","pinyin":"gaoqiaozhen","location":{"latitude":31.359744,"longitude":121.551722},"polygon":[]},{"id":"310115105","name":"北蔡镇","pinyin":"beicaizhen","location":{"latitude":31.172446,"longitude":121.555677},"polygon":[]},{"id":"310115110","name":"合庆镇","pinyin":"heqingzhen","location":{"latitude":31.23427,"longitude":121.727009},"polygon":[]},{"id":"310115114","name":"唐镇","pinyin":"tangzhen","location":{"latitude":31.225136,"longitude":121.662068},"polygon":[]},{"id":"310115117","name":"曹路镇","pinyin":"caoluzhen","location":{"latitude":31.280885,"longitude":121.678413},"polygon":[]},{"id":"310115120","name":"金桥镇","pinyin":"jinqiaozhen","location":{"latitude":31.250758,"longitude":121.619214},"polygon":[]},{"id":"310115121","name":"高行镇","pinyin":"gaohangzhen","location":{"latitude":31.305227,"longitude":121.582037},"polygon":[]},{"id":"310115123","name":"高东镇","pinyin":"gaodongzhen","location":{"latitude":31.325685,"longitude":121.637882},"polygon":[]},{"id":"310115125","name":"张江镇","pinyin":"zhangjiangzhen","location":{"latitude":31.189999,"longitude":121.628454},"polygon":[]},{"id":"310115130","name":"三林镇","pinyin":"sanlinzhen","location":{"latitude":31.139516,"longitude":121.477764},"polygon":[]},{"id":"310115131","name":"惠南镇","pinyin":"huinanzhen","location":{"latitude":31.037176,"longitude":121.764965},"polygon":[]},{"id":"310115132","name":"周浦镇","pinyin":"zhoupuzhen","location":{"latitude":31.109226,"longitude":121.619767},"polygon":[]},{"id":"310115133","name":"新场镇","pinyin":"xinchangzhen","location":{"latitude":31.040421,"longitude":121.647056},"polygon":[]},{"id":"310115134","name":"大团镇","pinyin":"datuanzhen","location":{"latitude":30.975649,"longitude":121.756711},"polygon":[]},{"id":"310115136","name":"康桥镇","pinyin":"kangqiaozhen","location":{"latitude":31.136031,"longitude":121.616857},"polygon":[]},{"id":"310115137","name":"航头镇","pinyin":"hangtouzhen","location":{"latitude":31.040952,"longitude":121.593751},"polygon":[]},{"id":"310115139","name":"祝桥镇","pinyin":"zhuqiaozhen","location":{"latitude":31.078745,"longitude":121.828041},"polygon":[]},{"id":"310115140","name":"泥城镇","pinyin":"nichengzhen","location":{"latitude":30.907879,"longitude":121.82874},"polygon":[]},{"id":"310115141","name":"宣桥镇","pinyin":"xuanqiaozhen","location":{"latitude":31.038281,"longitude":121.696577},"polygon":[]},{"id":"310115142","name":"书院镇","pinyin":"shuyuanzhen","location":{"latitude":30.934943,"longitude":121.877015},"polygon":[]},{"id":"310115143","name":"万祥镇","pinyin":"wanxiangzhen","location":{"latitude":30.960903,"longitude":121.819165},"polygon":[]},{"id":"310115144","name":"老港镇","pinyin":"laogangzhen","location":{"latitude":30.963191,"longitude":121.932824},"polygon":[]},{"id":"310115145","name":"南汇新城镇","pinyin":"nanhuixinchengzhen","location":{"latitude":30.920555,"longitude":121.935182},"polygon":[]}]