[{"id":"310104003","name":"天平路街道","pinyin":"tianpinglujiedao","location":{"latitude":31.205312,"longitude":121.451235},"polygon":[]},{"id":"310104004","name":"湖南路街道","pinyin":"hunanlujiedao","location":{"latitude":31.212054,"longitude":121.447296},"polygon":[]},{"id":"310104007","name":"斜土路街道","pinyin":"xietulujiedao","location":{"latitude":31.19262,"longitude":121.465683},"polygon":[]},{"id":"310104008","name":"枫林路街道","pinyin":"fenglinlujiedao","location":{"latitude":31.188319,"longitude":121.454019},"polygon":[]},{"id":"310104010","name":"长桥街道","pinyin":"changqiaojiedao","location":{"latitude":31.140947,"longitude":121.4443},"polygon":[]},{"id":"310104011","name":"田林街道","pinyin":"tianlinjiedao","location":{"latitude":31.180072,"longitude":121.424623},"polygon":[]},{"id":"310104012","name":"虹梅路街道","pinyin":"hongmeilujiedao","location":{"latitude":31.164452,"longitude":121.411285},"polygon":[]},{"id":"310104013","name":"康健新村街道","pinyin":"kangjianxincunjiedao","location":{"latitude":31.155907,"longitude":121.422968},"polygon":[]},{"id":"310104014","name":"徐家汇街道","pinyin":"xujiahuijiedao","location":{"latitude":31.190245,"longitude":121.436055},"polygon":[]},{"id":"310104015","name":"凌云路街道","pinyin":"lingyunlujiedao","location":{"latitude":31.138691,"longitude":121.41435},"polygon":[]},{"id":"310104016","name":"龙华街道","pinyin":"longhuajiedao","location":{"latitude":31.165115,"longitude":121.457193},"polygon":[]},{"id":"310104017","name":"漕河泾街道","pinyin":"caohejingjiedao","location":{"latitude":31.163673,"longitude":121.435918},"polygon":[]},{"id":"310104103","name":"华泾镇","pinyin":"huajingzhen","location":{"latitude":31.117229,"longitude":121.45309},"polygon":[]}]