[{"id":"310106006","name":"江宁路街道","pinyin":"jiangninglujiedao","location":{"lat":31.235855,"lng":121.448203},"polygon":[]},{"id":"310106011","name":"石门二路街道","pinyin":"shimenerlujiedao","location":{"lat":31.23542,"lng":121.461273},"polygon":[]},{"id":"310106012","name":"南京西路街道","pinyin":"nanjingxilujiedao","location":{"lat":31.223768,"lng":121.45285},"polygon":[]},{"id":"310106013","name":"静安寺街道","pinyin":"jingansijiedao","location":{"lat":31.221394,"lng":121.442942},"polygon":[]},{"id":"310106014","name":"曹家渡街道","pinyin":"caojiadujiedao","location":{"lat":31.230229,"lng":121.434701},"polygon":[]},{"id":"310106015","name":"天目西路街道","pinyin":"tianmuxilujiedao","location":{"lat":31.248417,"lng":121.454911},"polygon":[]},{"id":"310106016","name":"北站街道","pinyin":"beizhanjiedao","location":{"lat":31.246023,"lng":121.471932},"polygon":[]},{"id":"310106017","name":"宝山路街道","pinyin":"baoshanlujiedao","location":{"lat":31.257745,"lng":121.473785},"polygon":[]},{"id":"310106018","name":"共和新路街道","pinyin":"gonghexinlujiedao","location":{"lat":31.266496,"lng":121.457144},"polygon":[]},{"id":"310106019","name":"大宁路街道","pinyin":"daninglujiedao","location":{"lat":31.28422,"lng":121.451545},"polygon":[]},{"id":"310106020","name":"彭浦新村街道","pinyin":"pengpuxincunjiedao","location":{"lat":31.310667,"lng":121.444716},"polygon":[]},{"id":"310106021","name":"临汾路街道","pinyin":"linfenlujiedao","location":{"lat":31.313241,"lng":121.461878},"polygon":[]},{"id":"310106022","name":"芷江西路街道","pinyin":"zhijiangxilujiedao","location":{"lat":31.25426,"lng":121.462858},"polygon":[]},{"id":"310106100","name":"彭浦镇","pinyin":"pengpuzhen","location":{"lat":31.290547,"lng":121.435378},"polygon":[]}]