[{"id":"429006001","name":"竟陵街道","pinyin":"jinglingjiedao","location":{"latitude":30.678096,"longitude":113.196058},"polygon":[]},{"id":"429006002","name":"侨乡街道","pinyin":"qiaoxiangjiedao","location":{"latitude":30.629393,"longitude":113.143035},"polygon":[]},{"id":"429006003","name":"杨林街道","pinyin":"yanglinjiedao","location":{"latitude":30.657953,"longitude":113.243002},"polygon":[]},{"id":"429006100","name":"多宝镇","pinyin":"duobaozhen","location":{"latitude":30.670679,"longitude":112.679356},"polygon":[]},{"id":"429006101","name":"拖市镇","pinyin":"tuoshizhen","location":{"latitude":30.734112,"longitude":112.803885},"polygon":[]},{"id":"429006102","name":"张港镇","pinyin":"zhanggangzhen","location":{"latitude":30.581783,"longitude":112.840035},"polygon":[]},{"id":"429006103","name":"蒋场镇","pinyin":"jiangchangzhen","location":{"latitude":30.586387,"longitude":112.95063},"polygon":[]},{"id":"429006104","name":"汪场镇","pinyin":"wangchangzhen","location":{"latitude":30.607466,"longitude":113.020056},"polygon":[]},{"id":"429006105","name":"渔薪镇","pinyin":"yuxinzhen","location":{"latitude":30.681692,"longitude":112.948399},"polygon":[]},{"id":"429006106","name":"黄潭镇","pinyin":"huangtanzhen","location":{"latitude":30.664856,"longitude":113.072647},"polygon":[]},{"id":"429006107","name":"岳口镇","pinyin":"yuekouzhen","location":{"latitude":30.542884,"longitude":113.087207},"polygon":[]},{"id":"429006108","name":"横林镇","pinyin":"henglinzhen","location":{"latitude":30.531596,"longitude":113.235739},"polygon":[]},{"id":"429006109","name":"彭市镇","pinyin":"pengshizhen","location":{"latitude":30.464399,"longitude":113.195556},"polygon":[]},{"id":"429006110","name":"麻洋镇","pinyin":"mayangzhen","location":{"latitude":30.472719,"longitude":113.302867},"polygon":[]},{"id":"429006111","name":"多祥镇","pinyin":"duoxiangzhen","location":{"latitude":30.446444,"longitude":113.389371},"polygon":[]},{"id":"429006112","name":"干驿镇","pinyin":"ganyizhen","location":{"latitude":30.567301,"longitude":113.399115},"polygon":[]},{"id":"429006113","name":"马湾镇","pinyin":"mawanzhen","location":{"latitude":30.584009,"longitude":113.317924},"polygon":[]},{"id":"429006114","name":"卢市镇","pinyin":"lushizhen","location":{"latitude":30.676373,"longitude":113.330334},"polygon":[]},{"id":"429006115","name":"小板镇","pinyin":"xiaobanzhen","location":{"latitude":30.59455,"longitude":113.213762},"polygon":[]},{"id":"429006116","name":"九真镇","pinyin":"jiuzhenzhen","location":{"latitude":30.769482,"longitude":113.262093},"polygon":[]},{"id":"429006118","name":"皂市镇","pinyin":"zaoshizhen","location":{"latitude":30.844325,"longitude":113.298336},"polygon":[]},{"id":"429006119","name":"胡市镇","pinyin":"hushizhen","location":{"latitude":30.784224,"longitude":113.389474},"polygon":[]},{"id":"429006120","name":"石家河镇","pinyin":"shijiahezhen","location":{"latitude":30.750819,"longitude":113.136461},"polygon":[]},{"id":"429006121","name":"佛子山镇","pinyin":"fozishanzhen","location":{"latitude":30.741541,"longitude":113.011025},"polygon":[]},{"id":"429006201","name":"净潭乡","pinyin":"jingtanxiang","location":{"latitude":30.658069,"longitude":113.395164},"polygon":[]},{"id":"429006452","name":"沉湖管委会","pinyin":"chenhuguanweihui","location":{"latitude":30.49508,"longitude":113.403637},"polygon":[]}]