[{"id":"429021100","name":"松柏镇","pinyin":"songbaizhen","location":{"latitude":31.771168,"longitude":110.581165},"polygon":[]},{"id":"429021101","name":"阳日镇","pinyin":"yangrizhen","location":{"latitude":31.723296,"longitude":110.820275},"polygon":[]},{"id":"429021102","name":"木鱼镇","pinyin":"muyuzhen","location":{"latitude":31.432246,"longitude":110.455063},"polygon":[]},{"id":"429021103","name":"红坪镇","pinyin":"hongpingzhen","location":{"latitude":31.626542,"longitude":110.364911},"polygon":[]},{"id":"429021104","name":"新华镇","pinyin":"xinhuazhen","location":{"latitude":31.582365,"longitude":110.84427},"polygon":[]},{"id":"429021105","name":"大九湖镇","pinyin":"dajiuhuzhen","location":{"latitude":31.506178,"longitude":110.101672},"polygon":[]},{"id":"429021201","name":"宋洛乡","pinyin":"songluoxiang","location":{"latitude":31.611046,"longitude":110.626866},"polygon":[]},{"id":"429021203","name":"下谷坪土家族乡","pinyin":"xiagupingtujiazuxiang","location":{"latitude":31.381675,"longitude":110.227896},"polygon":[]}]