[{"id":"429004001","name":"沙嘴街道","pinyin":"shazuijiedao","location":{"latitude":30.331176,"longitude":113.462654},"polygon":[]},{"id":"429004002","name":"干河街道","pinyin":"ganhejiedao","location":{"latitude":30.361085,"longitude":113.385419},"polygon":[]},{"id":"429004003","name":"龙华山街道","pinyin":"longhuashanjiedao","location":{"latitude":30.350286,"longitude":113.50544},"polygon":[]},{"id":"429004101","name":"郑场镇","pinyin":"zhengchangzhen","location":{"latitude":30.468287,"longitude":113.048443},"polygon":[]},{"id":"429004102","name":"毛嘴镇","pinyin":"maozuizhen","location":{"latitude":30.414336,"longitude":113.112869},"polygon":[]},{"id":"429004103","name":"剅河镇","pinyin":"louhezhen","location":{"latitude":30.328962,"longitude":113.095672},"polygon":[]},{"id":"429004104","name":"三伏潭镇","pinyin":"sanfutanzhen","location":{"latitude":30.369713,"longitude":113.198654},"polygon":[]},{"id":"429004105","name":"胡场镇","pinyin":"huchangzhen","location":{"latitude":30.35999,"longitude":113.298724},"polygon":[]},{"id":"429004106","name":"长埫口镇","pinyin":"changchongkouzhen","location":{"latitude":30.417051,"longitude":113.656628},"polygon":[]},{"id":"429004107","name":"西流河镇","pinyin":"xiliuhezhen","location":{"latitude":30.291264,"longitude":113.680148},"polygon":[]},{"id":"429004108","name":"沙湖镇","pinyin":"shahuzhen","location":{"latitude":30.186532,"longitude":113.668673},"polygon":[]},{"id":"429004109","name":"杨林尾镇","pinyin":"yanglinweizhen","location":{"latitude":30.149091,"longitude":113.555052},"polygon":[]},{"id":"429004110","name":"彭场镇","pinyin":"pengchangzhen","location":{"latitude":30.245268,"longitude":113.519786},"polygon":[]},{"id":"429004111","name":"张沟镇","pinyin":"zhanggouzhen","location":{"latitude":30.250686,"longitude":113.387237},"polygon":[]},{"id":"429004112","name":"郭河镇","pinyin":"guohezhen","location":{"latitude":30.225136,"longitude":113.292758},"polygon":[]},{"id":"429004113","name":"沔城回族镇","pinyin":"mianchenghuizuzhen","location":{"latitude":30.182467,"longitude":113.231648},"polygon":[]},{"id":"429004114","name":"通海口镇","pinyin":"tonghaikouzhen","location":{"latitude":30.210531,"longitude":113.19449},"polygon":[]},{"id":"429004115","name":"陈场镇","pinyin":"chenchangzhen","location":{"latitude":30.217798,"longitude":113.087213},"polygon":[]},{"id":"429004400","name":"工业园区","pinyin":"gongyeyuanqu","location":{"latitude":30.320385,"longitude":113.421371},"polygon":[]},{"id":"429004408","name":"排湖风景区","pinyin":"paihufengjingqu","location":{"latitude":30.278501,"longitude":113.237389},"polygon":[]}]