[{"id":"469024100","name":"临城镇","pinyin":"linchengzhen","location":{"lat":19.881686,"lng":109.692302},"polygon":[]},{"id":"469024101","name":"波莲镇","pinyin":"bolianzhen","location":{"lat":19.839801,"lng":109.619604},"polygon":[]},{"id":"469024102","name":"东英镇","pinyin":"dongyingzhen","location":{"lat":19.956449,"lng":109.639352},"polygon":[]},{"id":"469024103","name":"博厚镇","pinyin":"bohouzhen","location":{"lat":19.901941,"lng":109.771618},"polygon":[]},{"id":"469024104","name":"皇桐镇","pinyin":"huangtongzhen","location":{"lat":19.804562,"lng":109.843712},"polygon":[]},{"id":"469024105","name":"多文镇","pinyin":"duowenzhen","location":{"lat":19.720925,"lng":109.786633},"polygon":[]},{"id":"469024106","name":"和舍镇","pinyin":"heshezhen","location":{"lat":19.632103,"lng":109.733217},"polygon":[]},{"id":"469024107","name":"南宝镇","pinyin":"nanbaozhen","location":{"lat":19.693406,"lng":109.598899},"polygon":[]},{"id":"469024108","name":"新盈镇","pinyin":"xinyingzhen","location":{"lat":19.862673,"lng":109.591634},"polygon":[]},{"id":"469024109","name":"调楼镇","pinyin":"tiaolouzhen","location":{"lat":19.931105,"lng":109.577909},"polygon":[]},{"id":"469024401","name":"国营加来农场","pinyin":"guoyingjialainongchang","location":{"lat":19.704533,"lng":109.686153},"polygon":[]}]