[{"id":"469028100","name":"椰林镇","pinyin":"yelinzhen","location":{"lat":18.50067,"lng":110.052852},"polygon":[]},{"id":"469028101","name":"光坡镇","pinyin":"guangpozhen","location":{"lat":18.569954,"lng":110.09128},"polygon":[]},{"id":"469028102","name":"三才镇","pinyin":"sancaizhen","location":{"lat":18.484865,"lng":109.985141},"polygon":[]},{"id":"469028103","name":"英州镇","pinyin":"yingzhouzhen","location":{"lat":18.446571,"lng":109.862013},"polygon":[]},{"id":"469028104","name":"隆广镇","pinyin":"longguangzhen","location":{"lat":18.506891,"lng":109.879136},"polygon":[]},{"id":"469028105","name":"文罗镇","pinyin":"wenluozhen","location":{"lat":18.52287,"lng":109.945602},"polygon":[]},{"id":"469028106","name":"本号镇","pinyin":"benhaozhen","location":{"lat":18.684432,"lng":109.924443},"polygon":[]},{"id":"469028107","name":"新村镇","pinyin":"xincunzhen","location":{"lat":18.433659,"lng":109.949779},"polygon":[]},{"id":"469028108","name":"黎安镇","pinyin":"lianzhen","location":{"lat":18.424451,"lng":110.035575},"polygon":[]},{"id":"469028200","name":"提蒙乡","pinyin":"timengxiang","location":{"lat":18.599077,"lng":110.012643},"polygon":[]},{"id":"469028201","name":"群英乡","pinyin":"qunyingxiang","location":{"lat":18.597909,"lng":109.840719},"polygon":[]}]