[{"id":"469027100","name":"抱由镇","pinyin":"baoyouzhen","location":{"latitude":18.776575,"longitude":109.138184},"polygon":[]},{"id":"469027101","name":"万冲镇","pinyin":"wanchongzhen","location":{"latitude":18.830231,"longitude":109.289934},"polygon":[]},{"id":"469027102","name":"大安镇","pinyin":"daanzhen","location":{"latitude":18.670187,"longitude":109.207252},"polygon":[]},{"id":"469027103","name":"志仲镇","pinyin":"zhizhongzhen","location":{"latitude":18.623019,"longitude":109.316532},"polygon":[]},{"id":"469027104","name":"千家镇","pinyin":"qianjiazhen","location":{"latitude":18.569984,"longitude":109.091955},"polygon":[]},{"id":"469027105","name":"九所镇","pinyin":"jiusuozhen","location":{"latitude":18.468315,"longitude":108.98456},"polygon":[]},{"id":"469027106","name":"利国镇","pinyin":"liguozhen","location":{"latitude":18.550721,"longitude":108.919708},"polygon":[]},{"id":"469027107","name":"黄流镇","pinyin":"huangliuzhen","location":{"latitude":18.550282,"longitude":108.806885},"polygon":[]},{"id":"469027108","name":"佛罗镇","pinyin":"foluozhen","location":{"latitude":18.583142,"longitude":108.740253},"polygon":[]},{"id":"469027109","name":"尖峰镇","pinyin":"jianfengzhen","location":{"latitude":18.696608,"longitude":108.870584},"polygon":[]},{"id":"469027110","name":"莺歌海镇","pinyin":"yinggehaizhen","location":{"latitude":18.529724,"longitude":108.735185},"polygon":[]}]