[{"id":"469002100","name":"嘉积镇","pinyin":"jiajizhen","location":{"lat":19.2493,"lng":110.452142},"polygon":[]},{"id":"469002101","name":"万泉镇","pinyin":"wanquanzhen","location":{"lat":19.285984,"lng":110.3894},"polygon":[]},{"id":"469002102","name":"石壁镇","pinyin":"shibizhen","location":{"lat":19.176978,"lng":110.244544},"polygon":[]},{"id":"469002103","name":"中原镇","pinyin":"zhongyuanzhen","location":{"lat":19.134268,"lng":110.467803},"polygon":[]},{"id":"469002104","name":"博鳌镇","pinyin":"boaozhen","location":{"lat":19.150506,"lng":110.541466},"polygon":[]},{"id":"469002105","name":"阳江镇","pinyin":"yangjiangzhen","location":{"lat":19.082707,"lng":110.370613},"polygon":[]},{"id":"469002106","name":"龙江镇","pinyin":"longjiangzhen","location":{"lat":19.143865,"lng":110.312811},"polygon":[]},{"id":"469002107","name":"潭门镇","pinyin":"tanmenzhen","location":{"lat":19.251688,"lng":110.584083},"polygon":[]},{"id":"469002108","name":"塔洋镇","pinyin":"tayangzhen","location":{"lat":19.29506,"lng":110.512899},"polygon":[]},{"id":"469002109","name":"长坡镇","pinyin":"changpozhen","location":{"lat":19.368429,"lng":110.552771},"polygon":[]},{"id":"469002110","name":"大路镇","pinyin":"daluzhen","location":{"lat":19.389459,"lng":110.456362},"polygon":[]},{"id":"469002111","name":"会山镇","pinyin":"huishanzhen","location":{"lat":19.067889,"lng":110.219651},"polygon":[]}]