[{"id":"500114001","name":"城东街道","pinyin":"chengdongjiedao","location":{"lat":29.558017,"lng":108.76259},"polygon":[]},{"id":"500114002","name":"城南街道","pinyin":"chengnanjiedao","location":{"lat":29.468885,"lng":108.742574},"polygon":[]},{"id":"500114003","name":"城西街道","pinyin":"chengxijiedao","location":{"lat":29.523278,"lng":108.714525},"polygon":[]},{"id":"500114004","name":"正阳街道","pinyin":"zhengyangjiedao","location":{"lat":29.468779,"lng":108.802018},"polygon":[]},{"id":"500114005","name":"舟白街道","pinyin":"zhoubaijiedao","location":{"lat":29.527461,"lng":108.853818},"polygon":[]},{"id":"500114006","name":"冯家街道","pinyin":"fengjiajiedao","location":{"lat":29.378518,"lng":108.778015},"polygon":[]},{"id":"500114102","name":"小南海镇","pinyin":"xiaonanhaizhen","location":{"lat":29.638834,"lng":108.717467},"polygon":[]},{"id":"500114104","name":"邻鄂镇","pinyin":"linezhen","location":{"lat":29.423583,"lng":108.889041},"polygon":[]},{"id":"500114105","name":"阿蓬江镇","pinyin":"apengjiangzhen","location":{"lat":29.167546,"lng":108.744946},"polygon":[]},{"id":"500114106","name":"石会镇","pinyin":"shihuizhen","location":{"lat":29.567632,"lng":108.608227},"polygon":[]},{"id":"500114107","name":"黑溪镇","pinyin":"heixizhen","location":{"lat":29.627563,"lng":108.564927},"polygon":[]},{"id":"500114108","name":"黄溪镇","pinyin":"huangxizhen","location":{"lat":29.767026,"lng":108.582431},"polygon":[]},{"id":"500114109","name":"黎水镇","pinyin":"lishuizhen","location":{"lat":29.812981,"lng":108.616478},"polygon":[]},{"id":"500114110","name":"金溪镇","pinyin":"jinxizhen","location":{"lat":29.423815,"lng":108.668162},"polygon":[]},{"id":"500114111","name":"马喇镇","pinyin":"malazhen","location":{"lat":29.316364,"lng":108.857042},"polygon":[]},{"id":"500114112","name":"濯水镇","pinyin":"zhuoshuizhen","location":{"lat":29.302273,"lng":108.757849},"polygon":[]},{"id":"500114113","name":"石家镇","pinyin":"shijiazhen","location":{"lat":29.22867,"lng":108.614868},"polygon":[]},{"id":"500114114","name":"鹅池镇","pinyin":"echizhen","location":{"lat":29.143606,"lng":108.615342},"polygon":[]},{"id":"500114115","name":"中塘镇","pinyin":"zhongtangzhen","location":{"lat":29.604286,"lng":108.814638},"polygon":[]},{"id":"500114116","name":"沙坝镇","pinyin":"shabazhen","location":{"lat":29.493493,"lng":108.59159},"polygon":[]},{"id":"500114117","name":"白石镇","pinyin":"baishizhen","location":{"lat":29.690045,"lng":108.575113},"polygon":[]},{"id":"500114201","name":"蓬东乡","pinyin":"pengdongxiang","location":{"lat":29.379536,"lng":108.823231},"polygon":[]},{"id":"500114204","name":"杉岭乡","pinyin":"shanlingxiang","location":{"lat":29.72296,"lng":108.633111},"polygon":[]},{"id":"500114205","name":"太极乡","pinyin":"taijixiang","location":{"lat":29.315485,"lng":108.666541},"polygon":[]},{"id":"500114206","name":"水田乡","pinyin":"shuitianxiang","location":{"lat":29.388916,"lng":108.73792},"polygon":[]},{"id":"500114207","name":"白土乡","pinyin":"baituxiang","location":{"lat":29.398482,"lng":108.606853},"polygon":[]},{"id":"500114208","name":"金洞乡","pinyin":"jindongxiang","location":{"lat":29.171631,"lng":108.837542},"polygon":[]},{"id":"500114209","name":"五里乡","pinyin":"wulixiang","location":{"lat":29.359926,"lng":108.867297},"polygon":[]},{"id":"500114210","name":"水市乡","pinyin":"shuishixiang","location":{"lat":29.214284,"lng":108.697364},"polygon":[]},{"id":"500114211","name":"新华乡","pinyin":"xinhuaxiang","location":{"lat":29.331989,"lng":108.596609},"polygon":[]}]