[{"id":"500111001","name":"龙滩子街道","pinyin":"longtanzijiedao","location":{"lat":29.486867,"lng":105.799813},"polygon":[]},{"id":"500111002","name":"龙岗街道","pinyin":"longgangjiedao","location":{"lat":29.688642,"lng":105.682859},"polygon":[]},{"id":"500111003","name":"棠香街道","pinyin":"tangxiangjiedao","location":{"lat":29.683051,"lng":105.740673},"polygon":[]},{"id":"500111004","name":"双路街道","pinyin":"shuanglujiedao","location":{"lat":29.479488,"lng":105.759461},"polygon":[]},{"id":"500111005","name":"通桥街道","pinyin":"tongqiaojiedao","location":{"lat":29.510556,"lng":105.797232},"polygon":[]},{"id":"500111006","name":"智凤街道","pinyin":"zhifengjiedao","location":{"lat":29.684009,"lng":105.796251},"polygon":[]},{"id":"500111102","name":"龙水镇","pinyin":"longshuizhen","location":{"lat":29.576996,"lng":105.754896},"polygon":[]},{"id":"500111104","name":"宝顶镇","pinyin":"baodingzhen","location":{"lat":29.763853,"lng":105.779639},"polygon":[]},{"id":"500111105","name":"中敖镇","pinyin":"zhongaozhen","location":{"lat":29.786398,"lng":105.701764},"polygon":[]},{"id":"500111106","name":"三驱镇","pinyin":"sanquzhen","location":{"lat":29.639163,"lng":105.607924},"polygon":[]},{"id":"500111107","name":"宝兴镇","pinyin":"baoxingzhen","location":{"lat":29.628918,"lng":105.687098},"polygon":[]},{"id":"500111108","name":"玉龙镇","pinyin":"yulongzhen","location":{"lat":29.557421,"lng":105.832642},"polygon":[]},{"id":"500111109","name":"石马镇","pinyin":"shimazhen","location":{"lat":29.62283,"lng":105.833741},"polygon":[]},{"id":"500111110","name":"拾万镇","pinyin":"shiwanzhen","location":{"lat":29.596367,"lng":105.890596},"polygon":[]},{"id":"500111111","name":"回龙镇","pinyin":"huilongzhen","location":{"lat":29.726955,"lng":105.862956},"polygon":[]},{"id":"500111112","name":"金山镇","pinyin":"jinshanzhen","location":{"lat":29.663883,"lng":105.889631},"polygon":[]},{"id":"500111113","name":"万古镇","pinyin":"wanguzhen","location":{"lat":29.679706,"lng":105.943517},"polygon":[]},{"id":"500111114","name":"国梁镇","pinyin":"guoliangzhen","location":{"lat":29.761211,"lng":105.918126},"polygon":[]},{"id":"500111115","name":"雍溪镇","pinyin":"yongxizhen","location":{"lat":29.747528,"lng":105.97392},"polygon":[]},{"id":"500111116","name":"珠溪镇","pinyin":"zhuxizhen","location":{"lat":29.516279,"lng":105.654536},"polygon":[]},{"id":"500111117","name":"龙石镇","pinyin":"longshizhen","location":{"lat":29.559088,"lng":105.621316},"polygon":[]},{"id":"500111118","name":"邮亭镇","pinyin":"youtingzhen","location":{"lat":29.453366,"lng":105.765976},"polygon":[]},{"id":"500111119","name":"铁山镇","pinyin":"tieshanzhen","location":{"lat":29.681508,"lng":105.546247},"polygon":[]},{"id":"500111120","name":"高升镇","pinyin":"gaoshengzhen","location":{"lat":29.723735,"lng":105.59532},"polygon":[]},{"id":"500111121","name":"季家镇","pinyin":"jijiazhen","location":{"lat":29.623132,"lng":105.540959},"polygon":[]},{"id":"500111122","name":"古龙镇","pinyin":"gulongzhen","location":{"lat":29.704826,"lng":106.00283},"polygon":[]},{"id":"500111123","name":"高坪镇","pinyin":"gaopingzhen","location":{"lat":29.820613,"lng":105.684822},"polygon":[]}]