[{"id":"500104001","name":"新山村街道","pinyin":"xinshancunjiedao","location":{"latitude":29.480311,"longitude":106.48648},"polygon":[]},{"id":"500104002","name":"跃进村街道","pinyin":"yuejincunjiedao","location":{"latitude":29.486504,"longitude":106.506876},"polygon":[]},{"id":"500104003","name":"九宫庙街道","pinyin":"jiugongmiaojiedao","location":{"latitude":29.455665,"longitude":106.49642},"polygon":[]},{"id":"500104004","name":"茄子溪街道","pinyin":"qiezixijiedao","location":{"latitude":29.42577,"longitude":106.504141},"polygon":[]},{"id":"500104005","name":"春晖路街道","pinyin":"chunhuilujiedao","location":{"latitude":29.472696,"longitude":106.476471},"polygon":[]},{"id":"500104101","name":"八桥镇","pinyin":"baqiaozhen","location":{"latitude":29.442505,"longitude":106.469026},"polygon":[]},{"id":"500104102","name":"建胜镇","pinyin":"jianshengzhen","location":{"latitude":29.412494,"longitude":106.492978},"polygon":[]},{"id":"500104103","name":"跳磴镇","pinyin":"tiaodengzhen","location":{"latitude":29.390622,"longitude":106.434551},"polygon":[]}]