[{"id":"500101001","name":"高笋塘街道","pinyin":"gaosuntangjiedao","location":{"latitude":30.806165,"longitude":108.385779},"polygon":[]},{"id":"500101002","name":"太白街道","pinyin":"taibaijiedao","location":{"latitude":30.80557,"longitude":108.354204},"polygon":[]},{"id":"500101003","name":"牌楼街道","pinyin":"pailoujiedao","location":{"latitude":30.782923,"longitude":108.395278},"polygon":[]},{"id":"500101004","name":"双河口街道","pinyin":"shuanghekoujiedao","location":{"latitude":30.74664,"longitude":108.364865},"polygon":[]},{"id":"500101005","name":"龙都街道","pinyin":"longdujiedao","location":{"latitude":30.737198,"longitude":108.41325},"polygon":[]},{"id":"500101006","name":"周家坝街道","pinyin":"zhoujiabajiedao","location":{"latitude":30.842647,"longitude":108.373105},"polygon":[]},{"id":"500101007","name":"沙河街道","pinyin":"shahejiedao","location":{"latitude":30.843883,"longitude":108.35024},"polygon":[]},{"id":"500101008","name":"钟鼓楼街道","pinyin":"zhongguloujiedao","location":{"latitude":30.844808,"longitude":108.424597},"polygon":[]},{"id":"500101009","name":"百安坝街道","pinyin":"baianbajiedao","location":{"latitude":30.746949,"longitude":108.450224},"polygon":[]},{"id":"500101010","name":"五桥街道","pinyin":"wuqiaojiedao","location":{"latitude":30.789338,"longitude":108.475014},"polygon":[]},{"id":"500101011","name":"陈家坝街道","pinyin":"chenjiabajiedao","location":{"latitude":30.79982,"longitude":108.422423},"polygon":[]},{"id":"500101101","name":"高峰镇","pinyin":"gaofengzhen","location":{"latitude":30.702703,"longitude":108.349525},"polygon":[]},{"id":"500101102","name":"龙沙镇","pinyin":"longshazhen","location":{"latitude":30.614248,"longitude":108.236493},"polygon":[]},{"id":"500101103","name":"响水镇","pinyin":"xiangshuizhen","location":{"latitude":30.657796,"longitude":108.171411},"polygon":[]},{"id":"500101104","name":"武陵镇","pinyin":"wulingzhen","location":{"latitude":30.510758,"longitude":108.235645},"polygon":[]},{"id":"500101105","name":"瀼渡镇","pinyin":"rangduzhen","location":{"latitude":30.585145,"longitude":108.30647},"polygon":[]},{"id":"500101106","name":"甘宁镇","pinyin":"ganningzhen","location":{"latitude":30.674201,"longitude":108.287381},"polygon":[]},{"id":"500101107","name":"天城镇","pinyin":"tianchengzhen","location":{"latitude":30.896004,"longitude":108.36385},"polygon":[]},{"id":"500101108","name":"熊家镇","pinyin":"xiongjiazhen","location":{"latitude":30.919289,"longitude":108.447907},"polygon":[]},{"id":"500101109","name":"小周镇","pinyin":"xiaozhouzhen","location":{"latitude":30.933574,"longitude":108.529358},"polygon":[]},{"id":"500101110","name":"大周镇","pinyin":"dazhouzhen","location":{"latitude":30.889671,"longitude":108.498221},"polygon":[]},{"id":"500101111","name":"高梁镇","pinyin":"gaoliangzhen","location":{"latitude":30.827108,"longitude":108.3144},"polygon":[]},{"id":"500101112","name":"李河镇","pinyin":"lihezhen","location":{"latitude":30.801906,"longitude":108.211765},"polygon":[]},{"id":"500101113","name":"分水镇","pinyin":"fenshuizhen","location":{"latitude":30.690896,"longitude":108.121381},"polygon":[]},{"id":"500101114","name":"孙家镇","pinyin":"sunjiazhen","location":{"latitude":30.742305,"longitude":108.042887},"polygon":[]},{"id":"500101115","name":"余家镇","pinyin":"yujiazhen","location":{"latitude":30.798313,"longitude":107.953999},"polygon":[]},{"id":"500101116","name":"后山镇","pinyin":"houshanzhen","location":{"latitude":30.803851,"longitude":108.095943},"polygon":[]},{"id":"500101117","name":"弹子镇","pinyin":"danzizhen","location":{"latitude":30.863504,"longitude":108.017541},"polygon":[]},{"id":"500101118","name":"长岭镇","pinyin":"changlingzhen","location":{"latitude":30.756727,"longitude":108.521309},"polygon":[]},{"id":"500101119","name":"新田镇","pinyin":"xintianzhen","location":{"latitude":30.654835,"longitude":108.426684},"polygon":[]},{"id":"500101120","name":"新乡镇","pinyin":"xinxiangzhen","location":{"latitude":30.482686,"longitude":108.296631},"polygon":[]},{"id":"500101121","name":"走马镇","pinyin":"zoumazhen","location":{"latitude":30.565634,"longitude":108.481494},"polygon":[]},{"id":"500101122","name":"罗田镇","pinyin":"luotianzhen","location":{"latitude":30.518185,"longitude":108.56653},"polygon":[]},{"id":"500101123","name":"龙驹镇","pinyin":"longjuzhen","location":{"latitude":30.642457,"longitude":108.648173},"polygon":[]},{"id":"500101124","name":"白土镇","pinyin":"baituzhen","location":{"latitude":30.606306,"longitude":108.805488},"polygon":[]},{"id":"500101125","name":"长滩镇","pinyin":"changtanzhen","location":{"latitude":30.722568,"longitude":108.645856},"polygon":[]},{"id":"500101126","name":"太安镇","pinyin":"taianzhen","location":{"latitude":30.790882,"longitude":108.688933},"polygon":[]},{"id":"500101127","name":"白羊镇","pinyin":"baiyangzhen","location":{"latitude":30.826093,"longitude":108.6178},"polygon":[]},{"id":"500101128","name":"太龙镇","pinyin":"tailongzhen","location":{"latitude":30.856088,"longitude":108.534796},"polygon":[]},{"id":"500101129","name":"郭村镇","pinyin":"guocunzhen","location":{"latitude":30.580464,"longitude":108.159944},"polygon":[]},{"id":"500101200","name":"九池乡","pinyin":"jiuchixiang","location":{"latitude":30.768207,"longitude":108.33234},"polygon":[]},{"id":"500101201","name":"柱山乡","pinyin":"zhushanxiang","location":{"latitude":30.742812,"longitude":108.251054},"polygon":[]},{"id":"500101203","name":"铁峰乡","pinyin":"tiefengxiang","location":{"latitude":30.964277,"longitude":108.406284},"polygon":[]},{"id":"500101204","name":"茨竹乡","pinyin":"cizhuxiang","location":{"latitude":30.655611,"longitude":108.525027},"polygon":[]},{"id":"500101205","name":"溪口乡","pinyin":"xikouxiang","location":{"latitude":30.591892,"longitude":108.351935},"polygon":[]},{"id":"500101206","name":"长坪乡","pinyin":"changpingxiang","location":{"latitude":30.428922,"longitude":108.272761},"polygon":[]},{"id":"500101207","name":"燕山乡","pinyin":"yanshanxiang","location":{"latitude":30.526737,"longitude":108.325579},"polygon":[]},{"id":"500101208","name":"梨树乡","pinyin":"lishuxiang","location":{"latitude":30.660448,"longitude":108.77593},"polygon":[]},{"id":"500101209","name":"恒合土家族乡","pinyin":"henghetujiazuxiang","location":{"latitude":30.559855,"longitude":108.745691},"polygon":[]},{"id":"500101210","name":"普子乡","pinyin":"puzixiang","location":{"latitude":30.55169,"longitude":108.839643},"polygon":[]},{"id":"500101211","name":"地宝土家族乡","pinyin":"dibaotujiazuxiang","location":{"latitude":30.660102,"longitude":108.86364},"polygon":[]},{"id":"500101212","name":"黄柏乡","pinyin":"huangbaixiang","location":{"latitude":30.902941,"longitude":108.6026},"polygon":[]}]