[{"id":"500119001","name":"东城街道","pinyin":"dongchengjiedao","location":{"lat":29.191338,"lng":107.138291},"polygon":[]},{"id":"500119002","name":"南城街道","pinyin":"nanchengjiedao","location":{"lat":29.071156,"lng":107.105871},"polygon":[]},{"id":"500119003","name":"西城街道","pinyin":"xichengjiedao","location":{"lat":29.202946,"lng":107.077408},"polygon":[]},{"id":"500119100","name":"三泉镇","pinyin":"sanquanzhen","location":{"lat":29.091572,"lng":107.286799},"polygon":[]},{"id":"500119101","name":"南平镇","pinyin":"nanpingzhen","location":{"lat":29.037557,"lng":107.021931},"polygon":[]},{"id":"500119102","name":"神童镇","pinyin":"shentongzhen","location":{"lat":29.15633,"lng":106.930125},"polygon":[]},{"id":"500119103","name":"鸣玉镇","pinyin":"mingyuzhen","location":{"lat":29.313876,"lng":107.117746},"polygon":[]},{"id":"500119104","name":"大观镇","pinyin":"daguanzhen","location":{"lat":29.270987,"lng":106.974197},"polygon":[]},{"id":"500119105","name":"兴隆镇","pinyin":"xinglongzhen","location":{"lat":29.1572,"lng":107.003805},"polygon":[]},{"id":"500119106","name":"太平场镇","pinyin":"taipingchangzhen","location":{"lat":29.440715,"lng":106.969929},"polygon":[]},{"id":"500119107","name":"白沙镇","pinyin":"baishazhen","location":{"lat":29.356353,"lng":106.940071},"polygon":[]},{"id":"500119108","name":"水江镇","pinyin":"shuijiangzhen","location":{"lat":29.2529,"lng":107.321272},"polygon":[]},{"id":"500119109","name":"石墙镇","pinyin":"shiqiangzhen","location":{"lat":29.281082,"lng":107.204714},"polygon":[]},{"id":"500119110","name":"金山镇","pinyin":"jinshanzhen","location":{"lat":28.943569,"lng":107.11493},"polygon":[]},{"id":"500119111","name":"头渡镇","pinyin":"touduzhen","location":{"lat":28.96243,"lng":107.215133},"polygon":[]},{"id":"500119112","name":"大有镇","pinyin":"dayouzhen","location":{"lat":28.992919,"lng":107.312733},"polygon":[]},{"id":"500119113","name":"合溪镇","pinyin":"hexizhen","location":{"lat":28.836374,"lng":107.283028},"polygon":[]},{"id":"500119114","name":"黎香湖镇","pinyin":"lixianghuzhen","location":{"lat":29.354095,"lng":106.981756},"polygon":[]},{"id":"500119115","name":"山王坪镇","pinyin":"shanwangpingzhen","location":{"lat":29.145185,"lng":107.345277},"polygon":[]},{"id":"500119116","name":"木凉镇","pinyin":"muliangzhen","location":{"lat":29.231685,"lng":107.030811},"polygon":[]},{"id":"500119117","name":"楠竹山镇","pinyin":"nanzhushanzhen","location":{"lat":29.220085,"lng":107.196549},"polygon":[]},{"id":"500119118","name":"石溪镇","pinyin":"shixizhen","location":{"lat":29.338882,"lng":107.050164},"polygon":[]},{"id":"500119119","name":"民主镇","pinyin":"minzhuzhen","location":{"lat":29.361775,"lng":107.178957},"polygon":[]},{"id":"500119120","name":"德隆镇","pinyin":"delongzhen","location":{"lat":28.89237,"lng":107.252387},"polygon":[]},{"id":"500119121","name":"福寿镇","pinyin":"fushouzhen","location":{"lat":29.267234,"lng":107.07526},"polygon":[]},{"id":"500119122","name":"河图镇","pinyin":"hetuzhen","location":{"lat":29.296844,"lng":107.025574},"polygon":[]},{"id":"500119123","name":"古花镇","pinyin":"guhuazhen","location":{"lat":28.941415,"lng":107.384589},"polygon":[]},{"id":"500119124","name":"庆元镇","pinyin":"qingyuanzhen","location":{"lat":28.88686,"lng":107.358147},"polygon":[]},{"id":"500119125","name":"乾丰镇","pinyin":"qianfengzhen","location":{"lat":29.412906,"lng":107.009789},"polygon":[]},{"id":"500119126","name":"石莲镇","pinyin":"shilianzhen","location":{"lat":29.091151,"lng":106.937252},"polygon":[]},{"id":"500119127","name":"冷水关镇","pinyin":"lengshuiguanzhen","location":{"lat":29.382852,"lng":107.142047},"polygon":[]},{"id":"500119128","name":"骑龙镇","pinyin":"qilongzhen","location":{"lat":29.35009,"lng":107.239668},"polygon":[]},{"id":"500119207","name":"中桥乡","pinyin":"zhongqiaoxiang","location":{"lat":29.312819,"lng":107.26237},"polygon":[]},{"id":"500119212","name":"峰岩乡","pinyin":"fengyanxiang","location":{"lat":29.298956,"lng":107.171418},"polygon":[]}]