[{"id":"500105004","name":"华新街街道","pinyin":"huaxinjiejiedao","location":{"lat":29.564361,"lng":106.534886},"polygon":[]},{"id":"500105005","name":"寸滩街道","pinyin":"cuntanjiedao","location":{"lat":29.615226,"lng":106.586899},"polygon":[]},{"id":"500105006","name":"观音桥街道","pinyin":"guanyinqiaojiedao","location":{"lat":29.570179,"lng":106.517691},"polygon":[]},{"id":"500105007","name":"五里店街道","pinyin":"wulidianjiedao","location":{"lat":29.578926,"lng":106.559156},"polygon":[]},{"id":"500105008","name":"郭家沱街道","pinyin":"guojiatuojiedao","location":{"lat":29.595149,"lng":106.715029},"polygon":[]},{"id":"500105009","name":"铁山坪街道","pinyin":"tieshanpingjiedao","location":{"lat":29.608069,"lng":106.660287},"polygon":[]},{"id":"500105010","name":"江北城街道","pinyin":"jiangbeichengjiedao","location":{"lat":29.572745,"lng":106.578384},"polygon":[]},{"id":"500105011","name":"石马河街道","pinyin":"shimahejiedao","location":{"lat":29.589088,"lng":106.467826},"polygon":[]},{"id":"500105012","name":"大石坝街道","pinyin":"dashibajiedao","location":{"lat":29.567315,"lng":106.490973},"polygon":[]},{"id":"500105100","name":"鱼嘴镇","pinyin":"yuzuizhen","location":{"lat":29.632752,"lng":106.752267},"polygon":[]},{"id":"500105101","name":"复盛镇","pinyin":"fushengzhen","location":{"lat":29.649661,"lng":106.809425},"polygon":[]},{"id":"500105102","name":"五宝镇","pinyin":"wubaozhen","location":{"lat":29.618078,"lng":106.843805},"polygon":[]}]