[{"id":"500154001","name":"汉丰街道","pinyin":"hanfengjiedao","location":{"latitude":31.162206,"longitude":108.404534},"polygon":[]},{"id":"500154002","name":"丰乐街道","pinyin":"fenglejiedao","location":{"latitude":31.215286,"longitude":108.435954},"polygon":[]},{"id":"500154003","name":"镇东街道","pinyin":"zhendongjiedao","location":{"latitude":31.218839,"longitude":108.399977},"polygon":[]},{"id":"500154004","name":"白鹤街道","pinyin":"baihejiedao","location":{"latitude":31.259191,"longitude":108.482773},"polygon":[]},{"id":"500154005","name":"文峰街道","pinyin":"wenfengjiedao","location":{"latitude":31.164331,"longitude":108.442834},"polygon":[]},{"id":"500154006","name":"云枫街道","pinyin":"yunfengjiedao","location":{"latitude":31.147441,"longitude":108.366497},"polygon":[]},{"id":"500154007","name":"赵家街道","pinyin":"zhaojiajiedao","location":{"latitude":31.060503,"longitude":108.422145},"polygon":[]},{"id":"500154008","name":"正安街道","pinyin":"zhenganjiedao","location":{"latitude":31.193534,"longitude":108.297663},"polygon":[]},{"id":"500154100","name":"大进镇","pinyin":"dajinzhen","location":{"latitude":31.549857,"longitude":108.483568},"polygon":[]},{"id":"500154101","name":"厚坝镇","pinyin":"houbazhen","location":{"latitude":31.208714,"longitude":108.504842},"polygon":[]},{"id":"500154102","name":"长沙镇","pinyin":"changshazhen","location":{"latitude":30.987098,"longitude":108.333839},"polygon":[]},{"id":"500154103","name":"郭家镇","pinyin":"guojiazhen","location":{"latitude":31.323391,"longitude":108.50553},"polygon":[]},{"id":"500154104","name":"临江镇","pinyin":"linjiangzhen","location":{"latitude":31.107902,"longitude":108.182249},"polygon":[]},{"id":"500154105","name":"天和镇","pinyin":"tianhezhen","location":{"latitude":31.295959,"longitude":108.213836},"polygon":[]},{"id":"500154106","name":"温泉镇","pinyin":"wenquanzhen","location":{"latitude":31.388216,"longitude":108.532819},"polygon":[]},{"id":"500154107","name":"铁桥镇","pinyin":"tieqiaozhen","location":{"latitude":31.029077,"longitude":108.122014},"polygon":[]},{"id":"500154108","name":"义和镇","pinyin":"yihezhen","location":{"latitude":31.146655,"longitude":108.088714},"polygon":[]},{"id":"500154109","name":"中和镇","pinyin":"zhonghezhen","location":{"latitude":31.172634,"longitude":108.156487},"polygon":[]},{"id":"500154110","name":"岳溪镇","pinyin":"yuexizhen","location":{"latitude":30.907638,"longitude":108.162426},"polygon":[]},{"id":"500154111","name":"南门镇","pinyin":"nanmenzhen","location":{"latitude":30.958663,"longitude":108.204626},"polygon":[]},{"id":"500154112","name":"南雅镇","pinyin":"nanyazhen","location":{"latitude":31.080946,"longitude":108.080789},"polygon":[]},{"id":"500154113","name":"河堰镇","pinyin":"heyanzhen","location":{"latitude":31.428199,"longitude":108.664729},"polygon":[]},{"id":"500154114","name":"和谦镇","pinyin":"heqianzhen","location":{"latitude":31.441897,"longitude":108.428547},"polygon":[]},{"id":"500154115","name":"九龙山镇","pinyin":"jiulongshanzhen","location":{"latitude":31.212233,"longitude":108.251672},"polygon":[]},{"id":"500154117","name":"敦好镇","pinyin":"dunhaozhen","location":{"latitude":31.347717,"longitude":108.338933},"polygon":[]},{"id":"500154118","name":"竹溪镇","pinyin":"zhuxizhen","location":{"latitude":31.115444,"longitude":108.298247},"polygon":[]},{"id":"500154119","name":"渠口镇","pinyin":"qukouzhen","location":{"latitude":31.133075,"longitude":108.494954},"polygon":[]},{"id":"500154120","name":"高桥镇","pinyin":"gaoqiaozhen","location":{"latitude":31.365831,"longitude":108.222123},"polygon":[]},{"id":"500154121","name":"金峰镇","pinyin":"jinfengzhen","location":{"latitude":31.200474,"longitude":108.566945},"polygon":[]},{"id":"500154122","name":"大德镇","pinyin":"dadezhen","location":{"latitude":31.23136,"longitude":108.348321},"polygon":[]},{"id":"500154123","name":"白桥镇","pinyin":"baiqiaozhen","location":{"latitude":31.297528,"longitude":108.617325},"polygon":[]},{"id":"500154124","name":"巫山镇","pinyin":"wushanzhen","location":{"latitude":30.973262,"longitude":108.010398},"polygon":[]},{"id":"500154125","name":"谭家镇","pinyin":"tanjiazhen","location":{"latitude":31.478248,"longitude":108.555825},"polygon":[]},{"id":"500154126","name":"满月镇","pinyin":"manyuezhen","location":{"latitude":31.612822,"longitude":108.556839},"polygon":[]},{"id":"500154127","name":"雪宝山镇","pinyin":"xuebaoshanzhen","location":{"latitude":31.611405,"longitude":108.803923},"polygon":[]},{"id":"500154200","name":"三汇口乡","pinyin":"sanhuikouxiang","location":{"latitude":31.246388,"longitude":108.087911},"polygon":[]},{"id":"500154201","name":"五通乡","pinyin":"wutongxiang","location":{"latitude":30.91098,"longitude":108.053266},"polygon":[]},{"id":"500154203","name":"关面乡","pinyin":"guanmianxiang","location":{"latitude":31.560647,"longitude":108.652758},"polygon":[]},{"id":"500154205","name":"麻柳乡","pinyin":"maliuxiang","location":{"latitude":31.451603,"longitude":108.268539},"polygon":[]},{"id":"500154206","name":"紫水乡","pinyin":"zishuixiang","location":{"latitude":31.4164,"longitude":108.320639},"polygon":[]}]