[{"id":"500102001","name":"敦仁街道","pinyin":"dunrenjiedao","location":{"latitude":29.703592,"longitude":107.403693},"polygon":[]},{"id":"500102002","name":"崇义街道","pinyin":"chongyijiedao","location":{"latitude":29.716283,"longitude":107.364339},"polygon":[]},{"id":"500102003","name":"荔枝街道","pinyin":"lizhijiedao","location":{"latitude":29.613254,"longitude":107.374703},"polygon":[]},{"id":"500102004","name":"江北街道","pinyin":"jiangbeijiedao","location":{"latitude":29.772093,"longitude":107.382563},"polygon":[]},{"id":"500102005","name":"江东街道","pinyin":"jiangdongjiedao","location":{"latitude":29.686642,"longitude":107.44427},"polygon":[]},{"id":"500102006","name":"李渡街道","pinyin":"lidujiedao","location":{"latitude":29.774671,"longitude":107.265216},"polygon":[]},{"id":"500102007","name":"龙桥街道","pinyin":"longqiaojiedao","location":{"latitude":29.66836,"longitude":107.323563},"polygon":[]},{"id":"500102008","name":"白涛街道","pinyin":"baitaojiedao","location":{"latitude":29.568755,"longitude":107.518869},"polygon":[]},{"id":"500102100","name":"百胜镇","pinyin":"baishengzhen","location":{"latitude":29.880173,"longitude":107.38265},"polygon":[]},{"id":"500102101","name":"珍溪镇","pinyin":"zhenxizhen","location":{"latitude":29.918873,"longitude":107.509182},"polygon":[]},{"id":"500102102","name":"清溪镇","pinyin":"qingxizhen","location":{"latitude":29.788944,"longitude":107.512203},"polygon":[]},{"id":"500102103","name":"南沱镇","pinyin":"nantuozhen","location":{"latitude":29.843784,"longitude":107.526999},"polygon":[]},{"id":"500102104","name":"焦石镇","pinyin":"jiaoshizhen","location":{"latitude":29.693449,"longitude":107.55236},"polygon":[]},{"id":"500102106","name":"马武镇","pinyin":"mawuzhen","location":{"latitude":29.560548,"longitude":107.261294},"polygon":[]},{"id":"500102107","name":"青羊镇","pinyin":"qingyangzhen","location":{"latitude":29.506436,"longitude":107.129455},"polygon":[]},{"id":"500102108","name":"龙潭镇","pinyin":"longtanzhen","location":{"latitude":29.43104,"longitude":107.091067},"polygon":[]},{"id":"500102111","name":"蔺市镇","pinyin":"linshizhen","location":{"latitude":29.611547,"longitude":107.176204},"polygon":[]},{"id":"500102112","name":"新妙镇","pinyin":"xinmiaozhen","location":{"latitude":29.604912,"longitude":107.033608},"polygon":[]},{"id":"500102113","name":"石沱镇","pinyin":"shituozhen","location":{"latitude":29.693806,"longitude":107.117671},"polygon":[]},{"id":"500102115","name":"义和镇","pinyin":"yihezhen","location":{"latitude":29.735711,"longitude":107.172237},"polygon":[]},{"id":"500102204","name":"罗云乡","pinyin":"luoyunxiang","location":{"latitude":29.766528,"longitude":107.57831},"polygon":[]},{"id":"500102206","name":"大木乡","pinyin":"damuxiang","location":{"latitude":29.616929,"longitude":107.660385},"polygon":[]},{"id":"500102208","name":"武陵山乡","pinyin":"wulingshanxiang","location":{"latitude":29.492851,"longitude":107.550399},"polygon":[]},{"id":"500102213","name":"同乐乡","pinyin":"tonglexiang","location":{"latitude":29.441063,"longitude":107.213014},"polygon":[]},{"id":"500102216","name":"大顺乡","pinyin":"dashunxiang","location":{"latitude":29.528503,"longitude":107.044725},"polygon":[]},{"id":"500102217","name":"增福乡","pinyin":"zengfuxiang","location":{"latitude":29.542926,"longitude":106.985789},"polygon":[]}]