[{"id":"500112001","name":"双凤桥街道","pinyin":"shuangfengqiaojiedao","location":{"lat":29.762807,"lng":106.641179},"polygon":[]},{"id":"500112002","name":"双龙湖街道","pinyin":"shuanglonghujiedao","location":{"lat":29.732859,"lng":106.596847},"polygon":[]},{"id":"500112003","name":"龙溪街道","pinyin":"longxijiedao","location":{"lat":29.591092,"lng":106.522879},"polygon":[]},{"id":"500112004","name":"回兴街道","pinyin":"huixingjiedao","location":{"lat":29.667424,"lng":106.617061},"polygon":[]},{"id":"500112005","name":"龙山街道","pinyin":"longshanjiedao","location":{"lat":29.588988,"lng":106.499236},"polygon":[]},{"id":"500112006","name":"龙塔街道","pinyin":"longtajiedao","location":{"lat":29.593003,"lng":106.54686},"polygon":[]},{"id":"500112007","name":"悦来街道","pinyin":"yuelaijiedao","location":{"lat":29.722001,"lng":106.548717},"polygon":[]},{"id":"500112008","name":"两路街道","pinyin":"lianglujiedao","location":{"lat":29.719775,"lng":106.659441},"polygon":[]},{"id":"500112009","name":"王家街道","pinyin":"wangjiajiedao","location":{"lat":29.750389,"lng":106.68692},"polygon":[]},{"id":"500112010","name":"宝圣湖街道","pinyin":"baoshenghujiedao","location":{"lat":29.683251,"lng":106.604232},"polygon":[]},{"id":"500112011","name":"仙桃街道","pinyin":"xiantaojiedao","location":{"lat":29.632893,"lng":106.52529},"polygon":[]},{"id":"500112012","name":"大竹林街道","pinyin":"dazhulinjiedao","location":{"lat":29.627691,"lng":106.464415},"polygon":[]},{"id":"500112013","name":"天宫殿街道","pinyin":"tiangongdianjiedao","location":{"lat":29.611263,"lng":106.534746},"polygon":[]},{"id":"500112014","name":"鸳鸯街道","pinyin":"yuanyangjiedao","location":{"lat":29.662805,"lng":106.553666},"polygon":[]},{"id":"500112015","name":"翠云街道","pinyin":"cuiyunjiedao","location":{"lat":29.691094,"lng":106.570286},"polygon":[]},{"id":"500112016","name":"礼嘉街道","pinyin":"lijiajiedao","location":{"lat":29.681104,"lng":106.494158},"polygon":[]},{"id":"500112017","name":"金山街道","pinyin":"jinshanjiedao","location":{"lat":29.636826,"lng":106.558355},"polygon":[]},{"id":"500112018","name":"康美街道","pinyin":"kangmeijiedao","location":{"lat":29.645018,"lng":106.494795},"polygon":[]},{"id":"500112019","name":"人和街道","pinyin":"renhejiedao","location":{"lat":29.731198,"lng":106.567488},"polygon":[]},{"id":"500112111","name":"木耳镇","pinyin":"muerzhen","location":{"lat":29.829742,"lng":106.65914},"polygon":[]},{"id":"500112113","name":"兴隆镇","pinyin":"xinglongzhen","location":{"lat":29.905268,"lng":106.725512},"polygon":[]},{"id":"500112115","name":"茨竹镇","pinyin":"cizhuzhen","location":{"lat":30.036428,"lng":106.698331},"polygon":[]},{"id":"500112117","name":"大湾镇","pinyin":"dawanzhen","location":{"lat":29.964932,"lng":106.810333},"polygon":[]},{"id":"500112119","name":"龙兴镇","pinyin":"longxingzhen","location":{"lat":29.704966,"lng":106.806769},"polygon":[]},{"id":"500112120","name":"石船镇","pinyin":"shichuanzhen","location":{"lat":29.783336,"lng":106.836373},"polygon":[]},{"id":"500112121","name":"统景镇","pinyin":"tongjingzhen","location":{"lat":29.894467,"lng":106.84779},"polygon":[]},{"id":"500112123","name":"大盛镇","pinyin":"dashengzhen","location":{"lat":29.901868,"lng":106.922062},"polygon":[]},{"id":"500112125","name":"洛碛镇","pinyin":"luoqizhen","location":{"lat":29.748959,"lng":106.922984},"polygon":[]},{"id":"500112126","name":"古路镇","pinyin":"guluzhen","location":{"lat":29.822596,"lng":106.749625},"polygon":[]},{"id":"500112130","name":"玉峰山镇","pinyin":"yufengshanzhen","location":{"lat":29.676278,"lng":106.685223},"polygon":[]}]