[{"id":"500241001","name":"乌杨街道","pinyin":"wuyangjiedao","location":{"lat":28.470729,"lng":108.952154},"polygon":[]},{"id":"500241002","name":"中和街道","pinyin":"zhonghejiedao","location":{"lat":28.459365,"lng":109.008062},"polygon":[]},{"id":"500241003","name":"平凯街道","pinyin":"pingkaijiedao","location":{"lat":28.408486,"lng":109.008579},"polygon":[]},{"id":"500241004","name":"官庄街道","pinyin":"guanzhuangjiedao","location":{"lat":28.524639,"lng":109.03525},"polygon":[]},{"id":"500241102","name":"清溪场镇","pinyin":"qingxichangzhen","location":{"lat":28.400472,"lng":108.858713},"polygon":[]},{"id":"500241103","name":"隘口镇","pinyin":"aikouzhen","location":{"lat":28.277688,"lng":108.789199},"polygon":[]},{"id":"500241104","name":"溶溪镇","pinyin":"rongxizhen","location":{"lat":28.516431,"lng":108.878199},"polygon":[]},{"id":"500241106","name":"龙池镇","pinyin":"longchizhen","location":{"lat":28.596993,"lng":109.055237},"polygon":[]},{"id":"500241107","name":"石堤镇","pinyin":"shidizhen","location":{"lat":28.738427,"lng":109.23859},"polygon":[]},{"id":"500241108","name":"峨溶镇","pinyin":"erongzhen","location":{"lat":28.58559,"lng":109.255572},"polygon":[]},{"id":"500241109","name":"洪安镇","pinyin":"honganzhen","location":{"lat":28.518633,"lng":109.206814},"polygon":[]},{"id":"500241110","name":"雅江镇","pinyin":"yajiangzhen","location":{"lat":28.469467,"lng":109.144932},"polygon":[]},{"id":"500241111","name":"石耶镇","pinyin":"shiyezhen","location":{"lat":28.384717,"lng":109.067011},"polygon":[]},{"id":"500241112","name":"梅江镇","pinyin":"meijiangzhen","location":{"lat":28.272316,"lng":109.056819},"polygon":[]},{"id":"500241113","name":"兰桥镇","pinyin":"lanqiaozhen","location":{"lat":28.209109,"lng":108.976744},"polygon":[]},{"id":"500241114","name":"膏田镇","pinyin":"gaotianzhen","location":{"lat":28.485205,"lng":108.798086},"polygon":[]},{"id":"500241115","name":"溪口镇","pinyin":"xikouzhen","location":{"lat":28.572725,"lng":108.934695},"polygon":[]},{"id":"500241116","name":"妙泉镇","pinyin":"miaoquanzhen","location":{"lat":28.631798,"lng":108.987112},"polygon":[]},{"id":"500241117","name":"宋农镇","pinyin":"songnongzhen","location":{"lat":28.683461,"lng":109.095067},"polygon":[]},{"id":"500241118","name":"钟灵镇","pinyin":"zhonglingzhen","location":{"lat":28.278337,"lng":108.912946},"polygon":[]},{"id":"500241119","name":"里仁镇","pinyin":"lirenzhen","location":{"lat":28.669649,"lng":109.207131},"polygon":[]},{"id":"500241201","name":"孝溪乡","pinyin":"xiaoxixiang","location":{"lat":28.344031,"lng":108.907597},"polygon":[]},{"id":"500241207","name":"海洋乡","pinyin":"haiyangxiang","location":{"lat":28.765691,"lng":109.102738},"polygon":[]},{"id":"500241208","name":"大溪乡","pinyin":"daxixiang","location":{"lat":28.81912,"lng":109.186486},"polygon":[]},{"id":"500241211","name":"涌洞乡","pinyin":"yongdongxiang","location":{"lat":28.595068,"lng":109.152884},"polygon":[]},{"id":"500241214","name":"中平乡","pinyin":"zhongpingxiang","location":{"lat":28.422037,"lng":109.125216},"polygon":[]},{"id":"500241215","name":"岑溪乡","pinyin":"cenxixiang","location":{"lat":28.346529,"lng":109.108214},"polygon":[]}]