[{"id":"500237001","name":"高唐街道","pinyin":"gaotangjiedao","location":{"latitude":31.083329,"longitude":109.889299},"polygon":[]},{"id":"500237002","name":"龙门街道","pinyin":"longmenjiedao","location":{"latitude":31.121087,"longitude":109.865729},"polygon":[]},{"id":"500237100","name":"巫峡镇","pinyin":"wuxiazhen","location":{"latitude":31.054336,"longitude":109.868211},"polygon":[]},{"id":"500237101","name":"庙宇镇","pinyin":"miaoyuzhen","location":{"latitude":30.8924,"longitude":109.63253},"polygon":[]},{"id":"500237102","name":"大昌镇","pinyin":"dachangzhen","location":{"latitude":31.289132,"longitude":109.841477},"polygon":[]},{"id":"500237103","name":"福田镇","pinyin":"futianzhen","location":{"latitude":31.234962,"longitude":109.712931},"polygon":[]},{"id":"500237104","name":"龙溪镇","pinyin":"longxizhen","location":{"latitude":31.265243,"longitude":109.642036},"polygon":[]},{"id":"500237105","name":"双龙镇","pinyin":"shuanglongzhen","location":{"latitude":31.178737,"longitude":109.837159},"polygon":[]},{"id":"500237106","name":"官阳镇","pinyin":"guanyangzhen","location":{"latitude":31.348915,"longitude":109.88447},"polygon":[]},{"id":"500237107","name":"骡坪镇","pinyin":"luopingzhen","location":{"latitude":31.212095,"longitude":110.104904},"polygon":[]},{"id":"500237108","name":"抱龙镇","pinyin":"baolongzhen","location":{"latitude":30.948025,"longitude":110.002269},"polygon":[]},{"id":"500237109","name":"官渡镇","pinyin":"guanduzhen","location":{"latitude":30.921665,"longitude":109.849602},"polygon":[]},{"id":"500237110","name":"铜鼓镇","pinyin":"tongguzhen","location":{"latitude":30.936157,"longitude":109.748005},"polygon":[]},{"id":"500237200","name":"红椿土家族乡","pinyin":"hongchuntujiazuxiang","location":{"latitude":30.818719,"longitude":109.696247},"polygon":[]},{"id":"500237207","name":"两坪乡","pinyin":"liangpingxiang","location":{"latitude":31.104752,"longitude":109.995123},"polygon":[]},{"id":"500237208","name":"曲尺乡","pinyin":"quchixiang","location":{"latitude":31.043671,"longitude":109.742236},"polygon":[]},{"id":"500237210","name":"建平乡","pinyin":"jianpingxiang","location":{"latitude":31.017439,"longitude":109.909309},"polygon":[]},{"id":"500237211","name":"大溪乡","pinyin":"daxixiang","location":{"latitude":30.992893,"longitude":109.65249},"polygon":[]},{"id":"500237214","name":"金坪乡","pinyin":"jinpingxiang","location":{"latitude":31.200908,"longitude":109.979187},"polygon":[]},{"id":"500237216","name":"平河乡","pinyin":"pinghexiang","location":{"latitude":31.329859,"longitude":110.117886},"polygon":[]},{"id":"500237219","name":"当阳乡","pinyin":"dangyangxiang","location":{"latitude":31.405742,"longitude":109.978176},"polygon":[]},{"id":"500237222","name":"竹贤乡","pinyin":"zhuxianxiang","location":{"latitude":31.283831,"longitude":110.087753},"polygon":[]},{"id":"500237225","name":"三溪乡","pinyin":"sanxixiang","location":{"latitude":31.108763,"longitude":110.09344},"polygon":[]},{"id":"500237227","name":"培石乡","pinyin":"peishixiang","location":{"latitude":30.99541,"longitude":110.098484},"polygon":[]},{"id":"500237229","name":"笃坪乡","pinyin":"dupingxiang","location":{"latitude":30.90993,"longitude":110.093853},"polygon":[]},{"id":"500237231","name":"邓家土家族乡","pinyin":"dengjiatujiazuxiang","location":{"latitude":30.848001,"longitude":110.050265},"polygon":[]}]