[{"id":"500240001","name":"南宾街道","pinyin":"nanbinjiedao","location":{"latitude":29.9756,"longitude":108.159462},"polygon":[]},{"id":"500240003","name":"下路街道","pinyin":"xialujiedao","location":{"latitude":29.92278,"longitude":108.067185},"polygon":[]},{"id":"500240101","name":"西沱镇","pinyin":"xituozhen","location":{"latitude":30.371219,"longitude":108.249234},"polygon":[]},{"id":"500240103","name":"悦崃镇","pinyin":"yuelaizhen","location":{"latitude":30.193012,"longitude":108.268577},"polygon":[]},{"id":"500240104","name":"临溪镇","pinyin":"linxizhen","location":{"latitude":30.382276,"longitude":108.36138},"polygon":[]},{"id":"500240105","name":"黄水镇","pinyin":"huangshuizhen","location":{"latitude":30.244604,"longitude":108.376423},"polygon":[]},{"id":"500240106","name":"马武镇","pinyin":"mawuzhen","location":{"latitude":29.769988,"longitude":108.304716},"polygon":[]},{"id":"500240107","name":"沙子镇","pinyin":"shazizhen","location":{"latitude":30.03106,"longitude":108.410368},"polygon":[]},{"id":"500240108","name":"王场镇","pinyin":"wangchangzhen","location":{"latitude":30.322857,"longitude":108.203077},"polygon":[]},{"id":"500240109","name":"沿溪镇","pinyin":"yanxizhen","location":{"latitude":30.265411,"longitude":108.177332},"polygon":[]},{"id":"500240110","name":"龙沙镇","pinyin":"longshazhen","location":{"latitude":30.138314,"longitude":108.188261},"polygon":[]},{"id":"500240111","name":"鱼池镇","pinyin":"yuchizhen","location":{"latitude":30.259454,"longitude":108.248008},"polygon":[]},{"id":"500240112","name":"大歇镇","pinyin":"daxiezhen","location":{"latitude":30.084487,"longitude":108.110931},"polygon":[]},{"id":"500240113","name":"三河镇","pinyin":"sanhezhen","location":{"latitude":30.043012,"longitude":108.201078},"polygon":[]},{"id":"500240114","name":"万朝镇","pinyin":"wanzhaozhen","location":{"latitude":30.191115,"longitude":108.138541},"polygon":[]},{"id":"500240115","name":"桥头镇","pinyin":"qiaotouzhen","location":{"latitude":30.097212,"longitude":108.235424},"polygon":[]},{"id":"500240116","name":"冷水镇","pinyin":"lengshuizhen","location":{"latitude":30.099198,"longitude":108.527555},"polygon":[]},{"id":"500240117","name":"黄鹤镇","pinyin":"huanghezhen","location":{"latitude":29.840766,"longitude":108.348495},"polygon":[]},{"id":"500240118","name":"枫木镇","pinyin":"fengmuzhen","location":{"latitude":30.237722,"longitude":108.501187},"polygon":[]},{"id":"500240203","name":"黎场乡","pinyin":"lichangxiang","location":{"latitude":30.35831,"longitude":108.138825},"polygon":[]},{"id":"500240204","name":"三星乡","pinyin":"sanxingxiang","location":{"latitude":29.870307,"longitude":108.150821},"polygon":[]},{"id":"500240205","name":"六塘乡","pinyin":"liutangxiang","location":{"latitude":29.911588,"longitude":108.264594},"polygon":[]},{"id":"500240207","name":"三益乡","pinyin":"sanyixiang","location":{"latitude":30.141594,"longitude":108.302281},"polygon":[]},{"id":"500240208","name":"王家乡","pinyin":"wangjiaxiang","location":{"latitude":30.341478,"longitude":108.321999},"polygon":[]},{"id":"500240209","name":"河嘴乡","pinyin":"hezuixiang","location":{"latitude":30.493392,"longitude":108.387163},"polygon":[]},{"id":"500240210","name":"石家乡","pinyin":"shijiaxiang","location":{"latitude":30.290066,"longitude":108.337786},"polygon":[]},{"id":"500240213","name":"中益乡","pinyin":"zhongyixiang","location":{"latitude":30.093401,"longitude":108.375637},"polygon":[]},{"id":"500240214","name":"洗新乡","pinyin":"xixinxiang","location":{"latitude":29.902635,"longitude":108.383416},"polygon":[]},{"id":"500240216","name":"龙潭乡","pinyin":"longtanxiang","location":{"latitude":29.749757,"longitude":108.212804},"polygon":[]},{"id":"500240217","name":"新乐乡","pinyin":"xinlexiang","location":{"latitude":29.907351,"longitude":108.478268},"polygon":[]},{"id":"500240218","name":"金铃乡","pinyin":"jinlingxiang","location":{"latitude":29.988018,"longitude":108.508218},"polygon":[]},{"id":"500240219","name":"金竹乡","pinyin":"jinzhuxiang","location":{"latitude":29.960319,"longitude":108.452865},"polygon":[]}]