[{"id":"500233001","name":"忠州街道","pinyin":"zhongzhoujiedao","location":{"lat":30.319889,"lng":108.050022},"polygon":[]},{"id":"500233003","name":"新生街道","pinyin":"xinshengjiedao","location":{"lat":30.219734,"lng":107.935162},"polygon":[]},{"id":"500233004","name":"乌杨街道","pinyin":"wuyangjiedao","location":{"lat":30.181254,"lng":108.009906},"polygon":[]},{"id":"500233102","name":"任家镇","pinyin":"renjiazhen","location":{"lat":30.146765,"lng":107.890504},"polygon":[]},{"id":"500233104","name":"洋渡镇","pinyin":"yangduzhen","location":{"lat":30.11042,"lng":107.956192},"polygon":[]},{"id":"500233105","name":"东溪镇","pinyin":"dongxizhen","location":{"lat":30.257608,"lng":108.051881},"polygon":[]},{"id":"500233106","name":"复兴镇","pinyin":"fuxingzhen","location":{"lat":30.284918,"lng":108.102038},"polygon":[]},{"id":"500233107","name":"石宝镇","pinyin":"shibaozhen","location":{"lat":30.455115,"lng":108.186101},"polygon":[]},{"id":"500233108","name":"汝溪镇","pinyin":"ruxizhen","location":{"lat":30.502958,"lng":108.065757},"polygon":[]},{"id":"500233109","name":"野鹤镇","pinyin":"yehezhen","location":{"lat":30.542897,"lng":108.10414},"polygon":[]},{"id":"500233110","name":"官坝镇","pinyin":"guanbazhen","location":{"lat":30.450016,"lng":107.911359},"polygon":[]},{"id":"500233111","name":"石黄镇","pinyin":"shihuangzhen","location":{"lat":30.504773,"lng":107.845964},"polygon":[]},{"id":"500233112","name":"马灌镇","pinyin":"maguanzhen","location":{"lat":30.389321,"lng":107.782992},"polygon":[]},{"id":"500233113","name":"金鸡镇","pinyin":"jinjizhen","location":{"lat":30.464608,"lng":107.749739},"polygon":[]},{"id":"500233114","name":"新立镇","pinyin":"xinlizhen","location":{"lat":30.321715,"lng":107.603709},"polygon":[]},{"id":"500233115","name":"双桂镇","pinyin":"shuangguizhen","location":{"lat":30.235786,"lng":107.597939},"polygon":[]},{"id":"500233116","name":"拔山镇","pinyin":"bashanzhen","location":{"lat":30.291736,"lng":107.737321},"polygon":[]},{"id":"500233117","name":"花桥镇","pinyin":"huaqiaozhen","location":{"lat":30.34662,"lng":107.694177},"polygon":[]},{"id":"500233118","name":"永丰镇","pinyin":"yongfengzhen","location":{"lat":30.302094,"lng":107.821174},"polygon":[]},{"id":"500233119","name":"三汇镇","pinyin":"sanhuizhen","location":{"lat":30.394165,"lng":107.880264},"polygon":[]},{"id":"500233120","name":"白石镇","pinyin":"baishizhen","location":{"lat":30.282241,"lng":107.884995},"polygon":[]},{"id":"500233122","name":"黄金镇","pinyin":"huangjinzhen","location":{"lat":30.390371,"lng":108.012075},"polygon":[]},{"id":"500233201","name":"善广乡","pinyin":"shanguangxiang","location":{"lat":30.200968,"lng":107.830751},"polygon":[]},{"id":"500233203","name":"石子乡","pinyin":"shizixiang","location":{"lat":30.107538,"lng":108.046157},"polygon":[]},{"id":"500233204","name":"磨子土家族乡","pinyin":"mozitujiazuxiang","location":{"lat":30.197289,"lng":108.077382},"polygon":[]},{"id":"500233206","name":"涂井乡","pinyin":"tujingxiang","location":{"lat":30.428947,"lng":108.110481},"polygon":[]},{"id":"500233208","name":"金声乡","pinyin":"jinshengxiang","location":{"lat":30.493661,"lng":108.002735},"polygon":[]},{"id":"500233210","name":"兴峰乡","pinyin":"xingfengxiang","location":{"lat":30.479588,"lng":107.953959},"polygon":[]}]