[{"id":"500236100","name":"永安镇","pinyin":"yonganzhen","location":{"lat":31.03202,"lng":109.48646},"polygon":[]},{"id":"500236101","name":"白帝镇","pinyin":"baidizhen","location":{"lat":31.084615,"lng":109.555671},"polygon":[]},{"id":"500236102","name":"草堂镇","pinyin":"caotangzhen","location":{"lat":31.116275,"lng":109.693916},"polygon":[]},{"id":"500236103","name":"汾河镇","pinyin":"fenhezhen","location":{"lat":31.181113,"lng":109.581847},"polygon":[]},{"id":"500236104","name":"康乐镇","pinyin":"kanglezhen","location":{"lat":31.148092,"lng":109.423397},"polygon":[]},{"id":"500236105","name":"大树镇","pinyin":"dashuzhen","location":{"lat":31.205399,"lng":109.334688},"polygon":[]},{"id":"500236106","name":"竹园镇","pinyin":"zhuyuanzhen","location":{"lat":31.266281,"lng":109.265769},"polygon":[]},{"id":"500236107","name":"公平镇","pinyin":"gongpingzhen","location":{"lat":31.117087,"lng":109.237412},"polygon":[]},{"id":"500236108","name":"朱衣镇","pinyin":"zhuyizhen","location":{"lat":31.021744,"lng":109.348011},"polygon":[]},{"id":"500236109","name":"甲高镇","pinyin":"jiagaozhen","location":{"lat":30.846132,"lng":109.178096},"polygon":[]},{"id":"500236110","name":"羊市镇","pinyin":"yangshizhen","location":{"lat":30.80092,"lng":109.07357},"polygon":[]},{"id":"500236111","name":"吐祥镇","pinyin":"tuxiangzhen","location":{"lat":30.714228,"lng":109.128891},"polygon":[]},{"id":"500236112","name":"青龙镇","pinyin":"qinglongzhen","location":{"lat":30.768218,"lng":109.286483},"polygon":[]},{"id":"500236113","name":"兴隆镇","pinyin":"xinglongzhen","location":{"lat":30.69163,"lng":109.414398},"polygon":[]},{"id":"500236114","name":"新民镇","pinyin":"xinminzhen","location":{"lat":30.889968,"lng":109.454045},"polygon":[]},{"id":"500236115","name":"永乐镇","pinyin":"yonglezhen","location":{"lat":30.986442,"lng":109.513229},"polygon":[]},{"id":"500236116","name":"青莲镇","pinyin":"qinglianzhen","location":{"lat":31.241307,"lng":109.128051},"polygon":[]},{"id":"500236117","name":"五马镇","pinyin":"wumazhen","location":{"lat":30.828514,"lng":109.354785},"polygon":[]},{"id":"500236118","name":"安坪镇","pinyin":"anpingzhen","location":{"lat":30.90599,"lng":109.2914},"polygon":[]},{"id":"500236200","name":"红土乡","pinyin":"hongtuxiang","location":{"lat":31.123158,"lng":109.108135},"polygon":[]},{"id":"500236201","name":"平安乡","pinyin":"pinganxiang","location":{"lat":31.337298,"lng":109.187751},"polygon":[]},{"id":"500236203","name":"岩湾乡","pinyin":"yanwanxiang","location":{"lat":31.213048,"lng":109.541344},"polygon":[]},{"id":"500236204","name":"石岗乡","pinyin":"shigangxiang","location":{"lat":31.118727,"lng":109.3382},"polygon":[]},{"id":"500236205","name":"康坪乡","pinyin":"kangpingxiang","location":{"lat":30.985487,"lng":109.247938},"polygon":[]},{"id":"500236207","name":"云雾土家族乡","pinyin":"yunwutujiazuxiang","location":{"lat":30.590618,"lng":109.135043},"polygon":[]},{"id":"500236208","name":"太和土家族乡","pinyin":"taihetujiazuxiang","location":{"lat":30.635799,"lng":109.231814},"polygon":[]},{"id":"500236209","name":"龙桥土家族乡","pinyin":"longqiaotujiazuxiang","location":{"lat":30.573118,"lng":109.384599},"polygon":[]},{"id":"500236210","name":"长安土家族乡","pinyin":"changantujiazuxiang","location":{"lat":30.756997,"lng":109.603353},"polygon":[]},{"id":"500236211","name":"冯坪乡","pinyin":"fengpingxiang","location":{"lat":30.824834,"lng":109.504261},"polygon":[]},{"id":"500236213","name":"鹤峰乡","pinyin":"hefengxiang","location":{"lat":30.921135,"lng":109.557633},"polygon":[]}]