[{"id":"500238001","name":"宁河街道","pinyin":"ninghejiedao","location":{"lat":31.404143,"lng":109.61296},"polygon":[]},{"id":"500238002","name":"柏杨街道","pinyin":"baiyangjiedao","location":{"lat":31.401949,"lng":109.572059},"polygon":[]},{"id":"500238100","name":"城厢镇","pinyin":"chengxiangzhen","location":{"lat":31.415925,"lng":109.677972},"polygon":[]},{"id":"500238101","name":"凤凰镇","pinyin":"fenghuangzhen","location":{"lat":31.3971,"lng":109.500654},"polygon":[]},{"id":"500238102","name":"宁厂镇","pinyin":"ningchangzhen","location":{"lat":31.506935,"lng":109.708431},"polygon":[]},{"id":"500238103","name":"上磺镇","pinyin":"shanghuangzhen","location":{"lat":31.297031,"lng":109.485847},"polygon":[]},{"id":"500238104","name":"古路镇","pinyin":"guluzhen","location":{"lat":31.316819,"lng":109.401875},"polygon":[]},{"id":"500238105","name":"文峰镇","pinyin":"wenfengzhen","location":{"lat":31.45301,"lng":109.212007},"polygon":[]},{"id":"500238106","name":"徐家镇","pinyin":"xujiazhen","location":{"lat":31.675326,"lng":109.648401},"polygon":[]},{"id":"500238107","name":"白鹿镇","pinyin":"bailuzhen","location":{"lat":31.58414,"lng":109.677963},"polygon":[]},{"id":"500238108","name":"尖山镇","pinyin":"jianshanzhen","location":{"lat":31.441208,"lng":108.936941},"polygon":[]},{"id":"500238109","name":"下堡镇","pinyin":"xiabaozhen","location":{"lat":31.562698,"lng":109.490608},"polygon":[]},{"id":"500238110","name":"峰灵镇","pinyin":"fenglingzhen","location":{"lat":31.328061,"lng":109.576278},"polygon":[]},{"id":"500238111","name":"塘坊镇","pinyin":"tangfangzhen","location":{"lat":31.400462,"lng":109.322757},"polygon":[]},{"id":"500238112","name":"朝阳镇","pinyin":"zhaoyangzhen","location":{"lat":31.443024,"lng":109.063235},"polygon":[]},{"id":"500238113","name":"田坝镇","pinyin":"tianbazhen","location":{"lat":31.425177,"lng":108.841396},"polygon":[]},{"id":"500238114","name":"通城镇","pinyin":"tongchengzhen","location":{"lat":31.389615,"lng":109.745813},"polygon":[]},{"id":"500238115","name":"土城镇","pinyin":"tuchengzhen","location":{"lat":31.654302,"lng":109.191498},"polygon":[]},{"id":"500238116","name":"菱角镇","pinyin":"lingjiaozhen","location":{"lat":31.387266,"lng":109.415057},"polygon":[]},{"id":"500238117","name":"蒲莲镇","pinyin":"pulianzhen","location":{"lat":31.276621,"lng":109.558396},"polygon":[]},{"id":"500238118","name":"红池坝镇","pinyin":"hongchibazhen","location":{"lat":31.537556,"lng":108.905775},"polygon":[]},{"id":"500238200","name":"胜利乡","pinyin":"shenglixiang","location":{"lat":31.437183,"lng":109.442228},"polygon":[]},{"id":"500238202","name":"大河乡","pinyin":"dahexiang","location":{"lat":31.543631,"lng":109.612436},"polygon":[]},{"id":"500238203","name":"天星乡","pinyin":"tianxingxiang","location":{"lat":31.477463,"lng":109.525046},"polygon":[]},{"id":"500238204","name":"长桂乡","pinyin":"changguixiang","location":{"lat":31.499076,"lng":109.328527},"polygon":[]},{"id":"500238209","name":"鱼鳞乡","pinyin":"yulinxiang","location":{"lat":31.674407,"lng":109.5043},"polygon":[]},{"id":"500238210","name":"乌龙乡","pinyin":"wulongxiang","location":{"lat":31.671408,"lng":109.367797},"polygon":[]},{"id":"500238214","name":"花台乡","pinyin":"huataixiang","location":{"lat":31.323944,"lng":109.656411},"polygon":[]},{"id":"500238215","name":"兰英乡","pinyin":"lanyingxiang","location":{"lat":31.416089,"lng":109.856079},"polygon":[]},{"id":"500238216","name":"双阳乡","pinyin":"shuangyangxiang","location":{"lat":31.497341,"lng":109.868059},"polygon":[]},{"id":"500238217","name":"中梁乡","pinyin":"zhongliangxiang","location":{"lat":31.580971,"lng":109.330127},"polygon":[]},{"id":"500238218","name":"天元乡","pinyin":"tianyuanxiang","location":{"lat":31.615663,"lng":109.10702},"polygon":[]},{"id":"500238400","name":"红池坝经济开发区","pinyin":"hongchibajingjikaifaqu","location":{"lat":31.583956,"lng":109.000457},"polygon":[]}]