[{"id":"500243001","name":"汉葭街道","pinyin":"hanjiajiedao","location":{"lat":29.280975,"lng":108.172927},"polygon":[]},{"id":"500243002","name":"绍庆街道","pinyin":"shaoqingjiedao","location":{"lat":29.397484,"lng":108.19537},"polygon":[]},{"id":"500243003","name":"靛水街道","pinyin":"dianshuijiedao","location":{"lat":29.228846,"lng":108.051049},"polygon":[]},{"id":"500243101","name":"保家镇","pinyin":"baojiazhen","location":{"lat":29.429494,"lng":108.310482},"polygon":[]},{"id":"500243102","name":"郁山镇","pinyin":"yushanzhen","location":{"lat":29.544359,"lng":108.450987},"polygon":[]},{"id":"500243103","name":"高谷镇","pinyin":"gaoguzhen","location":{"lat":29.373166,"lng":108.049388},"polygon":[]},{"id":"500243104","name":"桑柘镇","pinyin":"sangzhezhen","location":{"lat":29.29785,"lng":108.431198},"polygon":[]},{"id":"500243105","name":"鹿角镇","pinyin":"lujiaozhen","location":{"lat":29.157701,"lng":108.336814},"polygon":[]},{"id":"500243106","name":"黄家镇","pinyin":"huangjiazhen","location":{"lat":29.13218,"lng":108.072858},"polygon":[]},{"id":"500243107","name":"普子镇","pinyin":"puzizhen","location":{"lat":29.620557,"lng":108.330656},"polygon":[]},{"id":"500243108","name":"龙射镇","pinyin":"longshezhen","location":{"lat":29.53999,"lng":108.176601},"polygon":[]},{"id":"500243109","name":"连湖镇","pinyin":"lianhuzhen","location":{"lat":29.692258,"lng":108.46281},"polygon":[]},{"id":"500243110","name":"万足镇","pinyin":"wanzuzhen","location":{"lat":29.179117,"lng":108.205845},"polygon":[]},{"id":"500243111","name":"新田镇","pinyin":"xintianzhen","location":{"lat":29.235945,"lng":108.297278},"polygon":[]},{"id":"500243112","name":"鞍子镇","pinyin":"anzizhen","location":{"lat":29.122105,"lng":108.443469},"polygon":[]},{"id":"500243113","name":"平安镇","pinyin":"pinganzhen","location":{"lat":29.465926,"lng":108.159645},"polygon":[]},{"id":"500243114","name":"长生镇","pinyin":"changshengzhen","location":{"lat":29.35758,"lng":108.330464},"polygon":[]},{"id":"500243115","name":"梅子垭镇","pinyin":"meiziyazhen","location":{"lat":29.162478,"lng":108.52692},"polygon":[]},{"id":"500243116","name":"太原镇","pinyin":"taiyuanzhen","location":{"lat":29.692751,"lng":108.262153},"polygon":[]},{"id":"500243117","name":"龙溪镇","pinyin":"longxizhen","location":{"lat":29.454559,"lng":108.542321},"polygon":[]},{"id":"500243118","name":"大同镇","pinyin":"datongzhen","location":{"lat":29.35729,"lng":108.533574},"polygon":[]},{"id":"500243201","name":"岩东乡","pinyin":"yandongxiang","location":{"lat":29.283044,"lng":108.243326},"polygon":[]},{"id":"500243202","name":"鹿鸣乡","pinyin":"lumingxiang","location":{"lat":29.472025,"lng":108.072288},"polygon":[]},{"id":"500243204","name":"棣棠乡","pinyin":"ditangxiang","location":{"lat":29.61308,"lng":108.21577},"polygon":[]},{"id":"500243206","name":"三义乡","pinyin":"sanyixiang","location":{"lat":29.76023,"lng":108.402455},"polygon":[]},{"id":"500243207","name":"联合乡","pinyin":"lianhexiang","location":{"lat":29.61165,"lng":108.405945},"polygon":[]},{"id":"500243208","name":"石柳乡","pinyin":"shiliuxiang","location":{"lat":29.636038,"lng":108.455667},"polygon":[]},{"id":"500243210","name":"走马乡","pinyin":"zoumaxiang","location":{"lat":29.433303,"lng":108.477557},"polygon":[]},{"id":"500243211","name":"芦塘乡","pinyin":"lutangxiang","location":{"lat":29.523536,"lng":108.337578},"polygon":[]},{"id":"500243213","name":"乔梓乡","pinyin":"qiaozixiang","location":{"lat":29.401557,"lng":108.403039},"polygon":[]},{"id":"500243217","name":"诸佛乡","pinyin":"zhufoxiang","location":{"lat":29.240702,"lng":108.491246},"polygon":[]},{"id":"500243219","name":"桐楼乡","pinyin":"tonglouxiang","location":{"lat":29.283626,"lng":108.542276},"polygon":[]},{"id":"500243222","name":"善感乡","pinyin":"shanganxiang","location":{"lat":29.062862,"lng":108.348659},"polygon":[]},{"id":"500243223","name":"双龙乡","pinyin":"shuanglongxiang","location":{"lat":29.074709,"lng":108.239303},"polygon":[]},{"id":"500243224","name":"石盘乡","pinyin":"shipanxiang","location":{"lat":29.115034,"lng":108.194622},"polygon":[]},{"id":"500243225","name":"大垭乡","pinyin":"dayaxiang","location":{"lat":29.008677,"lng":107.865728},"polygon":[]},{"id":"500243226","name":"润溪乡","pinyin":"runxixiang","location":{"lat":29.124639,"lng":107.922889},"polygon":[]},{"id":"500243227","name":"朗溪乡","pinyin":"langxixiang","location":{"lat":29.099143,"lng":108.129388},"polygon":[]},{"id":"500243228","name":"龙塘乡","pinyin":"longtangxiang","location":{"lat":29.081145,"lng":107.981816},"polygon":[]}]