[{"id":"500230001","name":"三合街道","pinyin":"sanhejiedao","location":{"latitude":29.83014,"longitude":107.722116},"polygon":[]},{"id":"500230002","name":"名山街道","pinyin":"mingshanjiedao","location":{"latitude":29.91596,"longitude":107.718419},"polygon":[]},{"id":"500230101","name":"虎威镇","pinyin":"huweizhen","location":{"latitude":29.903121,"longitude":107.629294},"polygon":[]},{"id":"500230102","name":"社坛镇","pinyin":"shetanzhen","location":{"latitude":29.970316,"longitude":107.608824},"polygon":[]},{"id":"500230103","name":"三元镇","pinyin":"sanyuanzhen","location":{"latitude":30.127631,"longitude":107.644163},"polygon":[]},{"id":"500230104","name":"许明寺镇","pinyin":"xumingsizhen","location":{"latitude":30.170619,"longitude":107.617268},"polygon":[]},{"id":"500230105","name":"董家镇","pinyin":"dongjiazhen","location":{"latitude":30.211082,"longitude":107.699137},"polygon":[]},{"id":"500230106","name":"树人镇","pinyin":"shurenzhen","location":{"latitude":29.97942,"longitude":107.74895},"polygon":[]},{"id":"500230107","name":"十直镇","pinyin":"shizhizhen","location":{"latitude":30.041315,"longitude":107.803662},"polygon":[]},{"id":"500230109","name":"高家镇","pinyin":"gaojiazhen","location":{"latitude":29.971399,"longitude":107.932346},"polygon":[]},{"id":"500230110","name":"兴义镇","pinyin":"xingyizhen","location":{"latitude":29.917475,"longitude":107.83553},"polygon":[]},{"id":"500230111","name":"双路镇","pinyin":"shuangluzhen","location":{"latitude":29.840291,"longitude":107.817038},"polygon":[]},{"id":"500230112","name":"江池镇","pinyin":"jiangchizhen","location":{"latitude":29.910792,"longitude":107.996133},"polygon":[]},{"id":"500230113","name":"龙河镇","pinyin":"longhezhen","location":{"latitude":29.83274,"longitude":108.003581},"polygon":[]},{"id":"500230114","name":"武平镇","pinyin":"wupingzhen","location":{"latitude":29.787429,"longitude":108.090906},"polygon":[]},{"id":"500230115","name":"包鸾镇","pinyin":"baoluanzhen","location":{"latitude":29.732823,"longitude":107.710602},"polygon":[]},{"id":"500230116","name":"湛普镇","pinyin":"zhanpuzhen","location":{"latitude":29.815347,"longitude":107.643834},"polygon":[]},{"id":"500230118","name":"保合镇","pinyin":"baohezhen","location":{"latitude":30.036667,"longitude":107.708525},"polygon":[]},{"id":"500230119","name":"南天湖镇","pinyin":"nantianhuzhen","location":{"latitude":29.699245,"longitude":107.924664},"polygon":[]},{"id":"500230120","name":"仁沙镇","pinyin":"renshazhen","location":{"latitude":30.065633,"longitude":107.621975},"polygon":[]},{"id":"500230121","name":"兴龙镇","pinyin":"xinglongzhen","location":{"latitude":30.01385,"longitude":107.519022},"polygon":[]},{"id":"500230122","name":"龙孔镇","pinyin":"longkongzhen","location":{"latitude":30.06366,"longitude":107.90555},"polygon":[]},{"id":"500230123","name":"暨龙镇","pinyin":"jilongzhen","location":{"latitude":29.703296,"longitude":108.046744},"polygon":[]},{"id":"500230124","name":"双龙镇","pinyin":"shuanglongzhen","location":{"latitude":30.123395,"longitude":107.734328},"polygon":[]},{"id":"500230125","name":"仙女湖镇","pinyin":"xiannvhuzhen","location":{"latitude":29.646022,"longitude":107.779267},"polygon":[]},{"id":"500230202","name":"青龙乡","pinyin":"qinglongxiang","location":{"latitude":30.161963,"longitude":107.805981},"polygon":[]},{"id":"500230206","name":"太平坝乡","pinyin":"taipingbaxiang","location":{"latitude":29.741575,"longitude":108.146066},"polygon":[]},{"id":"500230207","name":"都督乡","pinyin":"duduxiang","location":{"latitude":29.643398,"longitude":108.126227},"polygon":[]},{"id":"500230209","name":"栗子乡","pinyin":"lizixiang","location":{"latitude":29.804557,"longitude":107.929149},"polygon":[]},{"id":"500230210","name":"三建乡","pinyin":"sanjianxiang","location":{"latitude":29.801949,"longitude":107.869934},"polygon":[]}]