[{"id":"659003001","name":"齐干却勒街道","pinyin":"qiganquelejiedao","location":{"latitude":39.868087,"longitude":79.071265},"polygon":[]},{"id":"659003002","name":"前海街道","pinyin":"qianhaijiedao","location":{"latitude":39.855641,"longitude":79.085487},"polygon":[]},{"id":"659003003","name":"永安坝街道","pinyin":"yonganbajiedao","location":{"latitude":39.849538,"longitude":79.019571},"polygon":[]},{"id":"659003404","name":"县英艾力克大畜场","pinyin":"xianyingailikedaxuchang","location":{"latitude":39.297626,"longitude":75.881453},"polygon":[]},{"id":"659003501","name":"兵团四十一团","pinyin":"bingtuansishiyituan","location":{"latitude":39.266104,"longitude":76.048744},"polygon":[]},{"id":"659003504","name":"兵团四十四团","pinyin":"bingtuansishisituan","location":{"latitude":39.811785,"longitude":79.183268},"polygon":[]},{"id":"659003509","name":"兵团四十九团","pinyin":"bingtuansishijiutuan","location":{"latitude":39.695934,"longitude":78.952541},"polygon":[]},{"id":"659003510","name":"兵团五十团","pinyin":"bingtuanwushituan","location":{"latitude":39.92843,"longitude":79.398266},"polygon":[]},{"id":"659003511","name":"兵团五十一团","pinyin":"bingtuanwushiyituan","location":{"latitude":39.972316,"longitude":79.123407},"polygon":[]},{"id":"659003513","name":"兵团五十三团","pinyin":"bingtuanwushisantuan","location":{"latitude":40.024795,"longitude":79.433695},"polygon":[]},{"id":"659003514","name":"兵团图木舒克市喀拉拜勒镇","pinyin":"bingtuantumushukeshikalabailezhen","location":{"latitude":39.769663,"longitude":79.015775},"polygon":[]}]