[{"id":"659006100","name":"博古其镇","pinyin":"boguqizhen","location":{"lat":41.788789,"lng":85.987776},"polygon":[]},{"id":"659006101","name":"双丰镇","pinyin":"shuangfengzhen","location":{"lat":41.828045,"lng":85.495949},"polygon":[]},{"id":"659006103","name":"四十里城子镇","pinyin":"sishilichengzizhen","location":{"lat":41.966221,"lng":86.509257},"polygon":[]},{"id":"659006203","name":"查汗采开乡","pinyin":"chahancaikaixiang","location":{"lat":42.070828,"lng":86.468945},"polygon":[]},{"id":"659006501","name":"兵团二十九团","pinyin":"bingtuanershijiutuan","location":{"lat":41.790169,"lng":85.653714},"polygon":[]},{"id":"659006502","name":"兵团二十七团","pinyin":"bingtuanershiqituan","location":{"lat":42.011729,"lng":86.503076},"polygon":[]},{"id":"659006503","name":"兵团二二三团","pinyin":"bingtuanerersantuan","location":{"lat":42.268121,"lng":86.544704},"polygon":[]},{"id":"659006504","name":"兵团二师二十四团","pinyin":"bingtuanershiershisituan","location":{"lat":42.267649,"lng":86.714783},"polygon":[]},{"id":"659006505","name":"兵团二十二团","pinyin":"bingtuanershiertuan","location":{"lat":42.188662,"lng":86.445218},"polygon":[]},{"id":"659006506","name":"兵团三十八团","pinyin":"bingtuansanshibatuan","location":{"lat":37.812886,"lng":84.259454},"polygon":[]}]