[{"id":"110115001","name":"兴丰街道","pinyin":"xingfengjiedao","location":{"latitude":39.727008,"longitude":116.304677},"polygon":[]},{"id":"110115002","name":"林校路街道","pinyin":"linxiaolujiedao","location":{"latitude":39.711804,"longitude":116.321169},"polygon":[]},{"id":"110115003","name":"清源街道","pinyin":"qingyuanjiedao","location":{"latitude":39.759997,"longitude":116.32525},"polygon":[]},{"id":"110115009","name":"观音寺街道","pinyin":"guanyinsijiedao","location":{"latitude":39.748975,"longitude":116.359932},"polygon":[]},{"id":"110115010","name":"天宫院街道","pinyin":"tiangongyuanjiedao","location":{"latitude":39.6781,"longitude":116.319229},"polygon":[]},{"id":"110115011","name":"高米店街道","pinyin":"gaomidianjiedao","location":{"latitude":39.767036,"longitude":116.324267},"polygon":[]},{"id":"110115012","name":"荣华街道","pinyin":"ronghuajiedao","location":{"latitude":39.78243,"longitude":116.495967},"polygon":[]},{"id":"110115013","name":"博兴街道","pinyin":"boxingjiedao","location":{"latitude":39.762936,"longitude":116.499313},"polygon":[]},{"id":"110115103","name":"青云店镇","pinyin":"qingyundianzhen","location":{"latitude":39.696662,"longitude":116.502694},"polygon":[]},{"id":"110115104","name":"采育镇","pinyin":"caiyuzhen","location":{"latitude":39.638284,"longitude":116.662929},"polygon":[]},{"id":"110115105","name":"安定镇","pinyin":"andingzhen","location":{"latitude":39.621328,"longitude":116.507109},"polygon":[]},{"id":"110115106","name":"礼贤镇","pinyin":"lixianzhen","location":{"latitude":39.554335,"longitude":116.398039},"polygon":[]},{"id":"110115107","name":"榆垡镇","pinyin":"yufazhen","location":{"latitude":39.510404,"longitude":116.330501},"polygon":[]},{"id":"110115108","name":"庞各庄镇","pinyin":"panggezhuangzhen","location":{"latitude":39.609701,"longitude":116.295805},"polygon":[]},{"id":"110115109","name":"北臧村镇","pinyin":"beizangcunzhen","location":{"latitude":39.676014,"longitude":116.24853},"polygon":[]},{"id":"110115110","name":"魏善庄镇","pinyin":"weishanzhuangzhen","location":{"latitude":39.6497,"longitude":116.41881},"polygon":[]},{"id":"110115111","name":"长子营镇","pinyin":"zhangziyingzhen","location":{"latitude":39.673199,"longitude":116.603434},"polygon":[]},{"id":"110115112","name":"亦庄镇","pinyin":"yizhuangzhen","location":{"latitude":39.800159,"longitude":116.481913},"polygon":[]},{"id":"110115113","name":"黄村镇","pinyin":"huangcunzhen","location":{"latitude":39.750068,"longitude":116.277731},"polygon":[]},{"id":"110115114","name":"旧宫镇","pinyin":"jiugongzhen","location":{"latitude":39.790774,"longitude":116.444375},"polygon":[]},{"id":"110115115","name":"西红门镇","pinyin":"xihongmenzhen","location":{"latitude":39.765531,"longitude":116.382442},"polygon":[]},{"id":"110115116","name":"瀛海镇","pinyin":"yinghaizhen","location":{"latitude":39.756149,"longitude":116.452426},"polygon":[]}]