[{"id":"120119001","name":"文昌街道","pinyin":"wenchangjiedao","location":{"latitude":40.045407,"longitude":117.404916},"polygon":[]},{"id":"120119100","name":"渔阳镇","pinyin":"yuyangzhen","location":{"latitude":40.082878,"longitude":117.470149},"polygon":[]},{"id":"120119101","name":"洇溜镇","pinyin":"yinliuzhen","location":{"latitude":40.002628,"longitude":117.367147},"polygon":[]},{"id":"120119102","name":"官庄镇","pinyin":"guanzhuangzhen","location":{"latitude":40.08048,"longitude":117.323422},"polygon":[]},{"id":"120119103","name":"马伸桥镇","pinyin":"mashenqiaozhen","location":{"latitude":40.094352,"longitude":117.60423},"polygon":[]},{"id":"120119104","name":"下营镇","pinyin":"xiayingzhen","location":{"latitude":40.195555,"longitude":117.47665},"polygon":[]},{"id":"120119105","name":"邦均镇","pinyin":"bangjunzhen","location":{"latitude":40.004004,"longitude":117.28567},"polygon":[]},{"id":"120119106","name":"别山镇","pinyin":"bieshanzhen","location":{"latitude":39.971469,"longitude":117.501375},"polygon":[]},{"id":"120119108","name":"尤古庄镇","pinyin":"youguzhuangzhen","location":{"latitude":39.922789,"longitude":117.262042},"polygon":[]},{"id":"120119109","name":"上仓镇","pinyin":"shangcangzhen","location":{"latitude":39.907862,"longitude":117.392218},"polygon":[]},{"id":"120119111","name":"下仓镇","pinyin":"xiacangzhen","location":{"latitude":39.800036,"longitude":117.49191},"polygon":[]},{"id":"120119112","name":"罗庄子镇","pinyin":"luozhuangzizhen","location":{"latitude":40.134717,"longitude":117.422404},"polygon":[]},{"id":"120119113","name":"白涧镇","pinyin":"baijianzhen","location":{"latitude":40.023059,"longitude":117.233198},"polygon":[]},{"id":"120119115","name":"侯家营镇","pinyin":"houjiayingzhen","location":{"latitude":39.841423,"longitude":117.276623},"polygon":[]},{"id":"120119116","name":"桑梓镇","pinyin":"sangzizhen","location":{"latitude":39.931162,"longitude":117.173187},"polygon":[]},{"id":"120119117","name":"东施古镇","pinyin":"dongshiguzhen","location":{"latitude":39.894009,"longitude":117.322854},"polygon":[]},{"id":"120119118","name":"下窝头镇","pinyin":"xiawotouzhen","location":{"latitude":39.831677,"longitude":117.40757},"polygon":[]},{"id":"120119119","name":"杨津庄镇","pinyin":"yangjinzhuangzhen","location":{"latitude":39.875428,"longitude":117.46933},"polygon":[]},{"id":"120119120","name":"出头岭镇","pinyin":"chutoulingzhen","location":{"latitude":40.068962,"longitude":117.706202},"polygon":[]},{"id":"120119121","name":"西龙虎峪镇","pinyin":"xilonghuyuzhen","location":{"latitude":40.004622,"longitude":117.741041},"polygon":[]},{"id":"120119122","name":"穿芳峪镇","pinyin":"chuanfangyuzhen","location":{"latitude":40.112843,"longitude":117.512525},"polygon":[]},{"id":"120119123","name":"东二营镇","pinyin":"dongeryingzhen","location":{"latitude":39.952617,"longitude":117.295463},"polygon":[]},{"id":"120119124","name":"许家台镇","pinyin":"xujiataizhen","location":{"latitude":40.068595,"longitude":117.242515},"polygon":[]},{"id":"120119125","name":"礼明庄镇","pinyin":"limingzhuangzhen","location":{"latitude":39.945831,"longitude":117.430467},"polygon":[]},{"id":"120119126","name":"东赵各庄镇","pinyin":"dongzhaogezhuangzhen","location":{"latitude":39.961724,"longitude":117.365159},"polygon":[]},{"id":"120119127","name":"州河湾镇","pinyin":"zhouhewanzhen","location":{"latitude":39.998464,"longitude":117.619576},"polygon":[]},{"id":"120119203","name":"孙各庄满族乡","pinyin":"sungezhuangmanzuxiang","location":{"latitude":40.137147,"longitude":117.603247},"polygon":[]}]