[{"id":"120116005","name":"杭州道街道","pinyin":"hangzhoudaojiedao","location":{"latitude":39.037603,"longitude":117.663237},"polygon":[]},{"id":"120116006","name":"新河街道","pinyin":"xinhejiedao","location":{"latitude":39.068745,"longitude":117.621792},"polygon":[]},{"id":"120116007","name":"大沽街道","pinyin":"dagujiedao","location":{"latitude":38.894402,"longitude":117.602988},"polygon":[]},{"id":"120116008","name":"新北街道","pinyin":"xinbeijiedao","location":{"latitude":39.069794,"longitude":117.660506},"polygon":[]},{"id":"120116009","name":"北塘街道","pinyin":"beitangjiedao","location":{"latitude":39.143843,"longitude":117.637913},"polygon":[]},{"id":"120116011","name":"胡家园街道","pinyin":"hujiayuanjiedao","location":{"latitude":39.037244,"longitude":117.571152},"polygon":[]},{"id":"120116012","name":"泰达街道","pinyin":"taidajiedao","location":{"latitude":39.047029,"longitude":117.707202},"polygon":[]},{"id":"120116021","name":"汉沽街道","pinyin":"hangujiedao","location":{"latitude":39.235933,"longitude":117.94607},"polygon":[]},{"id":"120116022","name":"寨上街道","pinyin":"zhaishangjiedao","location":{"latitude":39.188442,"longitude":117.803178},"polygon":[]},{"id":"120116033","name":"古林街道","pinyin":"gulinjiedao","location":{"latitude":38.646203,"longitude":117.542067},"polygon":[]},{"id":"120116034","name":"海滨街道","pinyin":"haibinjiedao","location":{"latitude":38.676654,"longitude":117.430704},"polygon":[]},{"id":"120116036","name":"塘沽街道","pinyin":"tanggujiedao","location":{"latitude":39.02413,"longitude":117.751102},"polygon":[]},{"id":"120116037","name":"茶淀街道","pinyin":"chadianjiedao","location":{"latitude":39.236581,"longitude":117.771806},"polygon":[]},{"id":"120116038","name":"大港街道","pinyin":"dagangjiedao","location":{"latitude":38.836497,"longitude":117.438196},"polygon":[]},{"id":"120116100","name":"新城镇","pinyin":"xinchengzhen","location":{"latitude":38.990031,"longitude":117.626631},"polygon":[]},{"id":"120116102","name":"杨家泊镇","pinyin":"yangjiabozhen","location":{"latitude":39.294928,"longitude":117.946757},"polygon":[]},{"id":"120116105","name":"太平镇","pinyin":"taipingzhen","location":{"latitude":38.628056,"longitude":117.304524},"polygon":[]},{"id":"120116106","name":"小王庄镇","pinyin":"xiaowangzhuangzhen","location":{"latitude":38.696295,"longitude":117.215626},"polygon":[]},{"id":"120116107","name":"中塘镇","pinyin":"zhongtangzhen","location":{"latitude":38.792991,"longitude":117.252391},"polygon":[]},{"id":"120116401","name":"保税区","pinyin":"baoshuiqu","location":{"latitude":39.010498,"longitude":117.760014},"polygon":[]},{"id":"120116402","name":"天津滨海新区高新技术产业开发区","pinyin":"tianjinbinhaixinqugaoxinjishuchanyekaifaqu","location":{"latitude":39.129236,"longitude":117.529268},"polygon":[]},{"id":"120116403","name":"东疆保税港区","pinyin":"dongjiangbaoshuigangqu","location":{"latitude":39.023166,"longitude":117.812239},"polygon":[]},{"id":"120116405","name":"临港经济区","pinyin":"lingangjingjiqu","location":{"latitude":38.864881,"longitude":117.704097},"polygon":[]},{"id":"120116406","name":"中新天津生态城","pinyin":"zhongxintianjinshengtaicheng","location":{"latitude":39.132144,"longitude":117.757542},"polygon":[]},{"id":"120116408","name":"南港工业区","pinyin":"nanganggongyequ","location":{"latitude":38.715815,"longitude":117.587652},"polygon":[]}]