[{"id":"310112001","name":"江川路街道","pinyin":"jiangchuanlujiedao","location":{"latitude":31.007775,"longitude":121.422009},"polygon":[]},{"id":"310112006","name":"古美街道","pinyin":"gumeijiedao","location":{"latitude":31.15003,"longitude":121.386788},"polygon":[]},{"id":"310112008","name":"新虹街道","pinyin":"xinhongjiedao","location":{"latitude":31.205714,"longitude":121.308165},"polygon":[]},{"id":"310112009","name":"浦锦街道","pinyin":"pujinjiedao","location":{"latitude":31.105973,"longitude":121.500933},"polygon":[]},{"id":"310112101","name":"莘庄镇","pinyin":"shenzhuangzhen","location":{"latitude":31.12178,"longitude":121.369996},"polygon":[]},{"id":"310112102","name":"七宝镇","pinyin":"qibaozhen","location":{"latitude":31.15762,"longitude":121.351355},"polygon":[]},{"id":"310112103","name":"颛桥镇","pinyin":"zhuanqiaozhen","location":{"latitude":31.061758,"longitude":121.412502},"polygon":[]},{"id":"310112106","name":"华漕镇","pinyin":"huacaozhen","location":{"latitude":31.207742,"longitude":121.293544},"polygon":[]},{"id":"310112107","name":"虹桥镇","pinyin":"hongqiaozhen","location":{"latitude":31.176751,"longitude":121.384762},"polygon":[]},{"id":"310112108","name":"梅陇镇","pinyin":"meilongzhen","location":{"latitude":31.103756,"longitude":121.426176},"polygon":[]},{"id":"310112110","name":"吴泾镇","pinyin":"wujingzhen","location":{"latitude":31.054649,"longitude":121.455829},"polygon":[]},{"id":"310112112","name":"马桥镇","pinyin":"maqiaozhen","location":{"latitude":31.019652,"longitude":121.362749},"polygon":[]},{"id":"310112114","name":"浦江镇","pinyin":"pujiangzhen","location":{"latitude":31.075751,"longitude":121.516308},"polygon":[]},{"id":"310112501","name":"莘庄工业区","pinyin":"shenzhuanggongyequ","location":{"latitude":31.067723,"longitude":121.375738},"polygon":[]}]