[{"id":"310118001","name":"夏阳街道","pinyin":"xiayangjiedao","location":{"latitude":31.128057,"longitude":121.123683},"polygon":[]},{"id":"310118002","name":"盈浦街道","pinyin":"yingpujiedao","location":{"latitude":31.154849,"longitude":121.095176},"polygon":[]},{"id":"310118003","name":"香花桥街道","pinyin":"xianghuaqiaojiedao","location":{"latitude":31.188418,"longitude":121.12597},"polygon":[]},{"id":"310118102","name":"朱家角镇","pinyin":"zhujiajiaozhen","location":{"latitude":31.090076,"longitude":121.050192},"polygon":[]},{"id":"310118103","name":"练塘镇","pinyin":"liantangzhen","location":{"latitude":30.996749,"longitude":121.047186},"polygon":[]},{"id":"310118104","name":"金泽镇","pinyin":"jinzezhen","location":{"latitude":31.07523,"longitude":120.977857},"polygon":[]},{"id":"310118105","name":"赵巷镇","pinyin":"zhaoxiangzhen","location":{"latitude":31.14337,"longitude":121.218161},"polygon":[]},{"id":"310118106","name":"徐泾镇","pinyin":"xujingzhen","location":{"latitude":31.17092,"longitude":121.279249},"polygon":[]},{"id":"310118107","name":"华新镇","pinyin":"huaxinzhen","location":{"latitude":31.216338,"longitude":121.233077},"polygon":[]},{"id":"310118109","name":"重固镇","pinyin":"zhongguzhen","location":{"latitude":31.203558,"longitude":121.187086},"polygon":[]},{"id":"310118110","name":"白鹤镇","pinyin":"baihezhen","location":{"latitude":31.255048,"longitude":121.116608},"polygon":[]}]