[{"id":"500120001","name":"璧城街道","pinyin":"bichengjiedao","location":{"latitude":29.629972,"longitude":106.251531},"polygon":[]},{"id":"500120002","name":"青杠街道","pinyin":"qinggangjiedao","location":{"latitude":29.480733,"longitude":106.238176},"polygon":[]},{"id":"500120003","name":"璧泉街道","pinyin":"biquanjiedao","location":{"latitude":29.554859,"longitude":106.218762},"polygon":[]},{"id":"500120004","name":"来凤街道","pinyin":"laifengjiedao","location":{"latitude":29.443835,"longitude":106.1983},"polygon":[]},{"id":"500120005","name":"丁家街道","pinyin":"dingjiajiedao","location":{"latitude":29.403867,"longitude":106.120163},"polygon":[]},{"id":"500120006","name":"大路街道","pinyin":"dalujiedao","location":{"latitude":29.726001,"longitude":106.233563},"polygon":[]},{"id":"500120100","name":"河边镇","pinyin":"hebianzhen","location":{"latitude":29.650533,"longitude":106.196344},"polygon":[]},{"id":"500120101","name":"福禄镇","pinyin":"fuluzhen","location":{"latitude":29.624212,"longitude":106.143404},"polygon":[]},{"id":"500120102","name":"大兴镇","pinyin":"daxingzhen","location":{"latitude":29.532179,"longitude":106.166102},"polygon":[]},{"id":"500120103","name":"广普镇","pinyin":"guangpuzhen","location":{"latitude":29.325279,"longitude":106.135639},"polygon":[]},{"id":"500120104","name":"三合镇","pinyin":"sanhezhen","location":{"latitude":29.341389,"longitude":106.086899},"polygon":[]},{"id":"500120105","name":"正兴镇","pinyin":"zhengxingzhen","location":{"latitude":29.485688,"longitude":106.105193},"polygon":[]},{"id":"500120106","name":"八塘镇","pinyin":"batangzhen","location":{"latitude":29.828085,"longitude":106.298796},"polygon":[]},{"id":"500120107","name":"七塘镇","pinyin":"qitangzhen","location":{"latitude":29.78236,"longitude":106.260831},"polygon":[]},{"id":"500120108","name":"健龙镇","pinyin":"jianlongzhen","location":{"latitude":29.36274,"longitude":106.195393},"polygon":[]}]