[{"id":"500108001","name":"铜元局街道","pinyin":"tongyuanjujiedao","location":{"latitude":29.528353,"longitude":106.540294},"polygon":[]},{"id":"500108002","name":"花园路街道","pinyin":"huayuanlujiedao","location":{"latitude":29.515467,"longitude":106.5504},"polygon":[]},{"id":"500108003","name":"南坪街道","pinyin":"nanpingjiedao","location":{"latitude":29.532266,"longitude":106.571304},"polygon":[]},{"id":"500108004","name":"海棠溪街道","pinyin":"haitangxijiedao","location":{"latitude":29.524364,"longitude":106.580496},"polygon":[]},{"id":"500108005","name":"龙门浩街道","pinyin":"longmenhaojiedao","location":{"latitude":29.55289,"longitude":106.592653},"polygon":[]},{"id":"500108006","name":"弹子石街道","pinyin":"danzishijiedao","location":{"latitude":29.589959,"longitude":106.586886},"polygon":[]},{"id":"500108007","name":"南山街道","pinyin":"nanshanjiedao","location":{"latitude":29.52795,"longitude":106.602489},"polygon":[]},{"id":"500108008","name":"天文街道","pinyin":"tianwenjiedao","location":{"latitude":29.513185,"longitude":106.634274},"polygon":[]},{"id":"500108101","name":"南坪镇","pinyin":"nanpingzhen","location":{"latitude":29.527708,"longitude":106.586482},"polygon":[]},{"id":"500108102","name":"涂山镇","pinyin":"tushanzhen","location":{"latitude":29.579917,"longitude":106.604497},"polygon":[]},{"id":"500108103","name":"鸡冠石镇","pinyin":"jiguanshizhen","location":{"latitude":29.591134,"longitude":106.620841},"polygon":[]},{"id":"500108105","name":"峡口镇","pinyin":"xiakouzhen","location":{"latitude":29.555327,"longitude":106.683659},"polygon":[]},{"id":"500108106","name":"长生桥镇","pinyin":"changshengqiaozhen","location":{"latitude":29.500761,"longitude":106.672014},"polygon":[]},{"id":"500108107","name":"迎龙镇","pinyin":"yinglongzhen","location":{"latitude":29.520515,"longitude":106.723268},"polygon":[]},{"id":"500108108","name":"广阳镇","pinyin":"guangyangzhen","location":{"latitude":29.577253,"longitude":106.763365},"polygon":[]}]