[{"id":"500152001","name":"梓潼街道","pinyin":"zitongjiedao","location":{"latitude":30.170575,"longitude":105.847205},"polygon":[]},{"id":"500152002","name":"桂林街道","pinyin":"guilinjiedao","location":{"latitude":30.227197,"longitude":105.817606},"polygon":[]},{"id":"500152100","name":"上和镇","pinyin":"shanghezhen","location":{"latitude":30.170389,"longitude":105.953784},"polygon":[]},{"id":"500152101","name":"龙形镇","pinyin":"longxingzhen","location":{"latitude":30.249949,"longitude":105.936135},"polygon":[]},{"id":"500152102","name":"古溪镇","pinyin":"guxizhen","location":{"latitude":30.343123,"longitude":105.854126},"polygon":[]},{"id":"500152103","name":"宝龙镇","pinyin":"baolongzhen","location":{"latitude":30.357195,"longitude":105.942205},"polygon":[]},{"id":"500152104","name":"玉溪镇","pinyin":"yuxizhen","location":{"latitude":30.311218,"longitude":105.755859},"polygon":[]},{"id":"500152105","name":"米心镇","pinyin":"mixinzhen","location":{"latitude":30.387546,"longitude":105.803081},"polygon":[]},{"id":"500152106","name":"群力镇","pinyin":"qunlizhen","location":{"latitude":30.293956,"longitude":105.833562},"polygon":[]},{"id":"500152107","name":"双江镇","pinyin":"shuangjiangzhen","location":{"latitude":30.228182,"longitude":105.70948},"polygon":[]},{"id":"500152108","name":"花岩镇","pinyin":"huayanzhen","location":{"latitude":30.246345,"longitude":105.646464},"polygon":[]},{"id":"500152109","name":"柏梓镇","pinyin":"baizizhen","location":{"latitude":30.094139,"longitude":105.705892},"polygon":[]},{"id":"500152110","name":"崇龛镇","pinyin":"chongkanzhen","location":{"latitude":30.14742,"longitude":105.645725},"polygon":[]},{"id":"500152111","name":"塘坝镇","pinyin":"tangbazhen","location":{"latitude":30.002318,"longitude":105.802527},"polygon":[]},{"id":"500152112","name":"新胜镇","pinyin":"xinshengzhen","location":{"latitude":29.940437,"longitude":105.742521},"polygon":[]},{"id":"500152113","name":"太安镇","pinyin":"taianzhen","location":{"latitude":30.085269,"longitude":105.805444},"polygon":[]},{"id":"500152114","name":"小渡镇","pinyin":"xiaoduzhen","location":{"latitude":29.94859,"longitude":105.877658},"polygon":[]},{"id":"500152115","name":"卧佛镇","pinyin":"wofozhen","location":{"latitude":29.891701,"longitude":105.793694},"polygon":[]},{"id":"500152116","name":"五桂镇","pinyin":"wuguizhen","location":{"latitude":29.82538,"longitude":105.760607},"polygon":[]},{"id":"500152117","name":"田家镇","pinyin":"tianjiazhen","location":{"latitude":30.08257,"longitude":105.866601},"polygon":[]},{"id":"500152118","name":"别口镇","pinyin":"biekouzhen","location":{"latitude":30.110025,"longitude":105.954455},"polygon":[]},{"id":"500152119","name":"寿桥镇","pinyin":"shouqiaozhen","location":{"latitude":29.893438,"longitude":105.90244},"polygon":[]}]