[{"id":"500156100","name":"巷口镇","pinyin":"xiangkouzhen","location":{"latitude":29.300762,"longitude":107.76401},"polygon":[]},{"id":"500156101","name":"桐梓镇","pinyin":"tongzizhen","location":{"latitude":29.541567,"longitude":107.958421},"polygon":[]},{"id":"500156102","name":"火炉镇","pinyin":"huoluzhen","location":{"latitude":29.412156,"longitude":107.888734},"polygon":[]},{"id":"500156103","name":"江口镇","pinyin":"jiangkouzhen","location":{"latitude":29.277872,"longitude":107.894408},"polygon":[]},{"id":"500156104","name":"羊角镇","pinyin":"yangjiaozhen","location":{"latitude":29.39771,"longitude":107.610256},"polygon":[]},{"id":"500156105","name":"土坎镇","pinyin":"tukanzhen","location":{"latitude":29.406267,"longitude":107.676474},"polygon":[]},{"id":"500156106","name":"长坝镇","pinyin":"changbazhen","location":{"latitude":29.301524,"longitude":107.499085},"polygon":[]},{"id":"500156107","name":"白马镇","pinyin":"baimazhen","location":{"latitude":29.33234,"longitude":107.582883},"polygon":[]},{"id":"500156108","name":"鸭江镇","pinyin":"yajiangzhen","location":{"latitude":29.464436,"longitude":107.409672},"polygon":[]},{"id":"500156109","name":"平桥镇","pinyin":"pingqiaozhen","location":{"latitude":29.373344,"longitude":107.336141},"polygon":[]},{"id":"500156110","name":"仙女山镇","pinyin":"xiannvshanzhen","location":{"latitude":29.453569,"longitude":107.763483},"polygon":[]},{"id":"500156111","name":"和顺镇","pinyin":"heshunzhen","location":{"latitude":29.420424,"longitude":107.459357},"polygon":[]},{"id":"500156112","name":"双河镇","pinyin":"shuanghezhen","location":{"latitude":29.526454,"longitude":107.685027},"polygon":[]},{"id":"500156201","name":"黄莺乡","pinyin":"huangyingxiang","location":{"latitude":29.209213,"longitude":107.673652},"polygon":[]},{"id":"500156207","name":"后坪苗族土家族乡","pinyin":"houpingmiaozutujiazuxiang","location":{"latitude":29.567828,"longitude":108.034034},"polygon":[]},{"id":"500156209","name":"接龙乡","pinyin":"jielongxiang","location":{"latitude":29.60302,"longitude":107.893043},"polygon":[]},{"id":"500156210","name":"土地乡","pinyin":"tudixiang","location":{"latitude":29.5089,"longitude":107.882552},"polygon":[]},{"id":"500156213","name":"沧沟乡","pinyin":"canggouxiang","location":{"latitude":29.45092,"longitude":107.982703},"polygon":[]},{"id":"500156216","name":"石桥苗族土家族乡","pinyin":"shiqiaomiaozutujiazuxiang","location":{"latitude":29.170128,"longitude":107.804655},"polygon":[]},{"id":"500156218","name":"浩口苗族仡佬族乡","pinyin":"haokoumiaozugelaozuxiang","location":{"latitude":29.0901,"longitude":107.840108},"polygon":[]},{"id":"500156219","name":"文复苗族土家族乡","pinyin":"wenfumiaozutujiazuxiang","location":{"latitude":29.249201,"longitude":107.964593},"polygon":[]},{"id":"500156225","name":"赵家乡","pinyin":"zhaojiaxiang","location":{"latitude":29.243863,"longitude":107.547428},"polygon":[]},{"id":"500156226","name":"白云乡","pinyin":"baiyunxiang","location":{"latitude":29.310866,"longitude":107.417097},"polygon":[]},{"id":"500156227","name":"大洞河乡","pinyin":"dadonghexiang","location":{"latitude":29.233187,"longitude":107.439561},"polygon":[]},{"id":"500156231","name":"庙垭乡","pinyin":"miaoyaxiang","location":{"latitude":29.433862,"longitude":107.332763},"polygon":[]},{"id":"500156234","name":"凤来乡","pinyin":"fenglaixiang","location":{"latitude":29.407867,"longitude":107.275241},"polygon":[]}]