[{"id":"500103001","name":"七星岗街道","pinyin":"qixinggangjiedao","location":{"latitude":29.556149,"longitude":106.563613},"polygon":[]},{"id":"500103003","name":"解放碑街道","pinyin":"jiefangbeijiedao","location":{"latitude":29.557256,"longitude":106.57502},"polygon":[]},{"id":"500103004","name":"两路口街道","pinyin":"lianglukoujiedao","location":{"latitude":29.548872,"longitude":106.538457},"polygon":[]},{"id":"500103005","name":"上清寺街道","pinyin":"shangqingsijiedao","location":{"latitude":29.558895,"longitude":106.54594},"polygon":[]},{"id":"500103007","name":"菜园坝街道","pinyin":"caiyuanbajiedao","location":{"latitude":29.541116,"longitude":106.538555},"polygon":[]},{"id":"500103008","name":"南纪门街道","pinyin":"nanjimenjiedao","location":{"latitude":29.548599,"longitude":106.574492},"polygon":[]},{"id":"500103009","name":"望龙门街道","pinyin":"wanglongmenjiedao","location":{"latitude":29.553985,"longitude":106.584406},"polygon":[]},{"id":"500103010","name":"朝天门街道","pinyin":"zhaotianmenjiedao","location":{"latitude":29.564052,"longitude":106.585031},"polygon":[]},{"id":"500103011","name":"大溪沟街道","pinyin":"daxigoujiedao","location":{"latitude":29.562272,"longitude":106.560616},"polygon":[]},{"id":"500103012","name":"大坪街道","pinyin":"dapingjiedao","location":{"latitude":29.538447,"longitude":106.52032},"polygon":[]},{"id":"500103013","name":"化龙桥街道","pinyin":"hualongqiaojiedao","location":{"latitude":29.551422,"longitude":106.51382},"polygon":[]},{"id":"500103014","name":"石油路街道","pinyin":"shiyoulujiedao","location":{"latitude":29.539778,"longitude":106.505714},"polygon":[]}]