[{"id":"500110001","name":"万盛街道","pinyin":"wanshengjiedao","location":{"latitude":28.961117,"longitude":106.928247},"polygon":[]},{"id":"500110002","name":"东林街道","pinyin":"donglinjiedao","location":{"latitude":28.942644,"longitude":106.936898},"polygon":[]},{"id":"500110003","name":"古南街道","pinyin":"gunanjiedao","location":{"latitude":28.978466,"longitude":106.666336},"polygon":[]},{"id":"500110004","name":"文龙街道","pinyin":"wenlongjiedao","location":{"latitude":29.060192,"longitude":106.673657},"polygon":[]},{"id":"500110005","name":"三江街道","pinyin":"sanjiangjiedao","location":{"latitude":28.930371,"longitude":106.679819},"polygon":[]},{"id":"500110006","name":"新盛街道","pinyin":"xinshengjiedao","location":{"latitude":29.11751,"longitude":106.634156},"polygon":[]},{"id":"500110100","name":"万东镇","pinyin":"wandongzhen","location":{"latitude":28.951115,"longitude":106.944264},"polygon":[]},{"id":"500110101","name":"南桐镇","pinyin":"nantongzhen","location":{"latitude":28.938858,"longitude":106.876487},"polygon":[]},{"id":"500110102","name":"青年镇","pinyin":"qingnianzhen","location":{"latitude":28.843298,"longitude":106.850415},"polygon":[]},{"id":"500110103","name":"关坝镇","pinyin":"guanbazhen","location":{"latitude":28.792622,"longitude":106.839582},"polygon":[]},{"id":"500110104","name":"丛林镇","pinyin":"conglinzhen","location":{"latitude":29.012755,"longitude":106.973418},"polygon":[]},{"id":"500110105","name":"石林镇","pinyin":"shilinzhen","location":{"latitude":28.836339,"longitude":106.94114},"polygon":[]},{"id":"500110106","name":"金桥镇","pinyin":"jinqiaozhen","location":{"latitude":29.053329,"longitude":106.88093},"polygon":[]},{"id":"500110107","name":"黑山镇","pinyin":"heishanzhen","location":{"latitude":28.913384,"longitude":106.998293},"polygon":[]},{"id":"500110108","name":"石角镇","pinyin":"shijiaozhen","location":{"latitude":28.939384,"longitude":106.793818},"polygon":[]},{"id":"500110109","name":"东溪镇","pinyin":"dongxizhen","location":{"latitude":28.744872,"longitude":106.659471},"polygon":[]},{"id":"500110110","name":"赶水镇","pinyin":"ganshuizhen","location":{"latitude":28.712139,"longitude":106.774451},"polygon":[]},{"id":"500110111","name":"打通镇","pinyin":"datongzhen","location":{"latitude":28.570965,"longitude":106.6509},"polygon":[]},{"id":"500110112","name":"石壕镇","pinyin":"shihaozhen","location":{"latitude":28.540026,"longitude":106.696611},"polygon":[]},{"id":"500110113","name":"永新镇","pinyin":"yongxinzhen","location":{"latitude":28.976024,"longitude":106.483613},"polygon":[]},{"id":"500110114","name":"三角镇","pinyin":"sanjiaozhen","location":{"latitude":29.090036,"longitude":106.758545},"polygon":[]},{"id":"500110115","name":"隆盛镇","pinyin":"longshengzhen","location":{"latitude":29.10368,"longitude":106.813481},"polygon":[]},{"id":"500110116","name":"郭扶镇","pinyin":"guofuzhen","location":{"latitude":28.848943,"longitude":106.574033},"polygon":[]},{"id":"500110117","name":"篆塘镇","pinyin":"zhuantangzhen","location":{"latitude":28.860951,"longitude":106.680174},"polygon":[]},{"id":"500110118","name":"丁山镇","pinyin":"dingshanzhen","location":{"latitude":28.720479,"longitude":106.586491},"polygon":[]},{"id":"500110119","name":"安稳镇","pinyin":"anwenzhen","location":{"latitude":28.642888,"longitude":106.785858},"polygon":[]},{"id":"500110120","name":"扶欢镇","pinyin":"fuhuanzhen","location":{"latitude":28.825367,"longitude":106.743774},"polygon":[]},{"id":"500110121","name":"永城镇","pinyin":"yongchengzhen","location":{"latitude":29.006965,"longitude":106.826191},"polygon":[]},{"id":"500110123","name":"中峰镇","pinyin":"zhongfengzhen","location":{"latitude":28.893131,"longitude":106.467111},"polygon":[]},{"id":"500110124","name":"横山镇","pinyin":"hengshanzhen","location":{"latitude":29.134393,"longitude":106.693879},"polygon":[]}]