[{"id":"659002001","name":"幸福路街道","pinyin":"xingfulujiedao","location":{"latitude":40.655958,"longitude":81.244275},"polygon":[]},{"id":"659002002","name":"金银川路街道","pinyin":"jinyinchuanlujiedao","location":{"latitude":40.54791,"longitude":81.273558},"polygon":[]},{"id":"659002003","name":"青松路街道","pinyin":"qingsonglujiedao","location":{"latitude":40.541836,"longitude":81.245665},"polygon":[]},{"id":"659002004","name":"南口街道","pinyin":"nankoujiedao","location":{"latitude":40.508342,"longitude":81.3072},"polygon":[]},{"id":"659002201","name":"托喀依乡","pinyin":"tuokayixiang","location":{"latitude":40.778866,"longitude":81.604093},"polygon":[]},{"id":"659002402","name":"工业园区","pinyin":"gongyeyuanqu","location":{"latitude":40.766402,"longitude":81.372597},"polygon":[]},{"id":"659002500","name":"兵团七团","pinyin":"bingtuanqituan","location":{"latitude":40.585848,"longitude":80.708877},"polygon":[]},{"id":"659002501","name":"兵团八团","pinyin":"bingtuanbatuan","location":{"latitude":40.604573,"longitude":80.822918},"polygon":[]},{"id":"659002502","name":"兵团一团","pinyin":"bingtuanyituan","location":{"latitude":40.614851,"longitude":79.941073},"polygon":[]},{"id":"659002503","name":"兵团十团","pinyin":"bingtuanshituan","location":{"latitude":40.681105,"longitude":81.32858},"polygon":[]},{"id":"659002504","name":"兵团十一团","pinyin":"bingtuanshiyituan","location":{"latitude":40.553818,"longitude":81.681572},"polygon":[]},{"id":"659002505","name":"兵团十二团","pinyin":"bingtuanshiertuan","location":{"latitude":40.514796,"longitude":81.395293},"polygon":[]},{"id":"659002506","name":"兵团十三团","pinyin":"bingtuanshisantuan","location":{"latitude":40.580533,"longitude":81.491351},"polygon":[]},{"id":"659002507","name":"兵团十四团","pinyin":"bingtuanshisituan","location":{"latitude":40.702054,"longitude":81.748151},"polygon":[]},{"id":"659002509","name":"兵团十六团","pinyin":"bingtuanshiliutuan","location":{"latitude":40.453932,"longitude":80.805131},"polygon":[]},{"id":"659002511","name":"兵团第一师水利水电工程处","pinyin":"bingtuandiyishishuilishuidiangongchengchu","location":{"latitude":40.67952,"longitude":81.169802},"polygon":[]},{"id":"659002512","name":"兵团第一师塔里木灌区水利管理处","pinyin":"bingtuandiyishitalimuguanqushuiliguanlichu","location":{"latitude":40.703324,"longitude":81.210361},"polygon":[]},{"id":"659002513","name":"阿拉尔农场","pinyin":"alaernongchang","location":{"latitude":40.590183,"longitude":81.075075},"polygon":[]},{"id":"659002514","name":"兵团第一师幸福农场","pinyin":"bingtuandiyishixingfunongchang","location":{"latitude":40.637031,"longitude":81.05648},"polygon":[]},{"id":"659002515","name":"中心监狱","pinyin":"zhongxinjianyu","location":{"latitude":40.671381,"longitude":81.269381},"polygon":[]},{"id":"659002516","name":"兵团二团","pinyin":"bingtuanertuan","location":{"latitude":40.497572,"longitude":79.859827},"polygon":[]},{"id":"659002517","name":"兵团农一师沙井子水利管理处","pinyin":"bingtuannongyishishajingzishuiliguanlichu","location":{"latitude":40.632729,"longitude":79.804307},"polygon":[]},{"id":"659002518","name":"兵团五团","pinyin":"bingtuanwutuan","location":{"latitude":41.326697,"longitude":80.852353},"polygon":[]}]